{"type":"FeatureCollection","bbox":[27.9708481,40.9571644,29.1158116,41.5833019],"features":[{"type":"Feature","properties":{"ad":"Çalışma alanı","ilce_sayisi":19},"geometry":{"type":"MultiPolygon","coordinates":[[[[27.9708481,41.0998253],[27.9765022,41.0985236],[27.9774356,41.0994534],[27.9780042,41.0985155],[27.9782617,41.0970278],[27.977507,41.0965996],[27.9767218,41.0944267],[27.9769957,41.092217],[27.9754078,41.0905189],[27.9747685,41.0876566],[27.9788097,41.0845467],[27.9789505,41.0835969],[27.9784407,41.0822078],[27.9750011,41.0796342],[27.9746651,41.0779069],[27.9753971,41.0756632],[27.9756062,41.0752479],[27.9810104,41.076032],[27.9819775,41.0749845],[27.981298,41.0718214],[27.9839896,41.0716475],[27.9801792,41.0677771],[27.9754429,41.0658835],[27.9775137,41.0624535],[27.9772923,41.0609139],[27.9787849,41.0575998],[27.9773923,41.0516837],[27.9781295,41.049336],[27.9765272,41.048056],[27.9738632,41.042427],[27.9750271,41.0418352],[27.9768929,41.0420891],[27.9765689,41.0438713],[27.9803968,41.0436561],[27.9806113,41.0411918],[27.9816959,41.0401358],[27.984444,41.0432059],[27.9859367,41.0440022],[27.9907823,41.0432148],[27.9922982,41.042841],[27.9943246,41.0411451],[27.9953149,41.0381139],[27.9961626,41.039105],[28.0053767,41.0401005],[28.0064131,41.0369205],[28.0057943,41.0334206],[28.0075828,41.0320583],[28.0132167,41.0353853],[28.0134334,41.0342521],[28.0169493,41.0352017],[28.0245237,41.0392336],[28.0306559,41.0412113],[28.0328266,41.0416665],[28.0382826,41.0413055],[28.0430201,41.0420509],[28.0538594,41.0469089],[28.0646209,41.0531451],[28.0692029,41.0551839],[28.0750236,41.0567324],[28.087945,41.058371],[28.092692,41.058327],[28.113769,41.061206],[28.11727,41.0614265],[28.1225964,41.0598988],[28.1255259,41.0635366],[28.1318778,41.0664493],[28.1379804,41.0674271],[28.1429747,41.0690315],[28.1520535,41.0701053],[28.1549093,41.0693801],[28.1574554,41.0708353],[28.1667402,41.072715],[28.1848857,41.0732835],[28.199437,41.071898],[28.2063897,41.0703954],[28.2114127,41.0704051],[28.2137937,41.0712476],[28.2142237,41.0727283],[28.2197972,41.0771631],[28.2238635,41.0777923],[28.236213,41.0774505],[28.2408727,41.0756187],[28.2423687,41.0747695],[28.2399477,41.0735489],[28.242051,41.0742192],[28.2430919,41.0727666],[28.2406328,41.0721091],[28.2429794,41.0724986],[28.2426179,41.0713456],[28.24125485255085,41.07109628361542],[28.2441252,41.0696959],[28.249351,41.0684399],[28.2538417,41.0651814],[28.259981,41.062523],[28.265082,41.063238],[28.277285,41.062846],[28.2790527,41.0637103],[28.3061993,41.0598738],[28.311798,41.058608],[28.313134,41.057566],[28.323656,41.057959],[28.3357569,41.0567738],[28.3384807,41.0582486],[28.34062,41.058276],[28.3507747,41.056273],[28.3520223,41.0552837],[28.3521163,41.0542842],[28.35918,41.053694],[28.361532,41.05264],[28.3648338,41.0523797],[28.3659562,41.0514183],[28.3675056,41.051418],[28.365362,41.052078],[28.368603,41.0531589],[28.3711731,41.0530679],[28.38893,41.049232],[28.3909885,41.0480917],[28.393666,41.048661],[28.397379,41.047846],[28.4292414,41.0386136],[28.450588,41.031015],[28.4590176,41.0273978],[28.4588367,41.0265235],[28.4595288,41.026994],[28.46577,41.0246338],[28.4734476,41.020875],[28.474908,41.0197145],[28.475391,41.01825],[28.4810712,41.0155613],[28.4829061,41.0128556],[28.4979071,41.0072451],[28.5084201,41.0021276],[28.5091465,41.0009056],[28.5076439,41.0002007],[28.507573111062495,40.999787086294965],[28.5079374,41.0000173],[28.508999,40.9986173],[28.508028,41.0000752],[28.508432,41.000308],[28.5090178,40.9995193],[28.5085827,41.0002942],[28.5090371,41.0005359],[28.5103991,40.9985375],[28.5100268,40.9980505],[28.5117842,40.9983711],[28.512988,40.9976975],[28.5112735,40.9976484],[28.5119467,40.9971027],[28.5144151,40.9975556],[28.5174461,40.9967456],[28.5337625,40.9894848],[28.5376517,40.9877045],[28.5411708,40.9845932],[28.5422457,40.9846585],[28.5442353,40.9860955],[28.5445971,40.9911336],[28.5474318,40.99856],[28.5471272,40.9994961],[28.5512155,41.0034324],[28.55208,41.0072537],[28.5541163,41.0092074],[28.5569463,41.0096312],[28.5602829,41.0124696],[28.56392241449787,41.01364088441346],[28.5629224,41.0137166],[28.5631831,41.0153113],[28.5642829,41.0153222],[28.5632677,41.0154299],[28.5630485,41.0162331],[28.5643851,41.0168141],[28.5654072,41.0158054],[28.5656192,41.016957],[28.567502,41.0181592],[28.5727487,41.0183112],[28.5745731,41.0165591],[28.5810061,41.014762],[28.5829198,41.0150082],[28.5751141,41.0167106],[28.5748874,41.0182852],[28.5776287,41.0180186],[28.5774464,41.0169269],[28.5779246,41.0168831],[28.5781021,41.0179268],[28.5822501,41.0172919],[28.5820091,41.0157036],[28.5831565,41.0162479],[28.5825704,41.0163973],[28.5834732,41.0174695],[28.5868065,41.0170785],[28.5917419,41.0157481],[28.5919378,41.014829],[28.592688,41.0152668],[28.5960912,41.0136481],[28.5987996,41.0106363],[28.5998648,41.0081971],[28.5975262,41.0037579],[28.5971958,40.9970129],[28.598052700224923,40.99704280363039],[28.5975309,40.9970121],[28.5972337,40.9923709],[28.5961172,40.9880811],[28.5989035,40.981152],[28.5948498,40.9737825],[28.5959264,40.972125],[28.5976112,40.9714281],[28.599089,40.9689753],[28.5988637,40.9679419],[28.5983354,40.9681293],[28.597525,40.9689001],[28.5975966,40.9693025],[28.5982518,40.9687548],[28.5975726,40.9697964],[28.5974804,40.9685272],[28.598206,40.9678739],[28.5960653,40.9639831],[28.6005764,40.9620342],[28.6020307,40.9628978],[28.6007072,40.9623723],[28.5963766,40.9642065],[28.5971182,40.9653477],[28.6002087,40.963975],[28.5972481,40.9655105],[28.5981499,40.9666225],[28.598645,40.9664241],[28.5983313,40.9660069],[28.5988248,40.9663295],[28.5995001,40.9660216],[28.599216,40.965612],[28.5997021,40.9659329],[28.6004896,40.9655695],[28.600199,40.9651955],[28.6022793,40.9647681],[28.6018487,40.9641806],[28.6064579,40.9653331],[28.6154652,40.9618205],[28.6168707,40.9619469],[28.620747,40.960717],[28.625512,40.961676],[28.6301001,40.9613121],[28.6386113,40.9623459],[28.6518714,40.962788],[28.6549103,40.9622536],[28.6562546,40.9607964],[28.6575415,40.96057],[28.6542783,40.9631661],[28.6580489,40.9636472],[28.664881,40.9626618],[28.6645749,40.9612946],[28.6579559,40.9618682],[28.6665049,40.9608773],[28.6669044,40.9579003],[28.6718844,40.9571644],[28.6726871,40.9578129],[28.6691674,40.9595555],[28.6690567,40.9632161],[28.6706043,40.9634888],[28.670639,40.9620499],[28.670832,40.9637867],[28.67239,40.9640085],[28.6726392,40.9613278],[28.6746777,40.9614121],[28.6743881,40.9645933],[28.6758802,40.9648256],[28.6762524,40.9613101],[28.6761383,40.965947],[28.6775468,40.9660233],[28.6781111,40.9627612],[28.6779438,40.967695],[28.6789733,40.9677229],[28.6798761,40.9633137],[28.6803037,40.9633496],[28.6799975,40.9664911],[28.6812012,40.9665548],[28.6819245,40.962927],[28.6823258,40.9629629],[28.6819192,40.9667223],[28.6837407,40.966814],[28.6841785,40.9623234],[28.6845885,40.9623507],[28.6846306,40.9643251],[28.685086,40.9645168],[28.6847543,40.9687607],[28.6865661,40.9687031],[28.687025,40.970163],[28.689412,40.970769],[28.6908519,40.9720021],[28.6948966,40.9723018],[28.6951541,40.9708923],[28.6951327,40.9722289],[28.6966776,40.97312],[28.6992415,40.9735331],[28.6994886,40.9729903],[28.699195132467406,40.97416654488345],[28.709803,40.9723778],[28.7121725,40.9726918],[28.7137389,40.9722706],[28.7146294,40.9704398],[28.7179598,40.9692289],[28.7150154,40.9705889],[28.7146849,40.971504],[28.715396,40.9718913],[28.7168603,40.9713918],[28.7166786,40.9708773],[28.7193659,40.9707602],[28.7194593,40.9694322],[28.7250377,40.968936],[28.7256391,40.9695144],[28.7246432,40.9705769],[28.7271703,40.9714834],[28.7346914,40.9714958],[28.7363018,40.9711679],[28.7380251,40.9698537],[28.738506,40.9705618],[28.7416499,40.9705038],[28.7430226,40.9718379],[28.7444539,40.9747205],[28.7492384,40.9765568],[28.7523402,40.9797615],[28.756399,40.9800546],[28.7566005,40.9831476],[28.7567678,40.9799843],[28.7585836,40.9805108],[28.7622742,40.9801891],[28.7642601,40.9815625],[28.7664809,40.9815463],[28.7664809,40.9833524],[28.7673822,40.9844215],[28.7672749,40.9829717],[28.7693241,40.9820889],[28.7676398,40.9826883],[28.7671289,40.9818156],[28.7682876,40.9799345],[28.7749409,40.9773406],[28.7728983,40.9787489],[28.7721653,40.9813236],[28.770814,40.9809451],[28.769565,40.9816608],[28.774002,40.9817787],[28.7753009,40.9826275],[28.7728431,40.9856642],[28.7719191,40.988022],[28.7699962,40.9881067],[28.7700399,40.9886249],[28.7713943,40.9885931],[28.7700384,40.9890289],[28.7704386,40.9897522],[28.7718596,40.9890741],[28.7728763,40.9863185],[28.77458063796928,40.98451960609449],[28.773436,40.9865223],[28.7769953,40.9860099],[28.7775496,40.984687],[28.7785325,40.9842507],[28.7885011,40.9866443],[28.7923865,40.9891783],[28.7945518,40.9881167],[28.7984168,40.9890176],[28.7972415,40.9972831],[28.8004356,40.9996997],[28.8031143,41.0005109],[28.806196,41.0006487],[28.8103968,40.9995644],[28.8159633,40.9945503],[28.8186472,40.9935855],[28.8193482,40.9944115],[28.8162106,40.995445],[28.8141053,40.9986402],[28.8117338,41.0005848],[28.8118544,41.0023993],[28.8094068,41.0074172],[28.8082437,41.0150551],[28.8061208,41.015537],[28.8059569,41.0161334],[28.8069199,41.0218956],[28.8078003,41.0225954],[28.8085127,41.0247242],[28.8079025,41.0262786],[28.8083935,41.027953],[28.8109631,41.0271706],[28.8153903,41.0234229],[28.8224765,41.0198726],[28.8271045,41.0203317],[28.827943,41.0218934],[28.8379871,41.0236683],[28.8391601,41.0222932],[28.8414869,41.0214159],[28.8443264,41.0214024],[28.8474295,41.0242114],[28.8484567,41.0214301],[28.8551267,41.0209849],[28.8553145,41.020051],[28.8584705,41.0191368],[28.8584013,41.0200373],[28.8601491,41.0175556],[28.8627742,41.0188931],[28.8620609,41.021044],[28.8625572,41.0213359],[28.8594816,41.025565],[28.8590939,41.0287282],[28.8630936,41.029813],[28.8691728,41.0290893],[28.8721722,41.0272396],[28.8726936,41.027948],[28.8712227,41.0384466],[28.870975958627913,41.038490957780205],[28.8725399,41.0384821],[28.8744317,41.0367972],[28.8764859,41.0318455],[28.8854573,41.0339974],[28.8883467,41.0316948],[28.8905535,41.0297034],[28.8869303,41.0249647],[28.8862061,41.0229554],[28.8854227,41.0226141],[28.887326,41.0207747],[28.8867893,41.0175777],[28.8893156,41.0173263],[28.8923096,41.0187492],[28.8985146,41.0190267],[28.90054768642081,41.02062514844975],[28.900845,41.0198111],[28.9006963,41.0173883],[28.9025818,41.0170093],[28.9022344,41.0145715],[28.9008401,41.0143155],[28.8991622,41.0102108],[28.8975661,41.0083756],[28.8982272,41.0081961],[28.8959518,41.0066949],[28.8918941,40.9999243],[28.8920313,40.9979011],[28.8942051,40.9955698],[28.8916562,40.9906024],[28.8909676,40.9837039],[28.8899116,40.9821453],[28.8913773,40.9797987],[28.8915193,40.9779778],[28.8919484,40.9780205],[28.8917111,40.9794967],[28.8929381,40.9800007],[28.8913262,40.9803014],[28.8911171,40.9807954],[28.892128,40.9812125],[28.8927878,40.9811498],[28.8927154,40.9804471],[28.8935347,40.9803329],[28.8931112,40.9805936],[28.8938983,40.9809189],[28.8931741,40.9792241],[28.8944294,40.9805767],[28.895057,40.9804106],[28.8944616,40.9795076],[28.8952068,40.9803262],[28.8956466,40.9802371],[28.8950995,40.9793786],[28.8962475,40.9800995],[28.8956681,40.9791761],[28.8964191,40.9800509],[28.8963118,40.9790708],[28.8970522,40.9799132],[28.8999304,40.9789504],[28.9023175,40.9790849],[28.9085314,40.9817175],[28.911715,40.9857176],[28.9170911,40.9877888],[28.9199245,40.987921],[28.9238398,40.9877495],[28.9253411,40.9884466],[28.9278438,40.9913796],[28.9294262,40.9908643],[28.9301473,40.9927495],[28.9293545,40.9911617],[28.9280372,40.9916432],[28.9296128,40.9935525],[28.932315,40.9952446],[28.9345888,40.9994116],[28.9371837,41.0012678],[28.9389839,41.0013881],[28.9380206,41.0007563],[28.9380479,41.0000195],[28.9402707,40.9977416],[28.9461377,40.9962017],[28.9498037,40.9966575],[28.9531355,40.9981549],[28.9610656,40.9983593],[28.9547749,40.9986844],[28.9537328,40.9992127],[28.9533822,41.0000294],[28.953791,41.0001484],[28.9531825,41.0004946],[28.9535916,41.0006223],[28.9528696,41.0012236],[28.9537443,41.0021298],[28.9541898,41.0016092],[28.9541165,41.0022146],[28.9554778,41.0023818],[28.9554561,41.0019007],[28.9564125,41.0017933],[28.9561012,41.0015015],[28.9570334,41.0022321],[28.9584351,41.0018663],[28.9582141,41.0012967],[28.9585377,41.0018411],[28.9621977,41.0009448],[28.9652375,41.0008819],[28.9618234,41.0011515],[28.9608645,41.0020846],[28.96457,41.0023163],[28.9730812,41.000984],[28.9783348,41.0010699],[28.9776073,41.0017655],[28.9813953,41.0025894],[28.9863188,41.0067466],[28.9878568,41.0102134],[28.9881084,41.0124523],[28.9868537,41.0170306],[28.9853485,41.0176519],[28.9811095,41.0167169],[28.9769008,41.0166667],[28.973217,41.0182785],[28.9712713,41.0183672],[28.9696293,41.0196342],[28.9663726,41.0195265],[28.9654848,41.020759],[28.9636087,41.021494],[28.9631485,41.0228728],[28.9604146,41.0245878],[28.9596095,41.0263111],[28.9574603,41.02841],[28.9534118,41.0291388],[28.952489,41.0309603],[28.9505876,41.031463],[28.9497438,41.0323595],[28.950161,41.0333067],[28.9491023,41.0342451],[28.9491945,41.035179],[28.946942,41.0368212],[28.9447463,41.0406939],[28.9433461,41.0395188],[28.944566,41.0407646],[28.9396832,41.0425494],[28.9386412,41.0440972],[28.9378466,41.0472984],[28.9351464,41.0497276],[28.9357138,41.0522031],[28.939218,41.0553195],[28.9466348,41.0569381],[28.9460941,41.0602538],[28.943824,41.0645429],[28.9452704,41.0647903],[28.9456003,41.063803],[28.9466952,41.0633813],[28.94791,41.0646724],[28.948093350307754,41.06470004891962],[28.9495803,41.0625692],[28.9550706,41.0585246],[28.9557561,41.0557043],[28.9555373,41.0536726],[28.9608798,41.0530149],[28.9619324,41.0535554],[28.9633715,41.0565104],[28.9698265,41.0641284],[28.9745719,41.0662393],[28.974618,41.067229],[28.9784413,41.0674293],[28.9786399,41.0694461],[28.979879,41.0708345],[28.9827069,41.0691136],[28.9847169,41.070862],[28.985297,41.0705692],[28.9889502,41.0726585],[28.9895725,41.0753761],[28.9892722,41.078131],[28.992252,41.0766903],[28.9982173,41.0760474],[29.0010926,41.0747472],[29.0069989,41.0758373],[29.0076693,41.0793599],[29.0052259,41.0834433],[29.0056175,41.0844743],[29.0070558,41.0846336],[29.0042174,41.0935107],[29.0052191,41.0937086],[29.0086969,41.1002674],[29.0120699,41.1048573],[29.0144458,41.1066686],[29.0186698,41.1013168],[29.0229008,41.0992079],[29.0252505,41.0986985],[29.0282438,41.0997253],[29.0328378,41.0993991],[29.0323243,41.0984346],[29.0305111,41.0980223],[29.0301517,41.0971208],[29.0285343,41.0962961],[29.028317,41.0953461],[29.025903,41.095526],[29.0233028,41.0941902],[29.0326802,41.0919151],[29.0420286,41.0908168],[29.0426169,41.0878828],[29.0419183,41.0872005],[29.0418699,41.084786],[29.0462184,41.0853271],[29.0483449,41.084036],[29.0549072,41.0840084],[29.0543775,41.0825056],[29.0547757,41.0810946],[29.0558382,41.0816432],[29.0570176,41.0835623],[29.057102,41.090318],[29.0540054,41.0948485],[29.0546405,41.0974811],[29.053534,41.0989294],[29.0547118,41.0997085],[29.0551845,41.1017392],[29.0593579,41.1093226],[29.0585209,41.1103081],[29.0584714,41.1126837],[29.0565236,41.1135708],[29.0543942,41.1135274],[29.0545182,41.1140741],[29.0574047,41.114915],[29.0617587,41.1131254],[29.0643737,41.1165373],[29.0704541,41.1204023],[29.0718838,41.1232815],[29.0716977,41.1245372],[29.0701664,41.1273616],[29.0660402,41.1290646],[29.0638495,41.130781],[29.0624984,41.1341369],[29.0612161,41.1354962],[29.0592251,41.1361993],[29.0588928,41.1370653],[29.0543365,41.1384664],[29.0546199,41.1391068],[29.0573678,41.1390425],[29.0579125,41.139815],[29.0557271,41.1425195],[29.0555835,41.1439185],[29.0530526,41.1463555],[29.0504745,41.1479957],[29.044565,41.1496654],[29.04142,41.1529212],[29.0384098,41.1536477],[29.0369742,41.1546592],[29.0365677,41.1552135],[29.0382222,41.1557243],[29.0361651,41.1557183],[29.0363909,41.1567372],[29.0383301,41.158088],[29.0467187,41.1610619],[29.0483837,41.1628088],[29.051471,41.1645898],[29.0570347,41.1657578],[29.0579546,41.1685824],[29.0604421,41.1706402],[29.0677959,41.1725072],[29.0725019,41.17504],[29.0739905,41.1779794],[29.0738494,41.1808707],[29.0742807,41.1808618],[29.0741133,41.1797055],[29.0772246,41.1855276],[29.0810554,41.187816],[29.0814731,41.1875215],[29.0814686,41.1881709],[29.0916638,41.2004575],[29.0979109,41.2029567],[29.0986455,41.2050555],[29.1001675,41.2060705],[29.1020352,41.2061066],[29.1033507,41.2051349],[29.1050223,41.2056004],[29.106311,41.2051582],[29.106695,41.2056417],[29.1061468,41.206832],[29.105204,41.2075009],[29.1095159,41.2107027],[29.1108071,41.2127759],[29.109607,41.213671],[29.1113621,41.2138958],[29.109554,41.214909],[29.1091908,41.2158089],[29.1078108,41.2157423],[29.1081205,41.2167918],[29.1069041,41.2169731],[29.1060556,41.2184812],[29.106375,41.2211217],[29.1076646,41.2225351],[29.1097166,41.22291],[29.1080435,41.2240391],[29.1085244,41.2248152],[29.1103025,41.2255715],[29.1101043,41.2260253],[29.1139278,41.2296127],[29.112355,41.2303849],[29.1122349,41.2308645],[29.1128736,41.2309598],[29.1121015,41.2313667],[29.1132004,41.2319315],[29.1133322,41.234073],[29.115308,41.2334396],[29.1144724,41.2317556],[29.1140084,41.231899],[29.1144823,41.2289563],[29.1152523,41.2289707],[29.1149202,41.231527],[29.1158116,41.2340845],[29.1133158,41.234503],[29.112411,41.2352909],[29.1093733,41.2352753],[29.1089974,41.2355908],[29.109505,41.2362962],[29.1122362,41.2375812],[29.1118437,41.2380643],[29.1097301,41.2384435],[29.106026,41.23708],[29.1055298,41.2376669],[29.1066556,41.2384051],[29.1068439,41.2397786],[29.1050181,41.2387944],[29.105444,41.2401316],[29.1014113,41.2411134],[29.101466,41.2417219],[29.1003634,41.242041],[29.0986114,41.2401262],[29.0976243,41.2402996],[29.0985524,41.2420381],[29.0972829,41.2425857],[29.0978196,41.2428072],[29.0963808,41.2434272],[29.095383,41.2449176],[29.0928966,41.2452402],[29.0930865,41.2446138],[29.0921538,41.2435187],[29.0912961,41.2438646],[29.0918167,41.2452405],[29.0909824,41.2474184],[29.0893132,41.2479153],[29.087633,41.2464491],[29.0844967,41.2457047],[29.0848224,41.2472865],[29.083128,41.2492937],[29.0844825,41.2497919],[29.082643,41.249921],[29.0821714,41.2492699],[29.0799217,41.2487641],[29.0790403,41.2501327],[29.0802042,41.251711],[29.0790564,41.2521996],[29.0792736,41.252609],[29.0779942,41.2538995],[29.0764573,41.2530022],[29.0754258,41.2498369],[29.0738087,41.2497589],[29.0720417,41.2479125],[29.0710425,41.2484588],[29.0710411,41.2498506],[29.0721832,41.2516658],[29.0703768,41.2526422],[29.0697156,41.2519289],[29.0674511,41.2522522],[29.0676784,41.2533107],[29.0671635,41.2533873],[29.0658577,41.2510095],[29.0641474,41.2507292],[29.0621167,41.2517182],[29.0619117,41.2538511],[29.0609676,41.2539842],[29.0604311,41.2552264],[29.0591222,41.2546618],[29.0545624,41.2548755],[29.0538282,41.2557334],[29.0519506,41.2553462],[29.052213,41.25573],[29.0502072,41.2558826],[29.0498317,41.2569553],[29.047466,41.256423],[29.047525,41.2549913],[29.0430786,41.2536041],[29.0412473,41.2555559],[29.0419299,41.2563322],[29.0400577,41.2559592],[29.0382747,41.2564962],[29.0389693,41.2541572],[29.0383783,41.2517093],[29.0371477,41.2502915],[29.033991,41.249508],[29.0344493,41.2473523],[29.0336571,41.2465142],[29.0295535,41.2454782],[29.0222044,41.2449819],[29.0009022,41.2473295],[28.9877486,41.2501206],[28.9826766,41.2522379],[28.9784216,41.2530925],[28.9749853,41.2525068],[28.9688015,41.2539197],[28.964807,41.255218],[28.9645618,41.2566301],[28.9628848,41.2584361],[28.9572734,41.2598519],[28.9552349,41.2617754],[28.9538938,41.262098],[28.9492882,41.2617809],[28.9431855,41.2624758],[28.9420549,41.2635403],[28.9301982,41.2677029],[28.926175,41.2699554],[28.9216159,41.2715379],[28.9157524,41.2719854],[28.9154645,41.2709107],[28.9111088,41.2701849],[28.910041,41.270464],[28.909545,41.2714203],[28.9080249,41.2710574],[28.9004265,41.2746396],[28.8960761,41.2741619],[28.8913232,41.2748473],[28.8868353,41.2741681],[28.8567817,41.2815859],[28.8505429,41.2837869],[28.8452268,41.2869411],[28.8359684,41.2871379],[28.8217736,41.2931081],[28.8166022,41.2979203],[28.8132387,41.2996776],[28.8101488,41.3003183],[28.8062677,41.3027625],[28.8010561,41.3032562],[28.7955201,41.3026537],[28.7910274,41.3041689],[28.7888602,41.3061113],[28.788611110127942,41.30595208462815],[28.7895897,41.3068326],[28.7900215,41.3081262],[28.7902965,41.3113145],[28.7888977,41.3141079],[28.7884243,41.3138117],[28.7897995,41.311561],[28.7896407,41.3083457],[28.7875244,41.3067601],[28.784582,41.3072013],[28.7807786,41.308648],[28.7804233,41.3114585],[28.7818569,41.3132415],[28.7851801,41.312482],[28.7754035,41.3165776],[28.7707445,41.3216037],[28.7680462,41.3231568],[28.760182,41.3242687],[28.7563518,41.3265549],[28.7519771,41.3279688],[28.741782,41.3259788],[28.7355942,41.3273344],[28.7306459,41.3258496],[28.7260052,41.3267543],[28.7089216,41.3323889],[28.7052027,41.3342872],[28.6923408,41.3387881],[28.6875755,41.3413188],[28.6862673,41.3414002],[28.6854721,41.3421423],[28.6854737,41.3430871],[28.6840551,41.3432853],[28.6838432,41.344666],[28.6844564,41.3451539],[28.6862417,41.3449482],[28.6871146,41.3432023],[28.687121,41.344706],[28.6878857,41.3451427],[28.6852087,41.3458847],[28.6844613,41.3478675],[28.6833501,41.3482928],[28.6793134,41.3476082],[28.6800241,41.3464081],[28.678996,41.3455898],[28.6790237,41.3445918],[28.6771318,41.3431993],[28.6726373,41.3429083],[28.660976,41.3463076],[28.6578557,41.3478498],[28.6442542,41.349213],[28.6307621,41.3527927],[28.6112438,41.360316],[28.609187,41.361905],[28.6039728,41.3632095],[28.5787815,41.3736768],[28.567881,41.3800489],[28.5645604,41.3812001],[28.5632622,41.3828061],[28.5548025,41.3861708],[28.53847,41.3898834],[28.5253197,41.3955197],[28.5046881,41.4027588],[28.4919557,41.408084],[28.4881014,41.4099529],[28.4685105,41.4183087],[28.4344357,41.4305006],[28.4018683,41.4432057],[28.3655078,41.4586166],[28.2905057,41.4889464],[28.2795489,41.4940274],[28.2783768,41.495476],[28.2767299,41.4951163],[28.2723981,41.496167],[28.2706271,41.4973114],[28.2686993,41.4997489],[28.2620636,41.5022178],[28.260996,41.503863],[28.2617953,41.504801],[28.2599641,41.5072705],[28.2560849,41.5076533],[28.2526812,41.5096197],[28.2527874,41.5104459],[28.2503567,41.5115486],[28.2500196,41.510778],[28.2485913,41.5106585],[28.2480413,41.511356],[28.2468072,41.5112627],[28.2478018,41.5123391],[28.247101,41.5143784],[28.2439479,41.5148338],[28.244074,41.515844],[28.2403028,41.5160207],[28.2391629,41.517047],[28.2373926,41.5168421],[28.2363653,41.5187359],[28.2332443,41.519772],[28.2315749,41.5213487],[28.2319263,41.5237946],[28.2295713,41.5238066],[28.2292601,41.5249191],[28.2281523,41.5243814],[28.2259878,41.5246006],[28.224226,41.5231208],[28.2204801,41.5246505],[28.219097,41.528001],[28.2219958,41.5290702],[28.2210643,41.5298206],[28.2190151,41.5300995],[28.2176756,41.5314543],[28.2140295,41.5330348],[28.2077754,41.5386525],[28.2060456,41.5384533],[28.205123,41.5402063],[28.1990551,41.5453919],[28.1995064,41.5480862],[28.1959176,41.5487607],[28.1925174,41.5481903],[28.192047,41.5485588],[28.1930043,41.5504392],[28.1930134,41.5524765],[28.188126,41.552969],[28.1883162,41.5533534],[28.1860846,41.5541522],[28.1855589,41.556902],[28.188386,41.557843],[28.188063,41.558874],[28.1859934,41.5604745],[28.1826729,41.5612773],[28.1808919,41.5642475],[28.181521,41.565615],[28.184942,41.5670169],[28.1866747,41.5669487],[28.186509,41.567361],[28.1823459,41.5684721],[28.18231,41.571383],[28.1784081,41.5723106],[28.176158,41.571446],[28.1752646,41.5722183],[28.176858,41.572337],[28.1769651,41.5728805],[28.172083,41.5729],[28.171429,41.5739159],[28.1703454,41.5736189],[28.169058,41.5741727],[28.1675881,41.5738396],[28.1657374,41.5752241],[28.1671375,41.5773309],[28.1651419,41.5787114],[28.161591,41.578781],[28.158191,41.579843],[28.1568727,41.5795239],[28.15581,41.580509],[28.1552553,41.5794818],[28.1535816,41.5793053],[28.1458783,41.5833019],[28.1380892,41.5814962],[28.1368983,41.5805733],[28.1365657,41.5787756],[28.1349349,41.5782378],[28.1329476,41.5764275],[28.1334677,41.5749333],[28.1322849,41.5740001],[28.1305253,41.5739038],[28.1309545,41.5731092],[28.1302249,41.5728363],[28.1283367,41.5731574],[28.1285083,41.5717608],[28.1273228,41.5710207],[28.1255901,41.5681086],[28.1245298,41.568259],[28.1231071,41.5670807],[28.1241366,41.5663536],[28.12294,41.5644562],[28.1208389,41.5631298],[28.1179902,41.5625885],[28.1189925,41.560325],[28.1223849,41.5607585],[28.1233907,41.5601454],[28.1237603,41.5570432],[28.1246292,41.5567418],[28.124876,41.5556822],[28.1248605,41.5543088],[28.1238627,41.5538672],[28.1246567,41.5523899],[28.1209016,41.5519884],[28.1190348,41.5500053],[28.1195712,41.5487688],[28.1215874,41.5488333],[28.1207406,41.5479016],[28.1224251,41.5471709],[28.1214917,41.5459263],[28.1217277,41.54477],[28.1206012,41.5441678],[28.1213426,41.5428488],[28.1187166,41.5416818],[28.1165007,41.5425226],[28.1159019,41.5417587],[28.1168461,41.5411324],[28.1161916,41.540241],[28.1165671,41.5398957],[28.117876,41.539719],[28.1212792,41.5372658],[28.1204067,41.5356199],[28.1210089,41.5342661],[28.1202432,41.5337083],[28.1207943,41.5315033],[28.1198002,41.5294475],[28.1095835,41.520317],[28.105613,41.5181054],[28.1046152,41.5157436],[28.1028919,41.5155354],[28.1022967,41.5167105],[28.0973759,41.5151332],[28.0956582,41.5120456],[28.0924272,41.5092361],[28.0919122,41.5096218],[28.0866766,41.5087219],[28.082664,41.509204],[28.0812263,41.5085452],[28.0789104,41.5089587],[28.0761886,41.5076325],[28.0754757,41.5065848],[28.076334,41.5052349],[28.0772996,41.5049618],[28.0776214,41.5033226],[28.0752611,41.5017638],[28.0739472,41.4983823],[28.0709481,41.4947567],[28.0711841,41.4934067],[28.0786008,41.4931414],[28.0813229,41.49106],[28.0853471,41.4900769],[28.0894875,41.4854985],[28.0903995,41.4830471],[28.093586,41.4800571],[28.0967188,41.4782566],[28.0987143,41.4781199],[28.0996426,41.4764944],[28.1027643,41.4752341],[28.1049293,41.4756726],[28.1044904,41.4748018],[28.1049049,41.4740766],[28.1062022,41.4737016],[28.1064498,41.4692291],[28.1085734,41.4682599],[28.1116855,41.4654104],[28.1127262,41.4596296],[28.1118889,41.4541597],[28.112391,41.4491531],[28.1136382,41.447608],[28.1137776,41.4388739],[28.112694,41.4366379],[28.1126228,41.4346944],[28.1110816,41.4319092],[28.1112403,41.4265362],[28.1130266,41.4224721],[28.1146101,41.4210297],[28.1161602,41.4176233],[28.1182477,41.4162125],[28.1205261,41.4133484],[28.1217715,41.4096812],[28.1182394,41.4079681],[28.1170821,41.4081706],[28.1133068,41.4070568],[28.1101298,41.4039901],[28.1017631,41.4041086],[28.0989144,41.394076],[28.0993294,41.388405],[28.0988078,41.3860364],[28.0948293,41.3773964],[28.0921247,41.3750215],[28.0893576,41.3695754],[28.0885863,41.3588209],[28.0890302,41.3555044],[28.0878997,41.3538681],[28.0877387,41.3524185],[28.0890057,41.35033],[28.0887095,41.349552],[28.0899167,41.3474814],[28.0897665,41.3462732],[28.0866122,41.3393138],[28.0850459,41.3381136],[28.082119,41.3330359],[28.0820263,41.3305444],[28.0795005,41.325843],[28.080497,41.3248533],[28.080243,41.3241003],[28.0793545,41.3231961],[28.0798265,41.3230219],[28.0789411,41.3212754],[28.0778702,41.321122],[28.0776395,41.3142416],[28.0781802,41.3119094],[28.0764326,41.3021638],[28.0781192,41.3013298],[28.0782498,41.3006399],[28.0770884,41.2998688],[28.0750917,41.2967023],[28.076262,41.29581],[28.0757018,41.294262],[28.076331,41.2919015],[28.0754173,41.2903821],[28.0765162,41.2894362],[28.0767309,41.2879246],[28.0721357,41.2849863],[28.0718148,41.2825662],[28.0675243,41.2790025],[28.0653756,41.2776846],[28.063118,41.277723],[28.0616716,41.2749571],[28.0589012,41.2720031],[28.0572522,41.2683419],[28.0578519,41.2680061],[28.0562111,41.2677203],[28.0561073,41.2668975],[28.0511627,41.2671077],[28.0458562,41.2653249],[28.0301426,41.2561208],[28.0234011,41.253457],[28.018926,41.2522997],[28.0155317,41.2522807],[28.0039147,41.2440889],[28.0003812,41.240615],[27.9974718,41.2304],[27.9984373,41.2221485],[28.0066556,41.2134487],[28.0115379,41.2048735],[28.0162198,41.200823],[28.0175185,41.1975714],[28.0183983,41.1970466],[28.019895,41.1913388],[28.0207632,41.1840943],[28.02334,41.1812963],[28.0231833,41.1790739],[28.0220014,41.1771951],[28.0214882,41.1739379],[28.0203509,41.1722904],[28.0169606,41.171499],[28.0161238,41.1693346],[28.0170035,41.168107],[28.0167889,41.1670086],[28.0129557,41.1669367],[28.0126462,41.164951],[28.0136239,41.1623401],[27.9921555,41.1615768],[27.9850101,41.1621463],[27.9842795,41.1619934],[27.9808259,41.1573563],[27.978605,41.1513704],[27.9807079,41.1437923],[27.9788196,41.1384758],[27.97839,41.1342688],[27.9761052,41.1279789],[27.9733564,41.1229912],[27.9758237,41.1233733],[27.9756439,41.1195252],[27.974925,41.1160658],[27.972453,41.1119977],[27.9725325,41.1114826],[27.9737449,41.1112805],[27.9773618,41.1114299],[27.975561,41.1098394],[27.972873,41.1088861],[27.9756868,41.1075135],[27.9756868,41.1065596],[27.973423,41.1025417],[27.9708481,41.0998253]],[[29.0042174,41.0935107],[29.004003648889913,41.098467013781075],[29.0042764,41.0982366],[29.0042174,41.0935107]],[[28.4919557,41.408084],[28.491894,41.4071566],[28.491605418157565,41.40722245343027],[28.4919557,41.408084]],[[28.078962589410878,41.29721105324159],[28.07938213641158,41.29722191065909],[28.0791373,41.2969633],[28.078962589410878,41.29721105324159]],[[28.085936416278667,41.297881855248235],[28.086573,41.2976712],[28.086356413454258,41.29744803941558],[28.085936416278667,41.297881855248235]],[[28.09135127004386,41.29602259691006],[28.0935067,41.2970874],[28.0917191,41.2959556],[28.09135127004386,41.29602259691006]],[[28.093929190778084,41.299665424385],[28.094126,41.2999154],[28.104059,41.2968593],[28.093929190778084,41.299665424385]],[[28.104059,41.2968593],[28.1047511,41.2979814],[28.104833646333404,41.2980148896246],[28.104059,41.2968593]],[[28.1099726,41.2970965],[28.1107983,41.2980453],[28.11090430745203,41.29804694498054],[28.1099726,41.2970965]],[[28.112856710015443,41.29807724156969],[28.11608616382211,41.29812735492081],[28.1148298,41.2978537],[28.112856710015443,41.29807724156969]],[[28.116677260169265,41.298256104588084],[28.1166998,41.2997877],[28.116828857648702,41.29985811233481],[28.116882,41.2983007],[28.116677260169265,41.298256104588084]],[[28.1177198,41.3003442],[28.119347,41.3028164],[28.120272144864273,41.303020557730015],[28.120197,41.3027343],[28.1190556,41.3023694],[28.1177198,41.3003442]],[[28.1214963,41.3032907],[28.1230871,41.3055712],[28.12339956542512,41.305699371918685],[28.1214963,41.3032907]],[[28.1249814,41.3333413],[28.1278835,41.3335966],[28.12788684558532,41.333457029513234],[28.1249814,41.3333413]],[[28.1266328,41.3091104],[28.12826427135514,41.30948806137072],[28.1280293,41.3092654],[28.1266328,41.3091104]],[[28.128605921847527,41.33099625642117],[28.1288428,41.3306241],[28.128825629496234,41.33016293669643],[28.128605921847527,41.33099625642117]],[[28.128747007501914,41.3099455073095],[28.13081,41.3125126],[28.132765,41.313753],[28.128747007501914,41.3099455073095]],[[28.1323157,41.3617921],[28.1336272,41.360744],[28.133650234158697,41.36060684464165],[28.1323157,41.3617921]],[[28.133769387992622,41.32102226159955],[28.137136503500777,41.320542562418076],[28.1341736,41.3206843],[28.133769387992622,41.32102226159955]],[[28.13560025464577,41.31796040673207],[28.1361286,41.3182402],[28.13582955738304,41.31802629657516],[28.13560025464577,41.31796040673207]],[[28.135987391852517,41.3518323008569],[28.136042976092444,41.352189068979506],[28.1361044,41.3519483],[28.135987391852517,41.3518323008569]],[[28.13600061943445,41.354545822950556],[28.1362986,41.3542089],[28.136228335807903,41.35407764417439],[28.13600061943445,41.354545822950556]],[[28.137345579340824,41.31780362676679],[28.1387151,41.3182402],[28.1382051,41.3193893],[28.1390595,41.318415],[28.1383135,41.3177634],[28.137345579340824,41.31780362676679]],[[28.2188652,41.346268],[28.2206368,41.3459752],[28.22158755277674,41.345396754881335],[28.2188652,41.346268]],[[28.22331604865046,41.3443451250305],[28.225150373630562,41.343229107957775],[28.2248786,41.3431648],[28.22331604865046,41.3443451250305]],[[28.2262373,41.3434863],[28.2331979,41.342454],[28.2278444,41.3428926],[28.2262373,41.3434863]],[[28.2965219,41.2755851],[28.3008146,41.2762532],[28.30101699808632,41.27617397790579],[28.2965219,41.2755851]],[[28.301378349485546,41.27603253874936],[28.3026252,41.2755445],[28.302533179746657,41.27535158102182],[28.301378349485546,41.27603253874936]],[[28.3022605,41.2701486],[28.3029018,41.2736073],[28.3029144,41.2717362],[28.3022605,41.2701486]],[[28.33390742904279,41.239413648009084],[28.3342073552719,41.239366174837265],[28.33402,41.2392788],[28.33390742904279,41.239413648009084]],[[28.337849465735793,41.24106470622024],[28.3392045,41.241757],[28.339297106327262,41.241739826593516],[28.337849465735793,41.24106470622024]],[[28.343446673331464,41.24125362448616],[28.3445442,41.2410816],[28.3434927,41.2411461],[28.343446673331464,41.24125362448616]],[[28.3443127,41.2394303],[28.3469743,41.2389996],[28.346933919069976,41.2387418313673],[28.3443127,41.2394303]],[[28.3464465,41.2349984],[28.346456263261558,41.23505449178607],[28.3479774,41.2330479],[28.3464465,41.2349984]],[[28.358695666096192,41.21627286620012],[28.3602718,41.2155826],[28.3587545,41.2161241],[28.358695666096192,41.21627286620012]],[[28.3652615,41.1740348],[28.365306981828684,41.17418693537133],[28.3698749,41.172355],[28.3652615,41.1740348]],[[28.36542751574488,41.17459011775492],[28.3655995,41.1751654],[28.3665661239115,41.17548279077389],[28.36542751574488,41.17459011775492]],[[28.3670065,41.209423],[28.36828648880241,41.20804433289138],[28.368094,41.2080692],[28.3670065,41.209423]],[[28.368492306240384,41.17699292485253],[28.36935287936564,41.177859095873345],[28.3691512,41.1775095],[28.368492306240384,41.17699292485253]],[[28.368670741339646,41.20799469234368],[28.3698152,41.2091963],[28.37013654359819,41.20914148993958],[28.3687806,41.2079805],[28.368670741339646,41.20799469234368]],[[28.37064398948865,41.168638482806564],[28.3706796,41.1684664],[28.3708161,41.1626778],[28.37064398948865,41.168638482806564]],[[28.372237821211094,41.20878308493768],[28.3739919,41.2084839],[28.37399681314386,41.2083743898768],[28.372237821211094,41.20878308493768]],[[28.3730024,41.1976077],[28.3748606200025,41.1989234021605],[28.3744602,41.1981874],[28.3730024,41.1976077]],[[28.3738084,41.2055918],[28.374034539624855,41.20753349620481],[28.37412506000397,41.20551586795072],[28.3738084,41.2055918]],[[28.377685475493973,41.20193278395116],[28.3784807,41.2023922],[28.377766,41.2019023],[28.377685475493973,41.20193278395116]],[[28.3777165,41.1637714],[28.3789891,41.1630024],[28.3790452,41.1622405],[28.3777165,41.1637714]],[[28.3845788,41.1505908],[28.3853902,41.1493957],[28.38521263843102,41.149211575761065],[28.3845788,41.1505908]],[[28.3876377,41.1125976],[28.3901042,41.1072185],[28.39015236228155,41.10690539965573],[28.3876377,41.1125976]],[[28.3909035,41.0868558],[28.39098643648939,41.08698062978593],[28.3910644,41.0834837],[28.3909035,41.0868558]],[[28.3924408,41.066425],[28.3930278,41.0683069],[28.3925235,41.066677],[28.3943858,41.0662524],[28.3924408,41.066425]],[[28.3926612,41.078739],[28.3933792,41.0777245],[28.3941677,41.0761401],[28.3926612,41.078739]],[[28.3933792,41.0777245],[28.3948925,41.0815692],[28.3960211,41.0827882],[28.3933792,41.0777245]],[[28.3933818,41.064861],[28.39364298886651,41.06493501876497],[28.3936286,41.0649095],[28.393532,41.0604684],[28.3933818,41.064861]],[[28.422004746710815,41.0758196020529],[28.423277225649034,41.07604538357223],[28.4222324,41.0756545],[28.422004746710815,41.0758196020529]],[[28.430348,41.0781057],[28.4323329,41.078963],[28.43247528156288,41.07892471999377],[28.430348,41.0781057]],[[28.4406799,41.0764113],[28.4439951,41.076379],[28.4485542,41.0738089],[28.4442644,41.0761011],[28.4406799,41.0764113]],[[28.46006453684854,41.069043708204745],[28.460083,41.069047],[28.4673226,41.0677868],[28.46006453684854,41.069043708204745]],[[28.4717989,41.068232],[28.478379671889677,41.05985092596118],[28.4758437,41.0625596],[28.4717989,41.068232]],[[28.483907747333387,41.05593710011123],[28.4855085,41.0570684],[28.4840512,41.0558369],[28.483907747333387,41.05593710011123]],[[28.491397138073452,41.056960310524424],[28.491596412984105,41.056998170865945],[28.491497,41.0569048],[28.491397138073452,41.056960310524424]],[[28.493336884569118,41.05732884394669],[28.5011202,41.0588076],[28.4948223,41.0572852],[28.493336884569118,41.05732884394669]],[[28.521706434903216,41.1071570818265],[28.522128496468838,41.107509244118816],[28.5219232,41.1071258],[28.521706434903216,41.1071570818265]],[[28.522859454476208,41.10811914530013],[28.5229862,41.1082249],[28.52343694649825,41.10780480769115],[28.522859454476208,41.10811914530013]],[[28.52777478409935,41.10544365732433],[28.5374628,41.1015737],[28.5297346,41.1043769],[28.52777478409935,41.10544365732433]],[[28.5586155,41.2611926],[28.5598397,41.2618964],[28.560284658066617,41.26187155691858],[28.5586155,41.2611926]],[[28.560667280557023,41.261850194182635],[28.5620069,41.2617754],[28.56281745437058,41.261464107943105],[28.560667280557023,41.261850194182635]],[[28.562548613403436,41.11788317036881],[28.5625533,41.1179936],[28.562983371739126,41.11845036724182],[28.562548613403436,41.11788317036881]],[[28.564499473452038,41.120060576736485],[28.5663811,41.122059],[28.568441134279052,41.12318157266002],[28.564499473452038,41.120060576736485]],[[28.568262197978243,41.260583430170236],[28.568269,41.260585],[28.5725667,41.2596183],[28.568262197978243,41.260583430170236]],[[28.569410088454852,41.1179052250007],[28.57166970951761,41.11897644392374],[28.5704613,41.1177955],[28.569410088454852,41.1179052250007]],[[28.569775968551415,41.12423849067136],[28.571602,41.1261681],[28.5743178,41.1278347],[28.569775968551415,41.12423849067136]],[[28.572058704824197,41.14507413463857],[28.5722868,41.1454364],[28.572490792926367,41.145567032318745],[28.572058704824197,41.14507413463857]],[[28.573203263669722,41.12047514236271],[28.57462,41.1223267],[28.5767705,41.1239613],[28.573203263669722,41.12047514236271]],[[28.57376834474716,41.12917595390345],[28.5739901,41.1290338],[28.5743178,41.1278347],[28.57376834474716,41.12917595390345]],[[28.573828523468123,41.146423683799966],[28.575779383730573,41.14767296927363],[28.575664,41.1475564],[28.573828523468123,41.146423683799966]],[[28.574642012706967,41.25835370464522],[28.5747139,41.2583099],[28.5748996,41.2570601],[28.574642012706967,41.25835370464522]],[[28.57603380450557,41.246446721007686],[28.5766591,41.2481308],[28.576864,41.2472828],[28.57603380450557,41.246446721007686]],[[28.5767705,41.1239613],[28.5778664,41.1263424],[28.578169088793157,41.12650878647774],[28.5767705,41.1239613]],[[28.578525869960117,41.126704907256034],[28.5804391,41.1277566],[28.58053255643441,41.12776275665337],[28.578525869960117,41.126704907256034]],[[28.582114,41.2175705],[28.582133916086935,41.21768334799647],[28.58249844275986,41.216648526726466],[28.582114,41.2175705]],[[28.5824886,41.2140835],[28.583069600230967,41.21455221332239],[28.5830505,41.2140395],[28.5824886,41.2140835]],[[28.5851008,41.1280637],[28.586152687157096,41.12726760201363],[28.5857874,41.1272514],[28.5851008,41.1280637]],[[28.5858248,41.1634917],[28.5909638,41.1656244],[28.5930475,41.1686558],[28.591315,41.1656596],[28.5858248,41.1634917]],[[28.593001288596014,41.12886387744541],[28.5932547,41.1287183],[28.5939542,41.1273443],[28.593930196485484,41.126626568538455],[28.593001288596014,41.12886387744541]],[[28.59443721380287,41.12540539863234],[28.5951079,41.1243072],[28.595012192984743,41.124020540069395],[28.59443721380287,41.12540539863234]],[[28.5946387,41.1225116],[28.594657535556433,41.12258533509634],[28.595401607665767,41.122292097015965],[28.5946387,41.1225116]],[[28.59665156711383,41.121799489237105],[28.5969776,41.121671],[28.5972412,41.1203289],[28.59665156711383,41.121799489237105]],[[28.5972412,41.1203289],[28.6007488,41.1207456],[28.600541870451973,41.12053463019924],[28.5972412,41.1203289]],[[28.5999995615377,40.99715736032724],[28.6015749,40.9980023],[28.601649040436413,40.99788479144252],[28.6001158,40.9971642],[28.5999995615377,40.99715736032724]],[[28.602603535238416,40.996447522449714],[28.6048177,40.9975549],[28.6026424,40.9963666],[28.602603535238416,40.996447522449714]],[[28.6073969,41.1137489],[28.6078894,41.1114392],[28.607710921893762,41.11155532911161],[28.6073969,41.1137489]],[[28.610702069382604,40.99219681115787],[28.610806735862248,40.99212892314622],[28.6107772,40.9921284],[28.610702069382604,40.99219681115787]],[[28.614055528656095,40.99289577024689],[28.6148793,40.9964904],[28.6140868,40.9929224],[28.614055528656095,40.99289577024689]],[[28.6176467,40.9993991],[28.6200258,41.0039071],[28.62011247062415,41.00399314723166],[28.6176467,40.9993991]],[[28.6205441,41.0682123],[28.6280848,41.052893],[28.628073656077508,41.05262978690222],[28.6205441,41.0682123]],[[28.6233609,41.0348983],[28.62375674921723,41.03302646741326],[28.6236361,41.0332278],[28.6233609,41.0348983]],[[28.628578655895012,41.08553672846023],[28.6285811,41.0856078],[28.6292936,41.0864671],[28.628578655895012,41.08553672846023]],[[28.6309601,41.08571],[28.633751458515356,41.0883766881102],[28.6337203,41.0882836],[28.6309601,41.08571]],[[28.6317723,41.0164075],[28.6331201,41.0184405],[28.63212204911977,41.01902630479291],[28.6649598,41.0066369],[28.6334939,41.0184707],[28.6317723,41.0164075]],[[28.646076982145456,41.09150252843192],[28.6515214,41.0861906],[28.6461141,41.0914205],[28.646076982145456,41.09150252843192]],[[28.652880885580643,41.080724990643176],[28.653011692232326,41.0801991019765],[28.6528862,41.0804257],[28.652880885580643,41.080724990643176]],[[28.65409384761036,41.07824508247076],[28.65542702818513,41.07597396293315],[28.6553079,41.0760529],[28.65409384761036,41.07824508247076]],[[28.6771323,41.116928],[28.6817631,41.1222454],[28.681766794555777,41.12224810007087],[28.6771323,41.116928]],[[28.68112268311636,41.00559635006585],[28.681824,41.0055512],[28.6855159,41.004106],[28.68112268311636,41.00559635006585]],[[28.6822602,41.0549898],[28.6915591,41.0578521],[28.692186464074023,41.057938544840844],[28.6822602,41.0549898]],[[28.6834091,41.0532075],[28.6896903,41.0474748],[28.689699697224146,41.04745196666504],[28.6834091,41.0532075]],[[28.6843106,41.0011432],[28.68470620609802,40.99816585249132],[28.6843921,40.9989818],[28.6843106,41.0011432]],[[28.684397990801628,41.06177091248753],[28.6859752,41.0613954],[28.68705636233837,41.06058857489433],[28.684397990801628,41.06177091248753]],[[28.6855159,41.004106],[28.68923066550114,41.00144501016346],[28.6877277,41.0022889],[28.6855159,41.004106]],[[28.6878508,40.9899972],[28.6944437,40.9860211],[28.694495606843265,40.985958173176336],[28.6878508,40.9899972]],[[28.6904973,41.0361524],[28.690615221570557,41.03620766151723],[28.6910747,41.0317452],[28.6904973,41.0361524]],[[28.690594483970237,41.04527781766355],[28.6906938,41.0450365],[28.690617,41.0430708],[28.690594483970237,41.04527781766355]],[[28.690617,41.0430708],[28.6967142,41.0415941],[28.69658842858659,41.04142645543698],[28.690617,41.0430708]],[[28.6909783,41.0922816],[28.6925447,41.0961061],[28.691083241856287,41.09208592249509],[28.6909783,41.0922816]],[[28.69150607686289,41.03662514251633],[28.69232990588796,41.03701121303465],[28.6921048,41.0368219],[28.69150607686289,41.03662514251633]],[[28.691646078292948,41.09103644201615],[28.6922443,41.0901065],[28.6938643,41.0821736],[28.6922895,41.0898367],[28.691646078292948,41.09103644201615]],[[28.69180689764795,40.999998499166615],[28.692674529656127,40.99986550569877],[28.6921102,40.9998282],[28.69180689764795,40.999998499166615]],[[28.6926246351978,41.037259079052525],[28.695427776651844,41.03987938698046],[28.6948934,41.0391671],[28.6926246351978,41.037259079052525]],[[28.69633188230056,40.98373205086508],[28.7000602,40.9792122],[28.700063743547673,40.97890672658209],[28.69633188230056,40.98373205086508]],[[28.6971074,41.0769277],[28.698467,41.0761323],[28.698500541728304,41.07604058305335],[28.6971074,41.0769277]],[[28.697507216919757,41.02921820635909],[28.7018636,41.0287628],[28.6975118,41.0292095],[28.697507216919757,41.02921820635909]],[[28.70028594582131,41.01580946074343],[28.70036494012583,41.01621726429014],[28.7003201,41.0158419],[28.70028594582131,41.01580946074343]],[[28.7058055,41.0879637],[28.7085176,41.0865369],[28.708593490969193,41.08644729562546],[28.7058055,41.0879637]],[[28.7359321,41.0621875],[28.737359,41.0628953],[28.73892695892218,41.06282431795316],[28.7359321,41.0621875]],[[28.73809253939664,41.13400250719486],[28.739514595220747,41.13323065315196],[28.738094,41.1339507],[28.73809253939664,41.13400250719486]],[[28.7397863,41.044572],[28.7402909,41.0511694],[28.740369263966326,41.05140711698943],[28.7397863,41.044572]],[[28.7403505986439,41.13280691412976],[28.7470043,41.1340558],[28.7406367,41.1326619],[28.7403505986439,41.13280691412976]],[[28.74227173510166,41.06345571359958],[28.742852,41.0636251],[28.7446352,41.0620872],[28.74227173510166,41.06345571359958]],[[28.750035816125216,41.13180333111155],[28.7521326,41.1322376],[28.75018,41.1316962],[28.750035816125216,41.13180333111155]],[[28.754494526351216,41.06116342032345],[28.76411103303343,41.06222536725834],[28.7559249,41.0610294],[28.754494526351216,41.06116342032345]],[[28.764076757266647,41.13701854506903],[28.7641168,41.1370537],[28.7718678,41.1398785],[28.764076757266647,41.13701854506903]],[[28.765141742823033,41.062339188122614],[28.7654271,41.0623707],[28.777552,41.0623085],[28.765141742823033,41.062339188122614]],[[28.777552,41.0623085],[28.7910315,41.0641013],[28.792071268785502,41.064014532603125],[28.777552,41.0623085]],[[28.780976802296838,41.148891304182484],[28.7814599,41.1493693],[28.782418556352116,41.14933672735253],[28.780976802296838,41.148891304182484]],[[28.783384619165197,41.14930390305279],[28.7855744,41.1492295],[28.7883532,41.1484378],[28.783384619165197,41.14930390305279]],[[28.7858367,41.3022265],[28.7865474,41.3040952],[28.787057185112083,41.30455389433186],[28.7858367,41.3022265]],[[28.7867959,41.2431968],[28.78682336556586,41.243342123839525],[28.7883075,41.2405438],[28.7867959,41.2431968]],[[28.788779,41.2369346],[28.793569707879094,41.23389724166689],[28.7907037,41.2352511],[28.788779,41.2369346]],[[28.794041595528252,41.06385011131557],[28.7969525,41.0636072],[28.799967463969722,41.062868937036576],[28.794041595528252,41.06385011131557]],[[28.794237574698002,41.2334738071977],[28.7944461,41.2333416],[28.7950703,41.2311546],[28.794237574698002,41.2334738071977]],[[28.8079531,41.0471405],[28.810327562490933,41.05616480410341],[28.80800465840743,41.04673607756835],[28.8079531,41.0471405]],[[28.808096363243227,41.04601674788895],[28.8107671,41.03698],[28.81077042543253,41.036813568888434],[28.8083857,41.0437472],[28.808096363243227,41.04601674788895]],[[28.808577741040846,41.06144329242758],[28.811590524486608,41.061291198846085],[28.811508446343552,41.06095804158364],[28.808577741040846,41.06144329242758]],[[28.808739247697382,41.13690970281192],[28.80987927454474,41.13660819552943],[28.8091988,41.1366217],[28.808739247697382,41.13690970281192]],[[28.8108411,41.2161442],[28.8144008,41.2133926],[28.814431067213576,41.21331381291311],[28.8108411,41.2161442]],[[28.8134417,41.0686882],[28.8140805,41.0699758],[28.813483415391417,41.06825405780533],[28.8134417,41.0686882]],[[28.8137721,41.1638961],[28.8162248,41.1600035],[28.816195926055858,41.15981576530822],[28.8137721,41.1638961]],[[28.8151941,41.2113276],[28.8179675,41.2107369],[28.818097212809537,41.210569042203616],[28.8151941,41.2113276]],[[28.8178816,41.1867962],[28.8187607,41.1891063],[28.818042925415615,41.186463275022945],[28.8178816,41.1867962]],[[28.8180941,41.1910082],[28.8192855,41.1926126],[28.81816964848517,41.19079264994908],[28.8180941,41.1910082]],[[28.81837899097952,41.21020440078654],[28.820566607191697,41.20737346652474],[28.8197804,41.2078458],[28.81837899097952,41.21020440078654]],[[28.818430289373385,41.18566387750542],[28.819386799510873,41.183962666040564],[28.8191676,41.1841423],[28.818430289373385,41.18566387750542]],[[28.819893184498582,41.13635734456481],[28.8202998,41.13636],[28.8236712,41.1354017],[28.819893184498582,41.13635734456481]],[[28.8236712,41.1354017],[28.8286894,41.1355944],[28.8238482,41.1352322],[28.8277787,41.1305552],[28.8236712,41.1354017]],[[28.8326043,41.1364194],[28.83260904747566,41.136644955598896],[28.8336021,41.1346538],[28.8326043,41.1364194]],[[28.833831396347684,41.06887051084254],[28.833831590333347,41.06887069606889],[28.84038032185247,41.06565379353184],[28.8402027,41.0656866],[28.833831396347684,41.06887051084254]],[[28.837169009797357,41.07215371101963],[28.8393696,41.077348],[28.8373345,41.0723141],[28.837169009797357,41.07215371101963]],[[28.84234411288474,41.0652910845122],[28.843749999977483,41.06512765200748],[28.8435579,41.0650669],[28.84234411288474,41.0652910845122]],[[28.842864959237193,41.08294114912308],[28.8461444,41.0934124],[28.8430211,41.083191],[28.842864959237193,41.08294114912308]],[[28.842983618695957,41.1511535462291],[28.8430729,41.1513037],[28.845923382440397,41.152058343748614],[28.8456657,41.1518293],[28.842983618695957,41.1511535462291]],[[28.8490414,41.0977431],[28.85051490067695,41.10175731732229],[28.8505372,41.1015807],[28.8490414,41.0977431]],[[28.850017823605153,41.10621754690583],[28.8501464,41.1059498],[28.8502584,41.1074486],[28.85055536115935,41.10723631488023],[28.850145657195885,41.10529973691414],[28.850017823605153,41.10621754690583]],[[28.851063179697274,41.10687329663441],[28.8518804,41.1062891],[28.853394609448596,41.103770530647395],[28.851063179697274,41.10687329663441]],[[28.853366797246327,41.07194554071972],[28.8534861,41.072057],[28.855946,41.0724184],[28.857138623767113,41.072141066179846],[28.853366797246327,41.07194554071972]],[[28.8549333,41.0622472],[28.8564545,41.0660031],[28.8563007,41.0669774],[28.8565435,41.0661785],[28.85495880351658,41.06190448398439],[28.8549333,41.0622472]],[[28.858762611583455,41.071763422569674],[28.8602661,41.0714138],[28.860148422958098,41.0712485888459],[28.858762611583455,41.071763422569674]],[[28.859244119982993,41.04967940738933],[28.8597098,41.0488814],[28.85970779564848,41.0488474786789],[28.859244119982993,41.04967940738933]],[[28.8739426,41.143734],[28.87555869965684,41.14697020595158],[28.8755388,41.1466651],[28.874203961553217,41.14333888596361],[28.8739426,41.143734]],[[28.874381712492582,41.08158108340986],[28.879478113577427,41.076912472573504],[28.878924,41.0771924],[28.87875743043401,41.07501594279621],[28.8788307,41.076894],[28.874381712492582,41.08158108340986]],[[28.874565559594554,41.142792239144654],[28.875518358192366,41.14243430082084],[28.8748743,41.1423255],[28.874565559594554,41.142792239144654]],[[28.879159102910823,41.07005686120845],[28.8836952,41.0638179],[28.883978304822385,41.063259619230784],[28.879159102910823,41.07005686120845]],[[28.8848833,41.0437672],[28.884909043080995,41.04404735944552],[28.887193459477217,41.04011628938495],[28.8848833,41.0437672]],[[28.885269757873804,41.06071288266559],[28.8855626,41.0601354],[28.885587667655,41.059862241030004],[28.885269757873804,41.06071288266559]],[[28.888371740628486,41.03825416722191],[28.89007051882631,41.03748939753169],[28.8884455,41.0381376],[28.888371740628486,41.03825416722191]],[[28.891599450333377,41.070789008464295],[28.8936028,41.0698455],[28.893945964624233,41.069603594979704],[28.891599450333377,41.070789008464295]],[[28.89516133478537,41.03519757288444],[28.8952599,41.0351532],[28.89536845042258,41.03497838057402],[28.89516133478537,41.03519757288444]],[[28.89715300831778,41.06734287253047],[28.900337,41.0650984],[28.9004361052434,41.064916340421924],[28.89715300831778,41.06734287253047]],[[28.897901594559432,41.030898775968126],[28.8986706,41.0296603],[28.898762100132696,41.02925376480797],[28.897901594559432,41.030898775968126]],[[28.898990263706406,41.028240033794475],[28.8991171,41.0276765],[28.89929522974957,41.0246749214869],[28.898990263706406,41.028240033794475]],[[28.899364545857832,41.02386460271135],[28.899766215655355,41.02276482557746],[28.8993789,41.0236968],[28.899364545857832,41.02386460271135]],[[28.903352562087015,41.05983886181107],[28.909442,41.0554936],[28.909495860956085,41.055355105223065],[28.9033877,41.0597763],[28.903352562087015,41.05983886181107]],[[28.9082185,41.0908839],[28.92103671930964,41.09424588083569],[28.921036719309644,41.09424588083569],[28.9082185,41.0908839]],[[28.908383,41.0305589],[28.9088474,41.0316602],[28.910945940200477,41.03167363095166],[28.9108175,41.0315939],[28.9089968,41.0315565],[28.908383,41.0305589]],[[28.911086803831747,41.05188415816749],[28.9144157,41.0531791],[28.91117338585699,41.05167586324903],[28.911086803831747,41.05188415816749]],[[28.91125533954892,41.114535645205336],[28.9181297,41.1147386],[28.918180494121927,41.11466398871408],[28.9113824,41.1144252],[28.91125533954892,41.114535645205336]],[[28.91142210509627,41.03196921660278],[28.911998,41.0325469],[28.9155143,41.0301077],[28.9120832,41.0323796],[28.91142210509627,41.03196921660278]],[[28.914803407040505,41.04758279720981],[28.9149165,41.0475009],[28.9182747,41.0426215],[28.918078334521244,41.04264867071222],[28.9179602,41.04292],[28.914803407040505,41.04758279720981]],[[28.9157605,41.0428273],[28.91582438288815,41.042815503734516],[28.9165515,41.0397088],[28.9178932,41.0383011],[28.9166249,41.0393657],[28.9157605,41.0428273]],[[28.9161551,41.0817814],[28.917850261825365,41.084606558420894],[28.9170782,41.0824016],[28.9161551,41.0817814]],[[28.9163056,41.0728274],[28.9175552,41.0749555],[28.916424552211236,41.07238699551671],[28.9163056,41.0728274]],[[28.91722937513252,41.06940724743883],[28.917307845513502,41.06924907342881],[28.9172655,41.0692735],[28.91722937513252,41.06940724743883]],[[28.9176978,41.037662],[28.9191279,41.0359839],[28.9209184,41.0315492],[28.9176978,41.037662]],[[28.919372686803715,41.088954505263885],[28.9193836,41.0890018],[28.91939455429481,41.089016957397966],[28.919372686803715,41.088954505263885]],[[28.919561,41.1040363],[28.91973654795596,41.10411751989794],[28.9208525,41.1031638],[28.919561,41.1040363]],[[28.920107850488826,41.11183290252726],[28.9207612,41.1108732],[28.9216437,41.1091666],[28.920107850488826,41.11183290252726]],[[28.920226551220015,40.989387776849156],[28.9203441,40.9899586],[28.922373927525523,40.99236863475081],[28.922462,40.9920516],[28.920226551220015,40.989387776849156]],[[28.9202768,41.000779],[28.92229384002751,41.0085683659469],[28.9223285,41.0082642],[28.920393413623618,41.00016965346585],[28.9202768,41.000779]],[[28.920806638955618,40.998010408121615],[28.92198670864331,40.99376250772372],[28.9214328,40.9947385],[28.920806638955618,40.998010408121615]],[[28.9209184,41.0315492],[28.926160653488626,41.02697149322782],[28.9240058,41.0286909],[28.9209184,41.0315492]],[[28.9217529,41.0133155],[28.922184,41.0155277],[28.9226126552182,41.016276747988435],[28.9217529,41.0133155]],[[28.92422966357776,41.05488988361651],[28.92488668122881,41.05508642287875],[28.9243528,41.0545427],[28.92422966357776,41.05488988361651]],[[28.9252078,41.0208116],[28.9291116,41.0244431],[28.9281364,41.025395],[28.927926482941324,41.02556249761141],[28.929299,41.0245906],[28.929609906605815,41.02466905497944],[28.9252078,41.0208116]],[[28.925789752590962,41.05464250461346],[28.92667800946081,41.05443507084998],[28.9258459,41.0545444],[28.925789752590962,41.05464250461346]],[[28.927137379954903,41.05437471510591],[28.9271717,41.0561967],[28.927749485624147,41.05604146932195],[28.9271961,41.054367],[28.927137379954903,41.05437471510591]],[[28.92941759541657,41.05559330688364],[28.930263000385146,41.05536617629919],[28.930201,41.0552516],[28.92941759541657,41.05559330688364]],[[28.930471325924135,41.055751160509],[28.9306122,41.0560715],[28.930650595240223,41.05608244901224],[28.930471325924135,41.055751160509]],[[28.933356479037304,41.231253281460894],[28.9336216,41.2312345],[28.9351648,41.2295893],[28.933356479037304,41.231253281460894]],[[28.9343718,41.0626624],[28.9353728,41.0625518],[28.935344484045295,41.06238001654146],[28.9343718,41.0626624]],[[28.9343718,41.0626624],[28.9350088,41.0644018],[28.935218783971816,41.06435636794363],[28.9343718,41.0626624]],[[28.934935,41.0293353],[28.9359626,41.0311126],[28.936010177989584,41.03113839017883],[28.934935,41.0293353]],[[28.9353826,41.0614196],[28.93540143516139,41.06165841029078],[28.9365801,41.0611924],[28.93658327574292,41.06096324507685],[28.9353826,41.0614196]],[[28.9360508,41.0658453],[28.9363757,41.0642583],[28.936301581327516,41.06428060914059],[28.9360508,41.0658453]],[[28.9393804,41.0378873],[28.9417027,41.0397306],[28.93938160515178,41.03757343391604],[28.9393804,41.0378873]],[[28.93939199734077,41.03486692365451],[28.9403179,41.0345293],[28.9393923,41.0347881],[28.93939199734077,41.03486692365451]],[[28.940079221459662,41.033526701266624],[28.9403179,41.0345293],[28.9402465,41.0336192],[28.940079221459662,41.033526701266624]],[[28.95423640635776,41.10067633313429],[28.9567709,41.1000641],[28.95712768449936,41.09984575647294],[28.9542478,41.1005448],[28.95423640635776,41.10067633313429]],[[28.957806636258393,41.099430254336376],[28.9588651,41.0987825],[28.958981602744707,41.09858710149138],[28.957806636258393,41.099430254336376]],[[28.9599191,41.1053805],[28.961721699450802,41.10477086359512],[28.9605019,41.1049612],[28.9599191,41.1053805]],[[28.960107040463225,41.09683285305562],[28.967278,41.0919178],[28.96740800366228,41.091702997562315],[28.9601465,41.0967665],[28.960107040463225,41.09683285305562]],[[28.9629005,41.0832735],[28.9636248,41.0803378],[28.9633920560265,41.08011926847884],[28.9629005,41.0832735]],[[28.963898778652915,41.08527598586795],[28.963995,41.085469],[28.964175398983393,41.08549733157928],[28.963898778652915,41.08527598586795]],[[28.964113,41.1345002],[28.965894,41.1328841],[28.9650592,41.1315027],[28.9650839,41.1326255],[28.965776,41.1327306],[28.964113,41.1345002]],[[28.967597637368513,41.09138966960175],[28.9679754,41.0907655],[28.967949986956416,41.090639705729835],[28.967597637368513,41.09138966960175]],[[28.973726,41.1028328],[28.9777139,41.1028417],[28.978021561116012,41.102588602218695],[28.973726,41.1028328]],[[28.9737368,41.1439458],[28.9746462,41.1458494],[28.975780102863506,41.14677198675692],[28.9737368,41.1439458]],[[28.9754319,41.1490276],[28.9763653,41.1475814],[28.97623098798411,41.14739562683471],[28.9754319,41.1490276]],[[28.987039962509296,41.09870137167063],[28.9913911,41.099797],[28.9878666,41.0986125],[28.987039962509296,41.09870137167063]],[[28.9913911,41.099797],[28.996975098316238,41.099597298899255],[28.9960162,41.0994434],[28.9913911,41.099797]],[[28.997235664847036,41.099639118664285],[28.9991641,41.1010905],[28.999419227066912,41.101062257670215],[28.9974611,41.0996753],[28.997235664847036,41.099639118664285]],[[28.999787427370556,41.101021498237955],[29.0011596,41.1008696],[29.00137465877881,41.10068792335581],[28.999787427370556,41.101021498237955]]],[[[28.2384967,41.072751],[28.240387,41.0701096],[28.2402229,41.0706633],[28.24075518919117,41.07100488968601],[28.2403053,41.0709226],[28.2384967,41.072751]]],[[[28.24075518919117,41.07100488968601],[28.24125485255085,41.07109628361542],[28.2410519,41.0711953],[28.24075518919117,41.07100488968601]]],[[[28.5074943,40.9993266],[28.5101008,40.9969375],[28.50756933900062,40.99976504646019],[28.5074943,40.9993266]]],[[[28.5075581,40.9997776],[28.50756933900062,40.99976504646019],[28.507573111062495,40.999787086294965],[28.5075581,40.9997776]]],[[[28.56392241449787,41.01364088441346],[28.564329,41.0136101],[28.56461566815536,41.0138639903261],[28.56392241449787,41.01364088441346]]],[[[28.56461566815536,41.0138639903261],[28.5654354,41.0141278],[28.5662006,41.0152677],[28.56461566815536,41.0138639903261]]],[[[28.7728431,40.9806553],[28.7740672,40.9781995],[28.77519,40.9773627],[28.77484,40.9790775],[28.77559632179225,40.98195271797741],[28.7728431,40.9806553]]],[[[28.77458063796928,40.98451960609449],[28.775400433170713,40.983085267117666],[28.7752159,40.9838491],[28.77458063796928,40.98451960609449]]],[[[28.775400433170713,40.983085267117666],[28.77563683545225,40.982106733906555],[28.7757386,40.9824936],[28.775400433170713,40.983085267117666]]],[[[28.77559632179225,40.98195271797741],[28.7756661,40.9819856],[28.77563683545225,40.982106733906555],[28.77559632179225,40.98195271797741]]]]}}]}