{"type":"FeatureCollection","features":[{"type":"Feature","properties":{"ad":"Arnavutköy","osm_id":1766093,"halka":0},"geometry":{"type":"Polygon","coordinates":[[[28.4892653,41.3943481],[28.4904349,41.3934231],[28.4913939,41.390082],[28.4955893,41.3876916],[28.5196667,41.3831754],[28.5342134,41.3711307],[28.5653133,41.3660487],[28.5730883,41.3536243],[28.5572727,41.3093727],[28.5579821,41.3060196],[28.5561239,41.3017914],[28.5567164,41.2950744],[28.5556392,41.2925249],[28.5531078,41.2899147],[28.551869,41.2869604],[28.5527577,41.2836012],[28.5517074,41.2809096],[28.5521922,41.2788656],[28.5517074,41.2781573],[28.5432851,41.2765083],[28.5447671,41.2718726],[28.5447013,41.2709123],[28.5435787,41.2708851],[28.5450821,41.269369],[28.5455274,41.2651787],[28.5476611,41.263197],[28.549246,41.2604594],[28.5528363,41.2601924],[28.5557413,41.2616947],[28.5586155,41.2611926],[28.5598397,41.2618964],[28.5620069,41.2617754],[28.5662936,41.2601291],[28.568269,41.260585],[28.5725667,41.2596183],[28.5747139,41.2583099],[28.5748996,41.2570601],[28.5737979,41.2558877],[28.5754502,41.2537664],[28.5741413,41.2530566],[28.5750502,41.2505444],[28.5744718,41.2490705],[28.5766591,41.2481308],[28.576864,41.2472828],[28.5753965,41.2458049],[28.5750317,41.2437478],[28.5753322,41.2419488],[28.5769951,41.2403031],[28.5772351,41.2371544],[28.5740212,41.2345663],[28.5771561,41.232824],[28.5792248,41.2293888],[28.581002,41.2302403],[28.5808732,41.2287877],[28.582992,41.2225454],[28.5821023,41.2177731],[28.5830856,41.2149817],[28.5830505,41.2140395],[28.5824886,41.2140835],[28.5857195,41.210156],[28.5857312,41.2050745],[28.5884587,41.2003096],[28.5912798,41.1970155],[28.5950843,41.1900742],[28.595096,41.1850264],[28.5942649,41.182216],[28.5940308,41.172154],[28.5930475,41.1686558],[28.591315,41.1656596],[28.5858248,41.1634917],[28.5819267,41.1547754],[28.5798782,41.1518139],[28.575664,41.1475564],[28.5725502,41.1456348],[28.5677859,41.1402],[28.5707709,41.1364929],[28.5727609,41.1316349],[28.5728897,41.1297392],[28.5739901,41.1290338],[28.5743178,41.1278347],[28.5637824,41.1194928],[28.5623426,41.1176144],[28.5624499,41.1155572],[28.5662555,41.1147159],[28.5673538,41.1169304],[28.5722767,41.1192642],[28.57462,41.1223267],[28.5767705,41.1239613],[28.5778664,41.1263424],[28.5804391,41.1277566],[28.5851008,41.1280637],[28.586536,41.1269775],[28.5862434,41.1280839],[28.5875416,41.1282375],[28.5898054,41.1261201],[28.5916722,41.1296274],[28.5932547,41.1287183],[28.5939542,41.1273443],[28.5939178,41.1262559],[28.5951079,41.1243072],[28.5945475,41.1226287],[28.5969776,41.121671],[28.5972412,41.1203289],[28.6007488,41.1207456],[28.6002059,41.1201921],[28.603404,41.1189771],[28.6024761,41.1152413],[28.6038011,41.1126426],[28.6062606,41.112499],[28.6077601,41.1112118],[28.6073969,41.1137489],[28.6084896,41.1158829],[28.6108071,41.1185391],[28.6127436,41.1193918],[28.6157125,41.1139977],[28.6201893,41.1089573],[28.6216915,41.1082087],[28.6216599,41.1067305],[28.6252212,41.0996555],[28.6279973,41.0977835],[28.6310229,41.0931661],[28.6311164,41.0920828],[28.6334395,41.0901955],[28.6328204,41.0897319],[28.6340208,41.088634],[28.635948,41.094939],[28.6392409,41.0960262],[28.6385392,41.0981109],[28.6395951,41.0981109],[28.6430789,41.1035755],[28.6456678,41.1014765],[28.6480369,41.1014765],[28.652701,41.0997471],[28.6561066,41.1001376],[28.6573652,41.0987429],[28.6589939,41.0993008],[28.6597343,41.1008071],[28.6682482,41.106832],[28.6780636,41.1102436],[28.6737539,41.1118255],[28.6738748,41.1134699],[28.6751334,41.1149759],[28.6770583,41.1158125],[28.6771323,41.116928],[28.6817631,41.1222454],[28.6837213,41.1236765],[28.6893294,41.1253774],[28.7167452,41.1117477],[28.7217194,41.1118349],[28.7271563,41.1143623],[28.7335186,41.1253426],[28.7338656,41.1310063],[28.7351381,41.1358853],[28.7358488,41.1363656],[28.7380329,41.1361179],[28.7380242,41.1340396],[28.7403095,41.1327992],[28.7470043,41.1340558],[28.7499869,41.1317932],[28.7521326,41.1322376],[28.7540424,41.1321164],[28.7546217,41.1312598],[28.7557268,41.1314619],[28.7588704,41.1324477],[28.7641168,41.1370537],[28.7718678,41.1398785],[28.7814599,41.1493693],[28.7855744,41.1492295],[28.7883532,41.1484378],[28.7898287,41.148761],[28.808115,41.1370748],[28.8114106,41.1362032],[28.8151854,41.1363266],[28.8151483,41.1411764],[28.81725,41.1429454],[28.8163474,41.1529024],[28.8147315,41.1543169],[28.8155571,41.1556622],[28.8162581,41.1597111],[28.8137721,41.1638961],[28.8144946,41.1736162],[28.8137165,41.1745391],[28.8142348,41.1755728],[28.8195451,41.175157],[28.8197615,41.1789753],[28.8213748,41.1823335],[28.8191676,41.1841423],[28.8178816,41.1867962],[28.8187607,41.1891063],[28.8180941,41.1910082],[28.8192855,41.1926126],[28.8181852,41.1941595],[28.8191492,41.1966376],[28.8160451,41.2010509],[28.8192382,41.2029988],[28.8207871,41.207241],[28.8197804,41.2078458],[28.8181743,41.2105489],[28.8151941,41.2113276],[28.8146722,41.2131237],[28.8108411,41.2161442],[28.8109036,41.2181054],[28.8088621,41.2200181],[28.8056279,41.2214069],[28.8002473,41.2216245],[28.7965333,41.2231037],[28.7960223,41.2258318],[28.7977926,41.2273088],[28.7974552,41.229087],[28.7950703,41.2311546],[28.7941909,41.2336038],[28.7907037,41.2352511],[28.788779,41.2369346],[28.7883075,41.2405438],[28.7867959,41.2431968],[28.7876244,41.2475805],[28.7840848,41.251047],[28.7807621,41.2563475],[28.7790801,41.2577939],[28.7748204,41.2583853],[28.7716813,41.2650635],[28.771326,41.2676011],[28.770023,41.2693818],[28.7700822,41.2703166],[28.7763011,41.2701831],[28.7769526,41.2710734],[28.7762418,41.2720972],[28.7777225,41.2728539],[28.7774856,41.2761034],[28.7812762,41.2796197],[28.7818092,41.28456],[28.7834676,41.2878089],[28.7829345,41.289411],[28.7851259,41.2953296],[28.7847113,41.2980439],[28.7858367,41.3022265],[28.7865474,41.3040952],[28.7895897,41.3068326],[28.7900215,41.3081262],[28.7902965,41.3113145],[28.7888977,41.3141079],[28.7884243,41.3138117],[28.7897995,41.311561],[28.7896407,41.3083457],[28.7875244,41.3067601],[28.784582,41.3072013],[28.7807786,41.308648],[28.7804233,41.3114585],[28.7818569,41.3132415],[28.7851801,41.312482],[28.7754035,41.3165776],[28.7707445,41.3216037],[28.7680462,41.3231568],[28.760182,41.3242687],[28.7563518,41.3265549],[28.7519771,41.3279688],[28.741782,41.3259788],[28.7355942,41.3273344],[28.7306459,41.3258496],[28.7260052,41.3267543],[28.7089216,41.3323889],[28.7052027,41.3342872],[28.6923408,41.3387881],[28.6875755,41.3413188],[28.6862673,41.3414002],[28.6854721,41.3421423],[28.6854737,41.3430871],[28.6840551,41.3432853],[28.6838432,41.344666],[28.6844564,41.3451539],[28.6862417,41.3449482],[28.6871146,41.3432023],[28.687121,41.344706],[28.6878857,41.3451427],[28.6852087,41.3458847],[28.6844613,41.3478675],[28.6833501,41.3482928],[28.6793134,41.3476082],[28.6800241,41.3464081],[28.678996,41.3455898],[28.6790237,41.3445918],[28.6771318,41.3431993],[28.6726373,41.3429083],[28.660976,41.3463076],[28.6578557,41.3478498],[28.6442542,41.349213],[28.6307621,41.3527927],[28.6112438,41.360316],[28.609187,41.361905],[28.6039728,41.3632095],[28.5787815,41.3736768],[28.567881,41.3800489],[28.5645604,41.3812001],[28.5632622,41.3828061],[28.5548025,41.3861708],[28.53847,41.3898834],[28.5253197,41.3955197],[28.5046881,41.4027588],[28.4919557,41.408084],[28.491894,41.4071566],[28.4911315,41.4073306],[28.4911108,41.4060059],[28.4901435,41.4055197],[28.490664,41.4023313],[28.4892653,41.3943481]]]}},{"type":"Feature","properties":{"ad":"Büyükçekmece","osm_id":1275387,"halka":1},"geometry":{"type":"Polygon","coordinates":[[[28.3909885,41.0480917],[28.393666,41.048661],[28.397379,41.047846],[28.4292414,41.0386136],[28.450588,41.031015],[28.4590176,41.0273978],[28.4588367,41.0265235],[28.4595288,41.026994],[28.46577,41.0246338],[28.4734476,41.020875],[28.474908,41.0197145],[28.475391,41.01825],[28.4810712,41.0155613],[28.4829061,41.0128556],[28.4979071,41.0072451],[28.5084201,41.0021276],[28.5091465,41.0009056],[28.5076439,41.0002007],[28.5074943,40.9993266],[28.5101008,40.9969375],[28.5075581,40.9997776],[28.5079374,41.0000173],[28.508999,40.9986173],[28.508028,41.0000752],[28.508432,41.000308],[28.5090178,40.9995193],[28.5085827,41.0002942],[28.5090371,41.0005359],[28.5103991,40.9985375],[28.5100268,40.9980505],[28.5117842,40.9983711],[28.512988,40.9976975],[28.5112735,40.9976484],[28.5119467,40.9971027],[28.5144151,40.9975556],[28.5174461,40.9967456],[28.5337625,40.9894848],[28.5376517,40.9877045],[28.5411708,40.9845932],[28.5422457,40.9846585],[28.5442353,40.9860955],[28.5445971,40.9911336],[28.5474318,40.99856],[28.5471272,40.9994961],[28.5512155,41.0034324],[28.55208,41.0072537],[28.5541163,41.0092074],[28.5569463,41.0096312],[28.5602829,41.0124696],[28.5654354,41.0141278],[28.5662006,41.0152677],[28.564329,41.0136101],[28.5629224,41.0137166],[28.5631831,41.0153113],[28.5642829,41.0153222],[28.5632677,41.0154299],[28.5630485,41.0162331],[28.5643851,41.0168141],[28.5654072,41.0158054],[28.5656192,41.016957],[28.567502,41.0181592],[28.5727487,41.0183112],[28.5745731,41.0165591],[28.5810061,41.014762],[28.5829198,41.0150082],[28.5751141,41.0167106],[28.5748874,41.0182852],[28.5776287,41.0180186],[28.5774464,41.0169269],[28.5779246,41.0168831],[28.5781021,41.0179268],[28.5822501,41.0172919],[28.5820091,41.0157036],[28.5831565,41.0162479],[28.5825704,41.0163973],[28.5834732,41.0174695],[28.5868065,41.0170785],[28.5917419,41.0157481],[28.5919378,41.014829],[28.592688,41.0152668],[28.5960912,41.0136481],[28.5987996,41.0106363],[28.5998648,41.0081971],[28.5975262,41.0037579],[28.5971958,40.9970129],[28.5999066,40.9971075],[28.6015749,40.9980023],[28.6025673,40.9964294],[28.6048177,40.9975549],[28.609364,40.9930647],[28.6112454,40.9918444],[28.6127072,40.9916686],[28.614032,40.9927931],[28.6148793,40.9964904],[28.6176467,40.9993991],[28.6200258,41.0039071],[28.6259346,41.0097734],[28.6263988,41.0166879],[28.6317723,41.0164075],[28.6331201,41.0184405],[28.6266226,41.0222542],[28.6254869,41.0250306],[28.625819,41.0295851],[28.6236361,41.0332278],[28.6233609,41.0348983],[28.6276988,41.0437759],[28.6281168,41.0525405],[28.6205441,41.0682123],[28.6258752,41.0799909],[28.6292885,41.0839929],[28.6285392,41.0843894],[28.6285811,41.0856078],[28.6292936,41.0864671],[28.6309601,41.08571],[28.6340208,41.088634],[28.6328204,41.0897319],[28.6334395,41.0901955],[28.6311164,41.0920828],[28.6310229,41.0931661],[28.6279973,41.0977835],[28.6252212,41.0996555],[28.6216599,41.1067305],[28.6216915,41.1082087],[28.6201893,41.1089573],[28.6157125,41.1139977],[28.6127436,41.1193918],[28.6108071,41.1185391],[28.6084896,41.1158829],[28.6073969,41.1137489],[28.6078894,41.1114392],[28.6062606,41.112499],[28.6038011,41.1126426],[28.6024761,41.1152413],[28.603404,41.1189771],[28.6002059,41.1201921],[28.60062,41.1205395],[28.5972412,41.1203289],[28.5965913,41.1219498],[28.5946387,41.1225116],[28.5950196,41.1240027],[28.5929275,41.1290416],[28.5916722,41.1296274],[28.5898054,41.1261201],[28.5875416,41.1282375],[28.5862434,41.1280839],[28.5864029,41.1272787],[28.5857874,41.1272514],[28.5851008,41.1280637],[28.5813028,41.1281688],[28.5781753,41.1265201],[28.5767705,41.1239613],[28.5704613,41.1177955],[28.5686803,41.1179814],[28.5673538,41.1169304],[28.5662555,41.1147159],[28.5624499,41.1155572],[28.5593318,41.1040858],[28.5535132,41.093384],[28.5465481,41.093082],[28.5374628,41.1015737],[28.5297346,41.1043769],[28.5225463,41.1082896],[28.5219232,41.1071258],[28.5207646,41.107293],[28.5080856,41.1026769],[28.5116416,41.0963344],[28.5157572,41.085245],[28.5257861,41.0718825],[28.5209906,41.0689904],[28.5166413,41.0706314],[28.5151595,41.0675668],[28.5106645,41.0670619],[28.5073103,41.0651917],[28.5036742,41.0614476],[28.5039425,41.0605614],[28.5011202,41.0588076],[28.4948223,41.0572852],[28.4919906,41.0573684],[28.491497,41.0569048],[28.4907614,41.0573137],[28.4899528,41.0566859],[28.4855085,41.0570684],[28.4840512,41.0558369],[28.483032,41.0565488],[28.4816909,41.0563142],[28.4758437,41.0625596],[28.4717989,41.068232],[28.4673226,41.0677868],[28.4594623,41.069148],[28.4572023,41.0685334],[28.4548581,41.0701228],[28.4520404,41.0704956],[28.4485542,41.0738089],[28.4442644,41.0761011],[28.4406799,41.0764113],[28.4367156,41.0784292],[28.4350868,41.0782226],[28.4327199,41.0790189],[28.430348,41.0781057],[28.4306439,41.0777923],[28.4298234,41.0772069],[28.4247851,41.0766095],[28.4222324,41.0756545],[28.4203679,41.0770067],[28.4166366,41.0778428],[28.4147176,41.0808302],[28.4122017,41.0824798],[28.4077748,41.0832178],[28.402019,41.0857275],[28.399122,41.0836505],[28.3976671,41.0841963],[28.3960211,41.0827882],[28.3933792,41.0777245],[28.3941677,41.0761401],[28.393086,41.0751256],[28.393752,41.0744217],[28.3921979,41.0709885],[28.3930278,41.0683069],[28.3925235,41.066677],[28.3943858,41.0662524],[28.3936286,41.0649095],[28.393532,41.0604684],[28.3926498,41.0592594],[28.3937073,41.0565056],[28.3931082,41.0564962],[28.3923404,41.0509986],[28.3909885,41.0480917]]]}},{"type":"Feature","properties":{"ad":"Çatalca","osm_id":1275389,"halka":1},"geometry":{"type":"Polygon","coordinates":[[[28.0709481,41.4947567],[28.0711841,41.4934067],[28.0786008,41.4931414],[28.0813229,41.49106],[28.0853471,41.4900769],[28.0894875,41.4854985],[28.0903995,41.4830471],[28.093586,41.4800571],[28.0967188,41.4782566],[28.0987143,41.4781199],[28.0996426,41.4764944],[28.1027643,41.4752341],[28.1049293,41.4756726],[28.1044904,41.4748018],[28.1049049,41.4740766],[28.1062022,41.4737016],[28.1064498,41.4692291],[28.1085734,41.4682599],[28.1116855,41.4654104],[28.1127262,41.4596296],[28.1118889,41.4541597],[28.112391,41.4491531],[28.1136382,41.447608],[28.1137776,41.4388739],[28.112694,41.4366379],[28.1126228,41.4346944],[28.1110816,41.4319092],[28.1112403,41.4265362],[28.1130266,41.4224721],[28.1146101,41.4210297],[28.1161602,41.4176233],[28.1182477,41.4162125],[28.1205261,41.4133484],[28.1217715,41.4096812],[28.1182394,41.4079681],[28.1170821,41.4081706],[28.1133068,41.4070568],[28.1101298,41.4039901],[28.1017631,41.4041086],[28.0989144,41.394076],[28.0993294,41.388405],[28.0988078,41.3860364],[28.0948293,41.3773964],[28.0921247,41.3750215],[28.0893576,41.3695754],[28.0885863,41.3588209],[28.0890302,41.3555044],[28.0878997,41.3538681],[28.0877387,41.3524185],[28.0890057,41.35033],[28.0887095,41.349552],[28.0899167,41.3474814],[28.0897665,41.3462732],[28.0866122,41.3393138],[28.0850459,41.3381136],[28.082119,41.3330359],[28.0820263,41.3305444],[28.0795005,41.325843],[28.080497,41.3248533],[28.080243,41.3241003],[28.0793545,41.3231961],[28.0798265,41.3230219],[28.0789411,41.3212754],[28.0778702,41.321122],[28.0776395,41.3142416],[28.0781802,41.3119094],[28.0764326,41.3021638],[28.0781192,41.3013298],[28.0782498,41.3006399],[28.0770884,41.2998688],[28.0786514,41.297203],[28.0796754,41.2972295],[28.0805984,41.2985066],[28.0821894,41.2991218],[28.086573,41.2976712],[28.086148,41.2972333],[28.088133,41.295613],[28.0892408,41.296407],[28.0908608,41.2957803],[28.0935067,41.2970874],[28.0929481,41.2984193],[28.094126,41.2999154],[28.104059,41.2968593],[28.1047511,41.2979814],[28.1071797,41.2989667],[28.1099726,41.2970965],[28.1107983,41.2980453],[28.1166755,41.2981365],[28.1166998,41.2997877],[28.1177198,41.3003442],[28.119347,41.3028164],[28.1214963,41.3032907],[28.1230871,41.3055712],[28.1250664,41.3063831],[28.1248114,41.3067844],[28.1266328,41.3091104],[28.1284057,41.3095208],[28.13081,41.3125126],[28.132765,41.313753],[28.1344408,41.3173464],[28.1361286,41.3182402],[28.1356186,41.3178754],[28.1366265,41.3175744],[28.1387151,41.3182402],[28.1382051,41.3193893],[28.1385572,41.3204746],[28.1341736,41.3206843],[28.131065,41.3232834],[28.1307857,41.325244],[28.1287457,41.3280162],[28.1291464,41.3289463],[28.1279564,41.3334598],[28.1249814,41.3333413],[28.1241313,41.3345175],[28.13183,41.3425588],[28.1358676,41.3492911],[28.1348172,41.3506722],[28.1359586,41.3516475],[28.1363108,41.3539081],[28.1354729,41.3556308],[28.1343558,41.3564056],[28.1337729,41.3604979],[28.1323157,41.3617921],[28.1323678,41.3637851],[28.1359101,41.3607532],[28.1406215,41.3594589],[28.1439487,41.3578183],[28.153558,41.3590605],[28.1598382,41.3586127],[28.1753338,41.3549068],[28.2049434,41.3452118],[28.2071668,41.3421129],[28.2086883,41.3415265],[28.2097077,41.3378649],[28.211369,41.3354842],[28.212676,41.3379685],[28.2132114,41.3410511],[28.2170093,41.3451474],[28.2188652,41.346268],[28.2206368,41.3459752],[28.2253897,41.3430835],[28.2262373,41.3434863],[28.2331979,41.342454],[28.2379617,41.3441452],[28.2404915,41.3443846],[28.2417948,41.345352],[28.2457555,41.3447965],[28.2477619,41.3436744],[28.2523298,41.3462571],[28.2630611,41.3471919],[28.2666421,41.3534574],[28.2711135,41.3558348],[28.2725247,41.3556688],[28.2727846,41.3539109],[28.2746133,41.353241],[28.2754993,41.3517392],[28.2790527,41.3496117],[28.2814018,41.3463649],[28.2797688,41.3425617],[28.2766963,41.3393596],[28.2765002,41.3372825],[28.2748916,41.3354944],[28.2754659,41.3346737],[28.2750454,41.3334036],[28.2742143,41.3338751],[28.2653369,41.3244169],[28.2654081,41.3233083],[28.2671908,41.3179098],[28.2748389,41.3126129],[28.2797313,41.2975657],[28.2932925,41.2732427],[28.2965219,41.2755851],[28.3008146,41.2762532],[28.3026252,41.2755445],[28.3021474,41.2745428],[28.3029018,41.2736073],[28.3029144,41.2717362],[28.3022605,41.2701486],[28.303543,41.268646],[28.306196,41.2678616],[28.3059697,41.2650641],[28.3076168,41.2594783],[28.3162422,41.2537786],[28.3181911,41.2511601],[28.3188449,41.2488157],[28.3167452,41.2472654],[28.3152363,41.2474166],[28.3156764,41.2466036],[28.3171741,41.2463085],[28.317392,41.2451594],[28.3198599,41.2437337],[28.3241849,41.2429128],[28.3290699,41.2392102],[28.3328997,41.2406208],[28.3334598,41.2394845],[28.3344498,41.2393278],[28.3392045,41.241757],[28.3421094,41.2412183],[28.3431833,41.2418689],[28.3432835,41.2412792],[28.3445442,41.2410816],[28.3443127,41.2394303],[28.3469743,41.2389996],[28.3463734,41.2351638],[28.3479774,41.2330479],[28.3493113,41.2292222],[28.3496472,41.2260735],[28.3521026,41.221975],[28.357864,41.2183758],[28.3585595,41.2163325],[28.3602718,41.2155826],[28.3612704,41.2141347],[28.3673215,41.2122017],[28.3670065,41.209423],[28.3684995,41.2078149],[28.3698152,41.2091963],[28.3739919,41.2084839],[28.3741347,41.205301],[28.3756792,41.2051432],[28.3767078,41.2023029],[28.3774655,41.2018057],[28.3784807,41.2023922],[28.3782073,41.201293],[28.3753248,41.1997766],[28.3744602,41.1981874],[28.3730024,41.1976077],[28.3730865,41.1963247],[28.3747093,41.1956932],[28.3742577,41.1947781],[28.369478,41.1943744],[28.3672786,41.1929132],[28.3684723,41.1891035],[28.371554,41.1890742],[28.3732974,41.1877137],[28.3746761,41.1850694],[28.372075,41.1842628],[28.3723094,41.182984],[28.3691512,41.1775095],[28.3650465,41.1742914],[28.3698749,41.172355],[28.3706796,41.1684664],[28.3708161,41.1626778],[28.374138,41.1631084],[28.3762028,41.1624479],[28.3777165,41.1637714],[28.3789891,41.1630024],[28.3790452,41.1622405],[28.3839812,41.1604263],[28.3815962,41.1568555],[28.3812636,41.1551147],[28.3818001,41.1549289],[28.3814175,41.1544302],[28.3829215,41.1513413],[28.3845788,41.1505908],[28.3853902,41.1493957],[28.3833718,41.1473027],[28.3819853,41.1444403],[28.3825388,41.1420665],[28.3857959,41.1376223],[28.3887381,41.1299382],[28.380524,41.1286913],[28.3834255,41.1276637],[28.3868909,41.1247785],[28.3880013,41.1201435],[28.3872777,41.1155139],[28.3876377,41.1125976],[28.3901042,41.1072185],[28.3912682,41.0996514],[28.3916869,41.0985364],[28.3954521,41.0948286],[28.3944547,41.0922008],[28.3909839,41.0870944],[28.3910644,41.0834837],[28.3896549,41.0811925],[28.391845,41.0782764],[28.3926612,41.078739],[28.3933792,41.0777245],[28.3948925,41.0815692],[28.3960211,41.0827882],[28.3976671,41.0841963],[28.399122,41.0836505],[28.402019,41.0857275],[28.4077748,41.0832178],[28.4122017,41.0824798],[28.4147176,41.0808302],[28.4166366,41.0778428],[28.4200215,41.0770341],[28.421883,41.075798],[28.4298234,41.0772069],[28.4306439,41.0777923],[28.430348,41.0781057],[28.4323329,41.078963],[28.4350868,41.0782226],[28.4367156,41.0784292],[28.4406799,41.0764113],[28.4439951,41.076379],[28.4485542,41.0738089],[28.4520404,41.0704956],[28.4548581,41.0701228],[28.4572023,41.0685334],[28.460083,41.069047],[28.4673226,41.0677868],[28.4717989,41.068232],[28.4805038,41.0571457],[28.4816909,41.0563142],[28.483032,41.0565488],[28.4836972,41.0557883],[28.4855085,41.0570684],[28.4899528,41.0566859],[28.5011202,41.0588076],[28.5039425,41.0605614],[28.5036742,41.0614476],[28.5073103,41.0651917],[28.5106645,41.0670619],[28.5151595,41.0675668],[28.5166413,41.0706314],[28.5209906,41.0689904],[28.5257861,41.0718825],[28.5157572,41.085245],[28.5116416,41.0963344],[28.5080856,41.1026769],[28.5207646,41.107293],[28.521688,41.1071417],[28.5229862,41.1082249],[28.5246169,41.1067051],[28.5374628,41.1015737],[28.5465481,41.093082],[28.5535132,41.093384],[28.5593318,41.1040858],[28.5624499,41.1155572],[28.5625533,41.1179936],[28.5663811,41.122059],[28.5691321,41.1235581],[28.571602,41.1261681],[28.5743178,41.1278347],[28.5707709,41.1364929],[28.5677859,41.1402],[28.5707299,41.1429637],[28.5722868,41.1454364],[28.5758864,41.1477415],[28.5798782,41.1518139],[28.5819267,41.1547754],[28.5858248,41.1634917],[28.5909638,41.1656244],[28.5930475,41.1686558],[28.5940308,41.172154],[28.5942649,41.182216],[28.595096,41.1850264],[28.5950843,41.1900742],[28.5912798,41.1970155],[28.5884587,41.2003096],[28.5857312,41.2050745],[28.5857195,41.210156],[28.5824886,41.2140835],[28.5832963,41.2147351],[28.582114,41.2175705],[28.582992,41.2225454],[28.5808732,41.2287877],[28.581002,41.2302403],[28.5792248,41.2293888],[28.5771561,41.232824],[28.5740212,41.2345663],[28.5772351,41.2371544],[28.5769951,41.2403031],[28.5753322,41.2419488],[28.5750317,41.2437478],[28.5766591,41.2481308],[28.5744718,41.2490705],[28.5750502,41.2505444],[28.5741413,41.2530566],[28.5754502,41.2537664],[28.5737979,41.2558877],[28.5748996,41.2570601],[28.5746133,41.2584979],[28.5725667,41.2596183],[28.5681544,41.2606076],[28.5662936,41.2601291],[28.5642833,41.2612009],[28.5603654,41.2619044],[28.5586155,41.2611926],[28.5557413,41.2616947],[28.5528363,41.2601924],[28.549246,41.2604594],[28.5476611,41.263197],[28.5455274,41.2651787],[28.5450821,41.269369],[28.5435787,41.2708851],[28.5447013,41.2709123],[28.5447671,41.2718726],[28.5432851,41.2765083],[28.5517074,41.2781573],[28.5521922,41.2788656],[28.5517074,41.2809096],[28.5527577,41.2836012],[28.551869,41.2869604],[28.5531078,41.2899147],[28.5556392,41.2925249],[28.5567164,41.2950744],[28.5561239,41.3017914],[28.5579821,41.3060196],[28.5572727,41.3093727],[28.5730883,41.3536243],[28.5653133,41.3660487],[28.5342134,41.3711307],[28.5196667,41.3831754],[28.4955893,41.3876916],[28.4913939,41.390082],[28.4904349,41.3934231],[28.4892653,41.3943481],[28.490664,41.4023313],[28.4901435,41.4055197],[28.4911108,41.4060059],[28.4919557,41.408084],[28.4881014,41.4099529],[28.4685105,41.4183087],[28.4344357,41.4305006],[28.4018683,41.4432057],[28.3655078,41.4586166],[28.2905057,41.4889464],[28.2795489,41.4940274],[28.2783768,41.495476],[28.2767299,41.4951163],[28.2723981,41.496167],[28.2706271,41.4973114],[28.2686993,41.4997489],[28.2620636,41.5022178],[28.260996,41.503863],[28.2617953,41.504801],[28.2599641,41.5072705],[28.2560849,41.5076533],[28.2526812,41.5096197],[28.2527874,41.5104459],[28.2503567,41.5115486],[28.2500196,41.510778],[28.2485913,41.5106585],[28.2480413,41.511356],[28.2468072,41.5112627],[28.2478018,41.5123391],[28.247101,41.5143784],[28.2439479,41.5148338],[28.244074,41.515844],[28.2403028,41.5160207],[28.2391629,41.517047],[28.2373926,41.5168421],[28.2363653,41.5187359],[28.2332443,41.519772],[28.2315749,41.5213487],[28.2319263,41.5237946],[28.2295713,41.5238066],[28.2292601,41.5249191],[28.2281523,41.5243814],[28.2259878,41.5246006],[28.224226,41.5231208],[28.2204801,41.5246505],[28.219097,41.528001],[28.2219958,41.5290702],[28.2210643,41.5298206],[28.2190151,41.5300995],[28.2176756,41.5314543],[28.2140295,41.5330348],[28.2077754,41.5386525],[28.2060456,41.5384533],[28.205123,41.5402063],[28.1990551,41.5453919],[28.1995064,41.5480862],[28.1959176,41.5487607],[28.1925174,41.5481903],[28.192047,41.5485588],[28.1930043,41.5504392],[28.1930134,41.5524765],[28.188126,41.552969],[28.1883162,41.5533534],[28.1860846,41.5541522],[28.1855589,41.556902],[28.188386,41.557843],[28.188063,41.558874],[28.1859934,41.5604745],[28.1826729,41.5612773],[28.1808919,41.5642475],[28.181521,41.565615],[28.184942,41.5670169],[28.1866747,41.5669487],[28.186509,41.567361],[28.1823459,41.5684721],[28.18231,41.571383],[28.1784081,41.5723106],[28.176158,41.571446],[28.1752646,41.5722183],[28.176858,41.572337],[28.1769651,41.5728805],[28.172083,41.5729],[28.171429,41.5739159],[28.1703454,41.5736189],[28.169058,41.5741727],[28.1675881,41.5738396],[28.1657374,41.5752241],[28.1671375,41.5773309],[28.1651419,41.5787114],[28.161591,41.578781],[28.158191,41.579843],[28.1568727,41.5795239],[28.15581,41.580509],[28.1552553,41.5794818],[28.1535816,41.5793053],[28.1458783,41.5833019],[28.1380892,41.5814962],[28.1368983,41.5805733],[28.1365657,41.5787756],[28.1349349,41.5782378],[28.1329476,41.5764275],[28.1334677,41.5749333],[28.1322849,41.5740001],[28.1305253,41.5739038],[28.1309545,41.5731092],[28.1302249,41.5728363],[28.1283367,41.5731574],[28.1285083,41.5717608],[28.1273228,41.5710207],[28.1255901,41.5681086],[28.1245298,41.568259],[28.1231071,41.5670807],[28.1241366,41.5663536],[28.12294,41.5644562],[28.1208389,41.5631298],[28.1179902,41.5625885],[28.1189925,41.560325],[28.1223849,41.5607585],[28.1233907,41.5601454],[28.1237603,41.5570432],[28.1246292,41.5567418],[28.124876,41.5556822],[28.1248605,41.5543088],[28.1238627,41.5538672],[28.1246567,41.5523899],[28.1209016,41.5519884],[28.1190348,41.5500053],[28.1195712,41.5487688],[28.1215874,41.5488333],[28.1207406,41.5479016],[28.1224251,41.5471709],[28.1214917,41.5459263],[28.1217277,41.54477],[28.1206012,41.5441678],[28.1213426,41.5428488],[28.1187166,41.5416818],[28.1165007,41.5425226],[28.1159019,41.5417587],[28.1168461,41.5411324],[28.1161916,41.540241],[28.1165671,41.5398957],[28.117876,41.539719],[28.1212792,41.5372658],[28.1204067,41.5356199],[28.1210089,41.5342661],[28.1202432,41.5337083],[28.1207943,41.5315033],[28.1198002,41.5294475],[28.1095835,41.520317],[28.105613,41.5181054],[28.1046152,41.5157436],[28.1028919,41.5155354],[28.1022967,41.5167105],[28.0973759,41.5151332],[28.0956582,41.5120456],[28.0924272,41.5092361],[28.0919122,41.5096218],[28.0866766,41.5087219],[28.082664,41.509204],[28.0812263,41.5085452],[28.0789104,41.5089587],[28.0761886,41.5076325],[28.0754757,41.5065848],[28.076334,41.5052349],[28.0772996,41.5049618],[28.0776214,41.5033226],[28.0752611,41.5017638],[28.0739472,41.4983823],[28.0709481,41.4947567]]]}},{"type":"Feature","properties":{"ad":"Başakşehir","osm_id":1766099,"halka":1},"geometry":{"type":"Polygon","coordinates":[[[28.6395951,41.0981109],[28.6444108,41.0951847],[28.6458793,41.0916954],[28.6515214,41.0861906],[28.6530594,41.0800073],[28.6554499,41.075935],[28.6726351,41.0645715],[28.6859752,41.0613954],[28.6883063,41.0596558],[28.6909366,41.0588628],[28.6915591,41.0578521],[28.7002237,41.059046],[28.7003677,41.0599037],[28.7010686,41.0599517],[28.6993195,41.0645083],[28.7003167,41.0659134],[28.7000597,41.0717772],[28.6985682,41.0759975],[28.6971074,41.0769277],[28.6938643,41.0821736],[28.6922895,41.0898367],[28.6909783,41.0922816],[28.6925447,41.0961061],[28.6924803,41.1004235],[28.6913405,41.1042056],[28.6893034,41.1060842],[28.6977928,41.1011469],[28.706193,41.0903167],[28.7058055,41.0879637],[28.7085176,41.0865369],[28.7108159,41.0838233],[28.7137404,41.0825559],[28.7231544,41.0735486],[28.7261152,41.0715261],[28.7291354,41.0667619],[28.7328798,41.065132],[28.7319571,41.0641208],[28.7359321,41.0621875],[28.737359,41.0628953],[28.7399501,41.062778],[28.742852,41.0636251],[28.7446352,41.0620872],[28.7528897,41.0609862],[28.7654271,41.0623707],[28.777552,41.0623085],[28.7910315,41.0641013],[28.7969525,41.0636072],[28.8050655,41.0616206],[28.8116321,41.0612891],[28.8137786,41.065182],[28.8134417,41.0686882],[28.8140805,41.0699758],[28.8197836,41.0707463],[28.8288115,41.0696877],[28.8329658,41.068044],[28.8371005,41.071992],[28.8393696,41.077348],[28.8428449,41.0828771],[28.8461444,41.0934124],[28.8490414,41.0977431],[28.8506049,41.1020025],[28.8498493,41.1074275],[28.8476584,41.1111308],[28.8450761,41.1128866],[28.8457566,41.1174262],[28.845005,41.1192999],[28.8353189,41.1261309],[28.8277787,41.1305552],[28.8236712,41.1354017],[28.8196696,41.1364139],[28.8091988,41.1366217],[28.7898287,41.148761],[28.7883532,41.1484378],[28.7826991,41.1494234],[28.7805136,41.1487482],[28.7718678,41.1398785],[28.7636661,41.1368678],[28.7588704,41.1324477],[28.7557268,41.1314619],[28.7546217,41.1312598],[28.7540424,41.1321164],[28.7521326,41.1322376],[28.75018,41.1316962],[28.7470043,41.1340558],[28.7406367,41.1326619],[28.738094,41.1339507],[28.7380329,41.1361179],[28.7358488,41.1363656],[28.7351381,41.1358853],[28.7338656,41.1310063],[28.7335186,41.1253426],[28.7271563,41.1143623],[28.7217194,41.1118349],[28.7167452,41.1117477],[28.6893294,41.1253774],[28.6837213,41.1236765],[28.6817965,41.1222822],[28.6771323,41.116928],[28.6770583,41.1158125],[28.6751334,41.1149759],[28.6738748,41.1134699],[28.6737539,41.1118255],[28.6780636,41.1102436],[28.6682482,41.106832],[28.6597343,41.1008071],[28.6589939,41.0993008],[28.6573652,41.0987429],[28.6561066,41.1001376],[28.652701,41.0997471],[28.6480369,41.1014765],[28.6456678,41.1014765],[28.6430789,41.1035755],[28.6395951,41.0981109]]]}},{"type":"Feature","properties":{"ad":"Esenyurt","osm_id":1766102,"halka":1},"geometry":{"type":"Polygon","coordinates":[[[28.6205441,41.0682123],[28.6280848,41.052893],[28.6276988,41.0437759],[28.6233609,41.0348983],[28.6237766,41.0329326],[28.625819,41.0295851],[28.6254869,41.0250306],[28.6266226,41.0222542],[28.6312103,41.0193703],[28.6649598,41.0066369],[28.681824,41.0055512],[28.6855159,41.004106],[28.6910984,41.0001071],[28.6936949,40.9997091],[28.6988191,41.0002717],[28.6994385,41.0058772],[28.7018986,41.0094053],[28.6970327,41.012316],[28.7002285,41.0155129],[28.7014437,41.0217863],[28.7018636,41.0287628],[28.6975118,41.0292095],[28.6963456,41.0314249],[28.6910747,41.0317452],[28.6904973,41.0361524],[28.6923892,41.037039],[28.6969703,41.0413213],[28.690617,41.0430708],[28.6905918,41.0455409],[28.6897495,41.0474064],[28.6834091,41.0532075],[28.6822602,41.0549898],[28.6915591,41.0578521],[28.6909366,41.0588628],[28.6826998,41.0625262],[28.6726351,41.0645715],[28.6553079,41.0760529],[28.6528862,41.0804257],[28.6528521,41.0823461],[28.6515214,41.0861906],[28.6461141,41.0914205],[28.6444108,41.0951847],[28.6395951,41.0981109],[28.6385392,41.0981109],[28.6392409,41.0960262],[28.635948,41.094939],[28.6337203,41.0882836],[28.6309601,41.08571],[28.6292936,41.0864671],[28.6284304,41.0853438],[28.6285392,41.0843894],[28.6292885,41.0839929],[28.6258752,41.0799909],[28.6205441,41.0682123]]]}},{"type":"Feature","properties":{"ad":"Eyüpsultan","osm_id":1766103,"halka":1},"geometry":{"type":"Polygon","coordinates":[[[28.770023,41.2693818],[28.771326,41.2676011],[28.7716813,41.2650635],[28.7748204,41.2583853],[28.7790801,41.2577939],[28.7807621,41.2563475],[28.7840848,41.251047],[28.7876244,41.2475805],[28.7867897,41.2434056],[28.7883075,41.2405438],[28.788779,41.2369346],[28.7944461,41.2333416],[28.7950703,41.2311546],[28.7974552,41.229087],[28.7977926,41.2273088],[28.7960223,41.2258318],[28.7965333,41.2231037],[28.8002473,41.2216245],[28.8056279,41.2214069],[28.8088621,41.2200181],[28.8109036,41.2181054],[28.8108411,41.2161442],[28.8144008,41.2133926],[28.8151941,41.2113276],[28.8179675,41.2107369],[28.8205808,41.2073551],[28.8192382,41.2029988],[28.8160451,41.2010509],[28.8191492,41.1966376],[28.8181852,41.1941595],[28.8192855,41.1926126],[28.8181015,41.1906815],[28.8187607,41.1891063],[28.8180227,41.1863888],[28.8196403,41.1835118],[28.8213748,41.1823335],[28.8197615,41.1789753],[28.8195451,41.175157],[28.8142348,41.1755728],[28.8137165,41.1745391],[28.8144946,41.1736162],[28.8137721,41.1638961],[28.8162248,41.1600035],[28.8155571,41.1556622],[28.8147315,41.1543169],[28.8163474,41.1529024],[28.81725,41.1429454],[28.8151483,41.1411764],[28.8151854,41.1363266],[28.8202998,41.13636],[28.8236712,41.1354017],[28.8286894,41.1355944],[28.8332648,41.1336412],[28.8336021,41.1346538],[28.8326043,41.1364194],[28.832703,41.1411087],[28.8335663,41.1427334],[28.836531,41.1441397],[28.8409547,41.1477413],[28.8430729,41.1513037],[28.8462084,41.1521338],[28.8485098,41.1532325],[28.848262,41.1541987],[28.8534524,41.1555529],[28.854652,41.1568999],[28.8613912,41.1598111],[28.8623071,41.158681],[28.8669401,41.1571531],[28.8657188,41.1530022],[28.8661051,41.1520167],[28.8677873,41.1517186],[28.8723612,41.1524051],[28.8757787,41.1503433],[28.8755388,41.1466651],[28.8740607,41.1429819],[28.8761487,41.1421975],[28.8778933,41.1428355],[28.8799549,41.1460885],[28.8812995,41.1470038],[28.883079,41.1469093],[28.8851157,41.1451388],[28.888199,41.1390438],[28.8899911,41.1372791],[28.8960748,41.1351084],[28.8992472,41.1331901],[28.901259,41.1284812],[28.9027158,41.1268521],[28.9065442,41.1246916],[28.9046675,41.1223295],[28.9016751,41.1221596],[28.9016221,41.1211919],[28.9070878,41.1224923],[28.9078735,41.1198702],[28.910427,41.1176064],[28.9105931,41.1161111],[28.9099929,41.115633],[28.911098,41.114531],[28.9181297,41.1147386],[28.9207612,41.1108732],[28.9216437,41.1091666],[28.9206256,41.1076527],[28.9216741,41.1067692],[28.9205306,41.1044849],[28.9196556,41.1041867],[28.9208525,41.1031638],[28.9208656,41.1020305],[28.9190626,41.1017252],[28.9170104,41.097254],[28.9224243,41.0932092],[28.9194674,41.089225],[28.9170782,41.0824016],[28.9161551,41.0817814],[28.9157302,41.0791013],[28.9175552,41.0749555],[28.9163392,41.0721931],[28.9167711,41.070331],[28.9175601,41.0687406],[28.921553,41.0668003],[28.9242569,41.0674167],[28.9272659,41.0700341],[28.9323516,41.0691499],[28.9338636,41.065805],[28.9360508,41.0658453],[28.9363757,41.0642583],[28.9353275,41.0645738],[28.9343718,41.0626624],[28.9353728,41.0625518],[28.9352363,41.0617237],[28.9365801,41.0611924],[28.9366067,41.059273],[28.9392181,41.0594309],[28.93825,41.057807],[28.9356488,41.0567081],[28.933906,41.0568562],[28.9330317,41.0578041],[28.9318795,41.0574831],[28.9323575,41.0565692],[28.9306819,41.0561403],[28.930201,41.0552516],[28.9278302,41.0562857],[28.9271961,41.054367],[28.9258459,41.0545444],[28.9252967,41.055504],[28.9243528,41.0545427],[28.9238852,41.0558611],[28.922123,41.0534186],[28.9165013,41.0554291],[28.9147176,41.0527725],[28.9144157,41.0531791],[28.9109746,41.0515837],[28.9120442,41.0495809],[28.9149165,41.0475009],[28.9182747,41.0426215],[28.9157893,41.0429654],[28.9165515,41.0397088],[28.9178932,41.0383011],[28.9176978,41.037662],[28.9191279,41.0359839],[28.9209184,41.0315492],[28.9271211,41.0261328],[28.929299,41.0245906],[28.9299073,41.0247441],[28.934935,41.0293353],[28.9359626,41.0311126],[28.9400293,41.033317],[28.9403179,41.0345293],[28.9393923,41.0347881],[28.9393804,41.0378873],[28.9417027,41.0397306],[28.9433461,41.0395188],[28.944566,41.0407646],[28.9396832,41.0425494],[28.9386412,41.0440972],[28.9378466,41.0472984],[28.9351464,41.0497276],[28.9357138,41.0522031],[28.939218,41.0553195],[28.9466348,41.0569381],[28.9460941,41.0602538],[28.943824,41.0645429],[28.9452704,41.0647903],[28.9456003,41.063803],[28.9466952,41.0633813],[28.94791,41.0646724],[28.9513046,41.0651843],[28.9554013,41.0681293],[28.9568664,41.0739921],[28.9634103,41.0800022],[28.9629005,41.0832735],[28.963995,41.085469],[28.9680676,41.0861086],[28.9675455,41.0886375],[28.968023,41.0904843],[28.9674711,41.091659],[28.9601465,41.0967665],[28.959125,41.0984842],[28.9572787,41.0998091],[28.9542478,41.1005448],[28.9538742,41.1048578],[28.9601541,41.1067132],[28.9621157,41.1110466],[28.9607119,41.111515],[28.9587593,41.1134711],[28.9598249,41.1140657],[28.9602935,41.1183532],[28.962053,41.118919],[28.9609694,41.1209557],[28.9609596,41.1234641],[28.9599502,41.1249159],[28.9598928,41.1274049],[28.9650592,41.1315027],[28.9650839,41.1326255],[28.965776,41.1327306],[28.964113,41.1345002],[28.9678795,41.136709],[28.9693573,41.1403542],[28.9737368,41.1439458],[28.9746462,41.1458494],[28.9763209,41.147212],[28.9754319,41.1490276],[28.9755943,41.1520643],[28.973383,41.1558946],[28.9713979,41.1574772],[28.96807,41.1581365],[28.9593123,41.1566859],[28.9570353,41.1580046],[28.9578527,41.1604223],[28.9520143,41.1604662],[28.9537074,41.1787933],[28.9540577,41.1936445],[28.9501994,41.1952831],[28.9480441,41.1992238],[28.9483944,41.2014203],[28.9477696,41.2034057],[28.947869,41.2050663],[28.9534025,41.2146467],[28.9537442,41.2165994],[28.9531236,41.2178035],[28.9538488,41.2192808],[28.9532614,41.2208004],[28.9515104,41.2202104],[28.9499938,41.2204639],[28.9470449,41.2219215],[28.9417368,41.2214779],[28.9405572,41.2223018],[28.938535,41.222175],[28.9382823,41.2234425],[28.9371027,41.2223018],[28.9363444,41.2231256],[28.9370184,41.2253436],[28.9353333,41.2242663],[28.9349121,41.2249634],[28.9356704,41.2266744],[28.9351648,41.2295893],[28.9325702,41.2319768],[28.9357153,41.2372021],[28.9366793,41.2424329],[28.9407257,41.2484065],[28.9403044,41.2511937],[28.9432534,41.2563245],[28.9467078,41.2570846],[28.9484772,41.2587948],[28.9492882,41.2617809],[28.9431855,41.2624758],[28.9420549,41.2635403],[28.9301982,41.2677029],[28.926175,41.2699554],[28.9216159,41.2715379],[28.9157524,41.2719854],[28.9154645,41.2709107],[28.9111088,41.2701849],[28.910041,41.270464],[28.909545,41.2714203],[28.9080249,41.2710574],[28.9004265,41.2746396],[28.8960761,41.2741619],[28.8913232,41.2748473],[28.8868353,41.2741681],[28.8567817,41.2815859],[28.8505429,41.2837869],[28.8452268,41.2869411],[28.8359684,41.2871379],[28.8217736,41.2931081],[28.8166022,41.2979203],[28.8132387,41.2996776],[28.8101488,41.3003183],[28.8062677,41.3027625],[28.8010561,41.3032562],[28.7955201,41.3026537],[28.7910274,41.3041689],[28.7888602,41.3061113],[28.7873766,41.305163],[28.7858367,41.3022265],[28.7847113,41.2980439],[28.7851259,41.2953296],[28.7829345,41.289411],[28.7834676,41.2878089],[28.7818092,41.28456],[28.7812762,41.2796197],[28.7774856,41.2761034],[28.7777225,41.2728539],[28.7762418,41.2720972],[28.7769526,41.2710734],[28.7763011,41.2701831],[28.7700822,41.2703166],[28.770023,41.2693818]]]}},{"type":"Feature","properties":{"ad":"Silivri","osm_id":1275379,"halka":2},"geometry":{"type":"Polygon","coordinates":[[[27.9708481,41.0998253],[27.9765022,41.0985236],[27.9774356,41.0994534],[27.9780042,41.0985155],[27.9782617,41.0970278],[27.977507,41.0965996],[27.9767218,41.0944267],[27.9769957,41.092217],[27.9754078,41.0905189],[27.9747685,41.0876566],[27.9788097,41.0845467],[27.9789505,41.0835969],[27.9784407,41.0822078],[27.9750011,41.0796342],[27.9746651,41.0779069],[27.9753971,41.0756632],[27.9756062,41.0752479],[27.9810104,41.076032],[27.9819775,41.0749845],[27.981298,41.0718214],[27.9839896,41.0716475],[27.9801792,41.0677771],[27.9754429,41.0658835],[27.9775137,41.0624535],[27.9772923,41.0609139],[27.9787849,41.0575998],[27.9773923,41.0516837],[27.9781295,41.049336],[27.9765272,41.048056],[27.9738632,41.042427],[27.9750271,41.0418352],[27.9768929,41.0420891],[27.9765689,41.0438713],[27.9803968,41.0436561],[27.9806113,41.0411918],[27.9816959,41.0401358],[27.984444,41.0432059],[27.9859367,41.0440022],[27.9907823,41.0432148],[27.9922982,41.042841],[27.9943246,41.0411451],[27.9953149,41.0381139],[27.9961626,41.039105],[28.0053767,41.0401005],[28.0064131,41.0369205],[28.0057943,41.0334206],[28.0075828,41.0320583],[28.0132167,41.0353853],[28.0134334,41.0342521],[28.0169493,41.0352017],[28.0245237,41.0392336],[28.0306559,41.0412113],[28.0328266,41.0416665],[28.0382826,41.0413055],[28.0430201,41.0420509],[28.0538594,41.0469089],[28.0646209,41.0531451],[28.0692029,41.0551839],[28.0750236,41.0567324],[28.087945,41.058371],[28.092692,41.058327],[28.113769,41.061206],[28.11727,41.0614265],[28.1225964,41.0598988],[28.1255259,41.0635366],[28.1318778,41.0664493],[28.1379804,41.0674271],[28.1429747,41.0690315],[28.1520535,41.0701053],[28.1549093,41.0693801],[28.1574554,41.0708353],[28.1667402,41.072715],[28.1848857,41.0732835],[28.199437,41.071898],[28.2063897,41.0703954],[28.2114127,41.0704051],[28.2137937,41.0712476],[28.2142237,41.0727283],[28.2197972,41.0771631],[28.2238635,41.0777923],[28.236213,41.0774505],[28.2408727,41.0756187],[28.2423687,41.0747695],[28.2399477,41.0735489],[28.242051,41.0742192],[28.2430919,41.0727666],[28.2406328,41.0721091],[28.2429794,41.0724986],[28.2426179,41.0713456],[28.2403053,41.0709226],[28.2384967,41.072751],[28.240387,41.0701096],[28.2402229,41.0706633],[28.2410519,41.0711953],[28.2441252,41.0696959],[28.249351,41.0684399],[28.2538417,41.0651814],[28.259981,41.062523],[28.265082,41.063238],[28.277285,41.062846],[28.2790527,41.0637103],[28.3061993,41.0598738],[28.311798,41.058608],[28.313134,41.057566],[28.323656,41.057959],[28.3357569,41.0567738],[28.3384807,41.0582486],[28.34062,41.058276],[28.3507747,41.056273],[28.3520223,41.0552837],[28.3521163,41.0542842],[28.35918,41.053694],[28.361532,41.05264],[28.3648338,41.0523797],[28.3659562,41.0514183],[28.3675056,41.051418],[28.365362,41.052078],[28.368603,41.0531589],[28.3711731,41.0530679],[28.38893,41.049232],[28.3909885,41.0480917],[28.3923404,41.0509986],[28.3931082,41.0564962],[28.3937073,41.0565056],[28.3926498,41.0592594],[28.393532,41.0604684],[28.3933818,41.064861],[28.3940953,41.0650632],[28.3943858,41.0662524],[28.3924408,41.066425],[28.3930278,41.0683069],[28.3921979,41.0709885],[28.393752,41.0744217],[28.393086,41.0751256],[28.3941677,41.0761401],[28.3926612,41.078739],[28.391845,41.0782764],[28.3896549,41.0811925],[28.3910644,41.0834837],[28.3909035,41.0868558],[28.3944547,41.0922008],[28.3954521,41.0948286],[28.3916869,41.0985364],[28.3901608,41.1068863],[28.3876377,41.1125976],[28.3872777,41.1155139],[28.3880013,41.1201435],[28.3872101,41.1246047],[28.3834255,41.1276637],[28.380524,41.1286913],[28.3887381,41.1299382],[28.3857959,41.1376223],[28.3825388,41.1420665],[28.3820951,41.1442003],[28.3833718,41.1473027],[28.3852601,41.1491083],[28.3845788,41.1505908],[28.3829215,41.1513413],[28.3814175,41.1544302],[28.3818001,41.1549289],[28.3812636,41.1551147],[28.3815962,41.1568555],[28.3839812,41.1604263],[28.3804221,41.1621801],[28.3790452,41.1622405],[28.3777165,41.1637714],[28.3762028,41.1624479],[28.374138,41.1631084],[28.3708161,41.1626778],[28.3706099,41.1698191],[28.3698749,41.172355],[28.3652615,41.1740348],[28.3655995,41.1751654],[28.3671981,41.1756903],[28.3694887,41.1779958],[28.3723094,41.182984],[28.372075,41.1842628],[28.3746761,41.1850694],[28.3732974,41.1877137],[28.371554,41.1890742],[28.3686358,41.1892276],[28.3672786,41.1929132],[28.369478,41.1943744],[28.3742577,41.1947781],[28.3747093,41.1956932],[28.3730865,41.1963247],[28.3730024,41.1976077],[28.3782073,41.201293],[28.3784807,41.2023922],[28.377766,41.2019023],[28.3767078,41.2023029],[28.3756792,41.2051432],[28.3738084,41.2055918],[28.3741289,41.2083437],[28.3702558,41.2092436],[28.3687806,41.2079805],[28.368094,41.2080692],[28.3670065,41.209423],[28.3673215,41.2122017],[28.3612704,41.2141347],[28.3602718,41.2155826],[28.3587545,41.2161241],[28.357864,41.2183758],[28.3521026,41.221975],[28.3496472,41.2260735],[28.3493113,41.2292222],[28.3479774,41.2330479],[28.3464465,41.2349984],[28.3470909,41.2387006],[28.3443127,41.2394303],[28.3445442,41.2410816],[28.3434927,41.2411461],[28.3431833,41.2418689],[28.3421094,41.2412183],[28.339439,41.241806],[28.33402,41.2392788],[28.3328997,41.2406208],[28.3290699,41.2392102],[28.3241849,41.2429128],[28.3198599,41.2437337],[28.317392,41.2451594],[28.3171741,41.2463085],[28.3156764,41.2466036],[28.3152363,41.2474166],[28.3167452,41.2472654],[28.3188449,41.2488157],[28.3181911,41.2511601],[28.3162422,41.2537786],[28.3076168,41.2594783],[28.3059697,41.2650641],[28.306196,41.2678616],[28.303543,41.268646],[28.3022605,41.2701486],[28.3029018,41.2736073],[28.3021474,41.2745428],[28.3027509,41.2752232],[28.3011164,41.276187],[28.2965219,41.2755851],[28.2932925,41.2732427],[28.2797313,41.2975657],[28.2748389,41.3126129],[28.2671908,41.3179098],[28.2654081,41.3233083],[28.2653369,41.3244169],[28.2742143,41.3338751],[28.2750454,41.3334036],[28.2754659,41.3346737],[28.2748916,41.3354944],[28.2765002,41.3372825],[28.2766963,41.3393596],[28.2797688,41.3425617],[28.2814018,41.3463649],[28.2790527,41.3496117],[28.2754993,41.3517392],[28.2746133,41.353241],[28.2727846,41.3539109],[28.2725247,41.3556688],[28.2711135,41.3558348],[28.2666421,41.3534574],[28.2630611,41.3471919],[28.2523298,41.3462571],[28.2477619,41.3436744],[28.2457555,41.3447965],[28.2417948,41.345352],[28.2404915,41.3443846],[28.2379617,41.3441452],[28.2331979,41.342454],[28.2278444,41.3428926],[28.2262373,41.3434863],[28.2248786,41.3431648],[28.2221711,41.34521],[28.2188652,41.346268],[28.2170093,41.3451474],[28.2132114,41.3410511],[28.212676,41.3379685],[28.211369,41.3354842],[28.2097077,41.3378649],[28.2086883,41.3415265],[28.2071668,41.3421129],[28.2049434,41.3452118],[28.1753338,41.3549068],[28.1598382,41.3586127],[28.153558,41.3590605],[28.1439487,41.3578183],[28.1406215,41.3594589],[28.1359101,41.3607532],[28.1323678,41.3637851],[28.1323157,41.3617921],[28.1336272,41.360744],[28.1343558,41.3564056],[28.1362986,41.3542089],[28.1357765,41.3532336],[28.1361044,41.3519483],[28.1348172,41.3506722],[28.1358676,41.3492911],[28.13183,41.3425588],[28.1241313,41.3345175],[28.1249814,41.3333413],[28.1278835,41.3335966],[28.12792,41.3320739],[28.1288428,41.3306241],[28.1287457,41.3280162],[28.1307857,41.325244],[28.131065,41.3232834],[28.1330686,41.3211221],[28.1382537,41.3203834],[28.1382051,41.3193893],[28.1390595,41.318415],[28.1383135,41.3177634],[28.1356186,41.3178754],[28.1363836,41.3181855],[28.1345743,41.3176656],[28.132765,41.313753],[28.1280293,41.3092654],[28.1266328,41.3091104],[28.1248114,41.3067844],[28.1250664,41.3063831],[28.1239614,41.3064104],[28.1214963,41.3032907],[28.120367,41.3033819],[28.120197,41.3027343],[28.1190556,41.3023694],[28.1177198,41.3003442],[28.1168213,41.3000796],[28.116882,41.2983007],[28.1148298,41.2978537],[28.1111262,41.2982733],[28.1099726,41.2970965],[28.1071797,41.2989667],[28.1048968,41.2981091],[28.104059,41.2968593],[28.0936524,41.2997421],[28.0929481,41.2984193],[28.0935067,41.2970874],[28.0917191,41.2959556],[28.0892408,41.296407],[28.088133,41.295613],[28.085893,41.2979267],[28.0821894,41.2991218],[28.0805984,41.2985066],[28.0791373,41.2969633],[28.0770884,41.2998688],[28.0750917,41.2967023],[28.076262,41.29581],[28.0757018,41.294262],[28.076331,41.2919015],[28.0754173,41.2903821],[28.0765162,41.2894362],[28.0767309,41.2879246],[28.0721357,41.2849863],[28.0718148,41.2825662],[28.0675243,41.2790025],[28.0653756,41.2776846],[28.063118,41.277723],[28.0616716,41.2749571],[28.0589012,41.2720031],[28.0572522,41.2683419],[28.0578519,41.2680061],[28.0562111,41.2677203],[28.0561073,41.2668975],[28.0511627,41.2671077],[28.0458562,41.2653249],[28.0301426,41.2561208],[28.0234011,41.253457],[28.018926,41.2522997],[28.0155317,41.2522807],[28.0039147,41.2440889],[28.0003812,41.240615],[27.9974718,41.2304],[27.9984373,41.2221485],[28.0066556,41.2134487],[28.0115379,41.2048735],[28.0162198,41.200823],[28.0175185,41.1975714],[28.0183983,41.1970466],[28.019895,41.1913388],[28.0207632,41.1840943],[28.02334,41.1812963],[28.0231833,41.1790739],[28.0220014,41.1771951],[28.0214882,41.1739379],[28.0203509,41.1722904],[28.0169606,41.171499],[28.0161238,41.1693346],[28.0170035,41.168107],[28.0167889,41.1670086],[28.0129557,41.1669367],[28.0126462,41.164951],[28.0136239,41.1623401],[27.9921555,41.1615768],[27.9850101,41.1621463],[27.9842795,41.1619934],[27.9808259,41.1573563],[27.978605,41.1513704],[27.9807079,41.1437923],[27.9788196,41.1384758],[27.97839,41.1342688],[27.9761052,41.1279789],[27.9733564,41.1229912],[27.9758237,41.1233733],[27.9756439,41.1195252],[27.974925,41.1160658],[27.972453,41.1119977],[27.9725325,41.1114826],[27.9737449,41.1112805],[27.9773618,41.1114299],[27.975561,41.1098394],[27.972873,41.1088861],[27.9756868,41.1075135],[27.9756868,41.1065596],[27.973423,41.1025417],[27.9708481,41.0998253]]]}},{"type":"Feature","properties":{"ad":"Kâğıthane","osm_id":1765894,"halka":2},"geometry":{"type":"Polygon","coordinates":[[[28.9480788,41.0647209],[28.9495803,41.0625692],[28.9550706,41.0585246],[28.9557561,41.0557043],[28.9555373,41.0536726],[28.9608798,41.0530149],[28.9619324,41.0535554],[28.9633715,41.0565104],[28.9698265,41.0641284],[28.9745719,41.0662393],[28.974618,41.067229],[28.9784413,41.0674293],[28.9786399,41.0694461],[28.979879,41.0708345],[28.9827069,41.0691136],[28.9847169,41.070862],[28.985297,41.0705692],[28.9889502,41.0726585],[28.9895725,41.0753761],[28.9892722,41.078131],[28.992252,41.0766903],[28.9982173,41.0760474],[29.0010926,41.0747472],[29.0069989,41.0758373],[29.0076693,41.0793599],[29.0052259,41.0834433],[29.0056175,41.0844743],[29.0070558,41.0846336],[29.0042174,41.0935107],[29.0039841,41.0989203],[29.0018249,41.1005933],[28.9994591,41.1010905],[28.9974611,41.0996753],[28.9960162,41.0994434],[28.9913911,41.099797],[28.9878666,41.0986125],[28.985531,41.0988636],[28.9839934,41.1039776],[28.9786144,41.1025549],[28.973726,41.1028328],[28.9696276,41.1020971],[28.9639395,41.1044248],[28.9605019,41.1049612],[28.9599191,41.1053805],[28.9610338,41.106309],[28.9601541,41.1067132],[28.9538742,41.1048578],[28.9540279,41.1007267],[28.9567709,41.1000641],[28.9588651,41.0987825],[28.9599726,41.096925],[28.967278,41.0919178],[28.9679754,41.0907655],[28.9675455,41.0886375],[28.9680676,41.0861086],[28.9646655,41.0858895],[28.9638823,41.0852628],[28.9629005,41.0832735],[28.9636248,41.0803378],[28.9568664,41.0739921],[28.9554013,41.0681293],[28.9513283,41.0657587],[28.9513046,41.0651843],[28.9480788,41.0647209]]]}},{"type":"Feature","properties":{"ad":"Sarıyer","osm_id":1765895,"halka":2},"geometry":{"type":"Polygon","coordinates":[[[28.9325702,41.2319768],[28.9327097,41.2312991],[28.9336216,41.2312345],[28.9351648,41.2295893],[28.9356704,41.2266744],[28.9349121,41.2249634],[28.9353333,41.2242663],[28.9370184,41.2253436],[28.9363444,41.2231256],[28.9371027,41.2223018],[28.9382823,41.2234425],[28.938535,41.222175],[28.9405572,41.2223018],[28.9417368,41.2214779],[28.9470449,41.2219215],[28.9499938,41.2204639],[28.9515104,41.2202104],[28.9532614,41.2208004],[28.9538488,41.2192808],[28.9531236,41.2178035],[28.9537442,41.2165994],[28.9534025,41.2146467],[28.947869,41.2050663],[28.9477696,41.2034057],[28.9483944,41.2014203],[28.9480441,41.1992238],[28.9501994,41.1952831],[28.9540577,41.1936445],[28.9537074,41.1787933],[28.9520143,41.1604662],[28.9578527,41.1604223],[28.9570353,41.1580046],[28.9593123,41.1566859],[28.96807,41.1581365],[28.9713979,41.1574772],[28.973383,41.1558946],[28.9755943,41.1520643],[28.9754319,41.1490276],[28.9763653,41.1475814],[28.9737368,41.1439458],[28.9693573,41.1403542],[28.9678795,41.136709],[28.964113,41.1345002],[28.965894,41.1328841],[28.9650592,41.1315027],[28.9598928,41.1274049],[28.9599502,41.1249159],[28.9609596,41.1234641],[28.9609694,41.1209557],[28.962053,41.118919],[28.9602935,41.1183532],[28.9598249,41.1140657],[28.9587593,41.1134711],[28.9607119,41.111515],[28.9621157,41.1110466],[28.9601541,41.1067132],[28.9610338,41.106309],[28.9599191,41.1053805],[28.9696276,41.1020971],[28.973726,41.1028328],[28.9777139,41.1028417],[28.978377,41.1022962],[28.9839934,41.1039776],[28.985531,41.0988636],[28.9869118,41.0986691],[28.9913911,41.099797],[28.9971708,41.0995903],[28.9991641,41.1010905],[29.0011596,41.1008696],[29.0042764,41.0982366],[29.0042174,41.0935107],[29.0052191,41.0937086],[29.0086969,41.1002674],[29.0120699,41.1048573],[29.0144458,41.1066686],[29.0186698,41.1013168],[29.0229008,41.0992079],[29.0252505,41.0986985],[29.0282438,41.0997253],[29.0328378,41.0993991],[29.0323243,41.0984346],[29.0305111,41.0980223],[29.0301517,41.0971208],[29.0285343,41.0962961],[29.028317,41.0953461],[29.025903,41.095526],[29.0233028,41.0941902],[29.0326802,41.0919151],[29.0420286,41.0908168],[29.0426169,41.0878828],[29.0419183,41.0872005],[29.0418699,41.084786],[29.0462184,41.0853271],[29.0483449,41.084036],[29.0549072,41.0840084],[29.0543775,41.0825056],[29.0547757,41.0810946],[29.0558382,41.0816432],[29.0570176,41.0835623],[29.057102,41.090318],[29.0540054,41.0948485],[29.0546405,41.0974811],[29.053534,41.0989294],[29.0547118,41.0997085],[29.0551845,41.1017392],[29.0593579,41.1093226],[29.0585209,41.1103081],[29.0584714,41.1126837],[29.0565236,41.1135708],[29.0543942,41.1135274],[29.0545182,41.1140741],[29.0574047,41.114915],[29.0617587,41.1131254],[29.0643737,41.1165373],[29.0704541,41.1204023],[29.0718838,41.1232815],[29.0716977,41.1245372],[29.0701664,41.1273616],[29.0660402,41.1290646],[29.0638495,41.130781],[29.0624984,41.1341369],[29.0612161,41.1354962],[29.0592251,41.1361993],[29.0588928,41.1370653],[29.0543365,41.1384664],[29.0546199,41.1391068],[29.0573678,41.1390425],[29.0579125,41.139815],[29.0557271,41.1425195],[29.0555835,41.1439185],[29.0530526,41.1463555],[29.0504745,41.1479957],[29.044565,41.1496654],[29.04142,41.1529212],[29.0384098,41.1536477],[29.0369742,41.1546592],[29.0365677,41.1552135],[29.0382222,41.1557243],[29.0361651,41.1557183],[29.0363909,41.1567372],[29.0383301,41.158088],[29.0467187,41.1610619],[29.0483837,41.1628088],[29.051471,41.1645898],[29.0570347,41.1657578],[29.0579546,41.1685824],[29.0604421,41.1706402],[29.0677959,41.1725072],[29.0725019,41.17504],[29.0739905,41.1779794],[29.0738494,41.1808707],[29.0742807,41.1808618],[29.0741133,41.1797055],[29.0772246,41.1855276],[29.0810554,41.187816],[29.0814731,41.1875215],[29.0814686,41.1881709],[29.0916638,41.2004575],[29.0979109,41.2029567],[29.0986455,41.2050555],[29.1001675,41.2060705],[29.1020352,41.2061066],[29.1033507,41.2051349],[29.1050223,41.2056004],[29.106311,41.2051582],[29.106695,41.2056417],[29.1061468,41.206832],[29.105204,41.2075009],[29.1095159,41.2107027],[29.1108071,41.2127759],[29.109607,41.213671],[29.1113621,41.2138958],[29.109554,41.214909],[29.1091908,41.2158089],[29.1078108,41.2157423],[29.1081205,41.2167918],[29.1069041,41.2169731],[29.1060556,41.2184812],[29.106375,41.2211217],[29.1076646,41.2225351],[29.1097166,41.22291],[29.1080435,41.2240391],[29.1085244,41.2248152],[29.1103025,41.2255715],[29.1101043,41.2260253],[29.1139278,41.2296127],[29.112355,41.2303849],[29.1122349,41.2308645],[29.1128736,41.2309598],[29.1121015,41.2313667],[29.1132004,41.2319315],[29.1133322,41.234073],[29.115308,41.2334396],[29.1144724,41.2317556],[29.1140084,41.231899],[29.1144823,41.2289563],[29.1152523,41.2289707],[29.1149202,41.231527],[29.1158116,41.2340845],[29.1133158,41.234503],[29.112411,41.2352909],[29.1093733,41.2352753],[29.1089974,41.2355908],[29.109505,41.2362962],[29.1122362,41.2375812],[29.1118437,41.2380643],[29.1097301,41.2384435],[29.106026,41.23708],[29.1055298,41.2376669],[29.1066556,41.2384051],[29.1068439,41.2397786],[29.1050181,41.2387944],[29.105444,41.2401316],[29.1014113,41.2411134],[29.101466,41.2417219],[29.1003634,41.242041],[29.0986114,41.2401262],[29.0976243,41.2402996],[29.0985524,41.2420381],[29.0972829,41.2425857],[29.0978196,41.2428072],[29.0963808,41.2434272],[29.095383,41.2449176],[29.0928966,41.2452402],[29.0930865,41.2446138],[29.0921538,41.2435187],[29.0912961,41.2438646],[29.0918167,41.2452405],[29.0909824,41.2474184],[29.0893132,41.2479153],[29.087633,41.2464491],[29.0844967,41.2457047],[29.0848224,41.2472865],[29.083128,41.2492937],[29.0844825,41.2497919],[29.082643,41.249921],[29.0821714,41.2492699],[29.0799217,41.2487641],[29.0790403,41.2501327],[29.0802042,41.251711],[29.0790564,41.2521996],[29.0792736,41.252609],[29.0779942,41.2538995],[29.0764573,41.2530022],[29.0754258,41.2498369],[29.0738087,41.2497589],[29.0720417,41.2479125],[29.0710425,41.2484588],[29.0710411,41.2498506],[29.0721832,41.2516658],[29.0703768,41.2526422],[29.0697156,41.2519289],[29.0674511,41.2522522],[29.0676784,41.2533107],[29.0671635,41.2533873],[29.0658577,41.2510095],[29.0641474,41.2507292],[29.0621167,41.2517182],[29.0619117,41.2538511],[29.0609676,41.2539842],[29.0604311,41.2552264],[29.0591222,41.2546618],[29.0545624,41.2548755],[29.0538282,41.2557334],[29.0519506,41.2553462],[29.052213,41.25573],[29.0502072,41.2558826],[29.0498317,41.2569553],[29.047466,41.256423],[29.047525,41.2549913],[29.0430786,41.2536041],[29.0412473,41.2555559],[29.0419299,41.2563322],[29.0400577,41.2559592],[29.0382747,41.2564962],[29.0389693,41.2541572],[29.0383783,41.2517093],[29.0371477,41.2502915],[29.033991,41.249508],[29.0344493,41.2473523],[29.0336571,41.2465142],[29.0295535,41.2454782],[29.0222044,41.2449819],[29.0009022,41.2473295],[28.9877486,41.2501206],[28.9826766,41.2522379],[28.9784216,41.2530925],[28.9749853,41.2525068],[28.9688015,41.2539197],[28.964807,41.255218],[28.9645618,41.2566301],[28.9628848,41.2584361],[28.9572734,41.2598519],[28.9552349,41.2617754],[28.9538938,41.262098],[28.9492882,41.2617809],[28.9484772,41.2587948],[28.9467078,41.2570846],[28.9432534,41.2563245],[28.9403044,41.2511937],[28.9407257,41.2484065],[28.9366793,41.2424329],[28.9357153,41.2372021],[28.9325702,41.2319768]]]}},{"type":"Feature","properties":{"ad":"Avcılar","osm_id":1766094,"halka":2},"geometry":{"type":"Polygon","coordinates":[[[28.6822602,41.0549898],[28.6834091,41.0532075],[28.6896903,41.0474748],[28.6906938,41.0450365],[28.690617,41.0430708],[28.6967142,41.0415941],[28.6948934,41.0391671],[28.6921048,41.0368219],[28.6906028,41.0363283],[28.6910747,41.0317452],[28.6963456,41.0314249],[28.6972203,41.0292482],[28.7018636,41.0287628],[28.7003201,41.0158419],[28.6967452,41.0124465],[28.7018986,41.0094053],[28.6992035,41.0057341],[28.6988191,41.0002717],[28.6921102,40.9998282],[28.6877277,41.0022889],[28.6843106,41.0011432],[28.6847503,40.997834],[28.6878508,40.9899972],[28.6944437,40.9860211],[28.7000602,40.9792122],[28.7000855,40.9770312],[28.6986977,40.9761603],[28.6988888,40.9742182],[28.709803,40.9723778],[28.7121725,40.9726918],[28.7137389,40.9722706],[28.7146294,40.9704398],[28.7179598,40.9692289],[28.7150154,40.9705889],[28.7146849,40.971504],[28.715396,40.9718913],[28.7168603,40.9713918],[28.7166786,40.9708773],[28.7193659,40.9707602],[28.7194593,40.9694322],[28.7250377,40.968936],[28.7256391,40.9695144],[28.7246432,40.9705769],[28.7271703,40.9714834],[28.7346914,40.9714958],[28.7363018,40.9711679],[28.7380251,40.9698537],[28.738506,40.9705618],[28.7416499,40.9705038],[28.7430226,40.9718379],[28.7444539,40.9747205],[28.7492384,40.9765568],[28.7523402,40.9797615],[28.756399,40.9800546],[28.7566005,40.9831476],[28.7397863,41.044572],[28.7402909,41.0511694],[28.7421656,41.0568563],[28.7438822,41.0586927],[28.7452733,41.0591214],[28.7446352,41.0620872],[28.7421709,41.0635141],[28.7359321,41.0621875],[28.7319571,41.0641208],[28.7328798,41.065132],[28.7291354,41.0667619],[28.7261152,41.0715261],[28.7231544,41.0735486],[28.7137404,41.0825559],[28.7108159,41.0838233],[28.7087345,41.0863706],[28.7058055,41.0879637],[28.706193,41.0903167],[28.6977928,41.1011469],[28.6893034,41.1060842],[28.6913405,41.1042056],[28.6924803,41.1004235],[28.6925447,41.0961061],[28.6910427,41.0919744],[28.6922443,41.0901065],[28.6938643,41.0821736],[28.6971074,41.0769277],[28.698467,41.0761323],[28.7000597,41.0717772],[28.7003167,41.0659134],[28.6993195,41.0645083],[28.7010686,41.0599517],[28.7003677,41.0599037],[28.7002237,41.059046],[28.6939839,41.0584725],[28.6822602,41.0549898]]]}},{"type":"Feature","properties":{"ad":"Bayrampaşa","osm_id":1766097,"halka":2},"geometry":{"type":"Polygon","coordinates":[[[28.8784523,41.071029],[28.8836952,41.0638179],[28.8855626,41.0601354],[28.8859747,41.0556448],[28.8847305,41.0443546],[28.8882415,41.0383128],[28.8952599,41.0351532],[28.8986706,41.0296603],[28.8991171,41.0276765],[28.9009613,41.0277942],[28.9026207,41.0292205],[28.908383,41.0305589],[28.9088474,41.0316602],[28.9111286,41.0316748],[28.911998,41.0325469],[28.9155143,41.0301077],[28.9200693,41.025641],[28.9205966,41.0243676],[28.9217699,41.0243395],[28.9240058,41.0286909],[28.9209184,41.0315492],[28.9176978,41.037662],[28.9178932,41.0383011],[28.9166249,41.0393657],[28.9157605,41.0428273],[28.9181964,41.0423775],[28.9179602,41.04292],[28.9146221,41.0478506],[28.9120442,41.0495809],[28.9097078,41.0552017],[28.9033877,41.0597763],[28.9005467,41.0648346],[28.8944145,41.0693669],[28.878924,41.0771924],[28.8784523,41.071029]]]}},{"type":"Feature","properties":{"ad":"Bağcılar","osm_id":1766098,"halka":2},"geometry":{"type":"Polygon","coordinates":[[[28.8079497,41.046513],[28.8107671,41.03698],[28.8109631,41.0271706],[28.8153903,41.0234229],[28.8224765,41.0198726],[28.8271045,41.0203317],[28.827943,41.0218934],[28.8379871,41.0236683],[28.8391601,41.0222932],[28.8414869,41.0214159],[28.8443264,41.0214024],[28.8474295,41.0242114],[28.8484567,41.0214301],[28.8551267,41.0209849],[28.8553145,41.020051],[28.8584705,41.0191368],[28.8584013,41.0200373],[28.8601491,41.0175556],[28.8627742,41.0188931],[28.8620609,41.021044],[28.8625572,41.0213359],[28.8594816,41.025565],[28.8590939,41.0287282],[28.8630936,41.029813],[28.8691728,41.0290893],[28.8721722,41.0272396],[28.8726936,41.027948],[28.8712227,41.0384466],[28.8611078,41.040265],[28.8601607,41.0427498],[28.8593461,41.0427262],[28.8598474,41.048597],[28.8568143,41.054039],[28.854723,41.0543095],[28.8553792,41.0562552],[28.8549333,41.0622472],[28.8564545,41.0660031],[28.8563007,41.0669774],[28.8573451,41.0673129],[28.8602278,41.0712191],[28.8576717,41.0721687],[28.8532657,41.0719403],[28.8472559,41.0662364],[28.8435579,41.0650669],[28.8402027,41.0656866],[28.8337984,41.068887],[28.832182,41.068383],[28.8288115,41.0696877],[28.8197836,41.0707463],[28.8140805,41.0699758],[28.8134629,41.0681949],[28.8137786,41.065182],[28.8116515,41.0615387],[28.8079497,41.046513]]]}},{"type":"Feature","properties":{"ad":"Beylikdüzü","osm_id":1766100,"halka":2},"geometry":{"type":"Polygon","coordinates":[[[28.5948498,40.9737825],[28.5959264,40.972125],[28.5976112,40.9714281],[28.599089,40.9689753],[28.5988637,40.9679419],[28.5983354,40.9681293],[28.597525,40.9689001],[28.5975966,40.9693025],[28.5982518,40.9687548],[28.5975726,40.9697964],[28.5974804,40.9685272],[28.598206,40.9678739],[28.5960653,40.9639831],[28.6005764,40.9620342],[28.6020307,40.9628978],[28.6007072,40.9623723],[28.5963766,40.9642065],[28.5971182,40.9653477],[28.6002087,40.963975],[28.5972481,40.9655105],[28.5981499,40.9666225],[28.598645,40.9664241],[28.5983313,40.9660069],[28.5988248,40.9663295],[28.5995001,40.9660216],[28.599216,40.965612],[28.5997021,40.9659329],[28.6004896,40.9655695],[28.600199,40.9651955],[28.6022793,40.9647681],[28.6018487,40.9641806],[28.6064579,40.9653331],[28.6154652,40.9618205],[28.6168707,40.9619469],[28.620747,40.960717],[28.625512,40.961676],[28.6301001,40.9613121],[28.6386113,40.9623459],[28.6518714,40.962788],[28.6549103,40.9622536],[28.6562546,40.9607964],[28.6575415,40.96057],[28.6542783,40.9631661],[28.6580489,40.9636472],[28.664881,40.9626618],[28.6645749,40.9612946],[28.6579559,40.9618682],[28.6665049,40.9608773],[28.6669044,40.9579003],[28.6718844,40.9571644],[28.6726871,40.9578129],[28.6691674,40.9595555],[28.6690567,40.9632161],[28.6706043,40.9634888],[28.670639,40.9620499],[28.670832,40.9637867],[28.67239,40.9640085],[28.6726392,40.9613278],[28.6746777,40.9614121],[28.6743881,40.9645933],[28.6758802,40.9648256],[28.6762524,40.9613101],[28.6761383,40.965947],[28.6775468,40.9660233],[28.6781111,40.9627612],[28.6779438,40.967695],[28.6789733,40.9677229],[28.6798761,40.9633137],[28.6803037,40.9633496],[28.6799975,40.9664911],[28.6812012,40.9665548],[28.6819245,40.962927],[28.6823258,40.9629629],[28.6819192,40.9667223],[28.6837407,40.966814],[28.6841785,40.9623234],[28.6845885,40.9623507],[28.6846306,40.9643251],[28.685086,40.9645168],[28.6847543,40.9687607],[28.6865661,40.9687031],[28.687025,40.970163],[28.689412,40.970769],[28.6908519,40.9720021],[28.6948966,40.9723018],[28.6951541,40.9708923],[28.6951327,40.9722289],[28.6966776,40.97312],[28.6992415,40.9735331],[28.6994886,40.9729903],[28.6986977,40.9761603],[28.7000855,40.9770312],[28.7001162,40.9788389],[28.6947119,40.9858267],[28.6878508,40.9899972],[28.6843921,40.9989818],[28.6843106,41.0011432],[28.6877277,41.0022889],[28.6855159,41.004106],[28.6807859,41.0057106],[28.6649598,41.0066369],[28.6334939,41.0184707],[28.6317723,41.0164075],[28.6263988,41.0166879],[28.6259346,41.0097734],[28.620179,41.0041171],[28.6176467,40.9993991],[28.6148793,40.9964904],[28.6140868,40.9929224],[28.6132049,40.9921714],[28.6107772,40.9921284],[28.6048177,40.9975549],[28.6026424,40.9963666],[28.6018646,40.9979861],[28.6001158,40.9971642],[28.5975309,40.9970121],[28.5972337,40.9923709],[28.5961172,40.9880811],[28.5989035,40.981152],[28.5948498,40.9737825]]]}},{"type":"Feature","properties":{"ad":"Esenler","osm_id":1766101,"halka":2},"geometry":{"type":"Polygon","coordinates":[[[28.8337984,41.068887],[28.8407388,41.0654777],[28.8440283,41.0650953],[28.8472559,41.0662364],[28.8534861,41.072057],[28.855946,41.0724184],[28.8602661,41.0714138],[28.8573451,41.0673129],[28.8563007,41.0669774],[28.8565435,41.0661785],[28.8548686,41.0616612],[28.8553792,41.0562552],[28.854723,41.0543095],[28.8570153,41.0534988],[28.8597098,41.0488814],[28.8593461,41.0427262],[28.8599608,41.0427206],[28.8611078,41.040265],[28.8687968,41.0385033],[28.8725399,41.0384821],[28.8744317,41.0367972],[28.8764859,41.0318455],[28.8854573,41.0339974],[28.8883467,41.0316948],[28.8905535,41.0297034],[28.8869303,41.0249647],[28.8862061,41.0229554],[28.8854227,41.0226141],[28.887326,41.0207747],[28.8867893,41.0175777],[28.8893156,41.0173263],[28.8923096,41.0187492],[28.8985146,41.0190267],[28.9006289,41.020689],[28.8993789,41.0236968],[28.8989312,41.0289305],[28.8962625,41.0340322],[28.8947653,41.0356167],[28.8884455,41.0381376],[28.8848833,41.0437672],[28.8859747,41.0556448],[28.8857371,41.0594624],[28.8846966,41.0622465],[28.878595,41.0708525],[28.8788307,41.076894],[28.870353,41.0858254],[28.8631601,41.0907742],[28.850607,41.1074804],[28.8500968,41.1050688],[28.8505372,41.1015807],[28.8490414,41.0977431],[28.8461444,41.0934124],[28.8430211,41.083191],[28.8393696,41.077348],[28.8373345,41.0723141],[28.8337984,41.068887]]]}},{"type":"Feature","properties":{"ad":"Fatih","osm_id":1766104,"halka":2},"geometry":{"type":"Polygon","coordinates":[[[28.919882,40.9889772],[28.9199245,40.987921],[28.9238398,40.9877495],[28.9253411,40.9884466],[28.9278438,40.9913796],[28.9294262,40.9908643],[28.9301473,40.9927495],[28.9293545,40.9911617],[28.9280372,40.9916432],[28.9296128,40.9935525],[28.932315,40.9952446],[28.9345888,40.9994116],[28.9371837,41.0012678],[28.9389839,41.0013881],[28.9380206,41.0007563],[28.9380479,41.0000195],[28.9402707,40.9977416],[28.9461377,40.9962017],[28.9498037,40.9966575],[28.9531355,40.9981549],[28.9610656,40.9983593],[28.9547749,40.9986844],[28.9537328,40.9992127],[28.9533822,41.0000294],[28.953791,41.0001484],[28.9531825,41.0004946],[28.9535916,41.0006223],[28.9528696,41.0012236],[28.9537443,41.0021298],[28.9541898,41.0016092],[28.9541165,41.0022146],[28.9554778,41.0023818],[28.9554561,41.0019007],[28.9564125,41.0017933],[28.9561012,41.0015015],[28.9570334,41.0022321],[28.9584351,41.0018663],[28.9582141,41.0012967],[28.9585377,41.0018411],[28.9621977,41.0009448],[28.9652375,41.0008819],[28.9618234,41.0011515],[28.9608645,41.0020846],[28.96457,41.0023163],[28.9730812,41.000984],[28.9783348,41.0010699],[28.9776073,41.0017655],[28.9813953,41.0025894],[28.9863188,41.0067466],[28.9878568,41.0102134],[28.9881084,41.0124523],[28.9868537,41.0170306],[28.9853485,41.0176519],[28.9811095,41.0167169],[28.9769008,41.0166667],[28.973217,41.0182785],[28.9712713,41.0183672],[28.9696293,41.0196342],[28.9663726,41.0195265],[28.9654848,41.020759],[28.9636087,41.021494],[28.9631485,41.0228728],[28.9604146,41.0245878],[28.9596095,41.0263111],[28.9574603,41.02841],[28.9534118,41.0291388],[28.952489,41.0309603],[28.9505876,41.031463],[28.9497438,41.0323595],[28.950161,41.0333067],[28.9491023,41.0342451],[28.9491945,41.035179],[28.946942,41.0368212],[28.9447463,41.0406939],[28.9433461,41.0395188],[28.9417027,41.0397306],[28.9391852,41.0373909],[28.9391074,41.0349707],[28.9403179,41.0345293],[28.9402465,41.0336192],[28.9361332,41.0313447],[28.934935,41.0293353],[28.9252078,41.0208116],[28.9229188,41.0173312],[28.9217529,41.0133155],[28.9223285,41.0082642],[28.9203071,40.9998086],[28.922462,40.9920516],[28.919882,40.9889772]]]}},{"type":"Feature","properties":{"ad":"Gaziosmanpaşa","osm_id":1766105,"halka":2},"geometry":{"type":"Polygon","coordinates":[[[28.8743627,41.0815985],[28.8804099,41.0760589],[28.8936028,41.0698455],[28.900337,41.0650984],[28.9031032,41.0600168],[28.909442,41.0554936],[28.9108774,41.0518027],[28.9144157,41.0531791],[28.9147176,41.0527725],[28.9165013,41.0554291],[28.922123,41.0534186],[28.9238852,41.0558611],[28.9241769,41.0548741],[28.9254305,41.0552491],[28.9256035,41.054686],[28.9271365,41.054328],[28.9271717,41.0561967],[28.9302979,41.0553568],[28.9306122,41.0560715],[28.9323575,41.0565692],[28.9318795,41.0574831],[28.9330317,41.0578041],[28.9335386,41.0568377],[28.9356488,41.0567081],[28.93825,41.057807],[28.9392181,41.0594309],[28.9366067,41.059273],[28.9367773,41.0608895],[28.9353826,41.0614196],[28.9354558,41.0623477],[28.9343718,41.0626624],[28.9350088,41.0644018],[28.9363279,41.0641164],[28.9360508,41.0658453],[28.9338636,41.065805],[28.9323516,41.0691499],[28.9272659,41.0700341],[28.9242569,41.0674167],[28.921553,41.0668003],[28.9172655,41.0692735],[28.9163056,41.0728274],[28.9175552,41.0749555],[28.9157302,41.0791013],[28.9161551,41.0817814],[28.9186938,41.0860124],[28.9193836,41.0890018],[28.9224243,41.0932092],[28.9211832,41.0942843],[28.9082185,41.0908839],[28.8955369,41.0911748],[28.8879515,41.0899661],[28.8800618,41.0865375],[28.8743627,41.0815985]]]}},{"type":"Feature","properties":{"ad":"Sultangazi","osm_id":1766108,"halka":2},"geometry":{"type":"Polygon","coordinates":[[[28.8238482,41.1352322],[28.8277787,41.1305552],[28.8353189,41.1261309],[28.845005,41.1192999],[28.8457566,41.1174262],[28.8450761,41.1128866],[28.8476584,41.1111308],[28.8501464,41.1059498],[28.8502584,41.1074486],[28.8518804,41.1062891],[28.8552762,41.1006409],[28.8631601,41.0907742],[28.870353,41.0858254],[28.8743627,41.0815985],[28.8800618,41.0865375],[28.8879515,41.0899661],[28.8955369,41.0911748],[28.9082185,41.0908839],[28.9211832,41.0942843],[28.9170104,41.097254],[28.9190626,41.1017252],[28.9208656,41.1020305],[28.9208525,41.1031638],[28.919561,41.1040363],[28.9205306,41.1044849],[28.9216741,41.1067692],[28.9206256,41.1076527],[28.9216437,41.1091666],[28.9184712,41.1146742],[28.9113824,41.1144252],[28.9099929,41.115633],[28.9105931,41.1161111],[28.910427,41.1176064],[28.9078735,41.1198702],[28.9070878,41.1224923],[28.9016221,41.1211919],[28.9016751,41.1221596],[28.9046675,41.1223295],[28.9065442,41.1246916],[28.9027158,41.1268521],[28.901259,41.1284812],[28.8992472,41.1331901],[28.8960748,41.1351084],[28.8899911,41.1372791],[28.888199,41.1390438],[28.8851157,41.1451388],[28.883079,41.1469093],[28.8812995,41.1470038],[28.8799549,41.1460885],[28.8778933,41.1428355],[28.8748743,41.1423255],[28.8739426,41.143734],[28.8757577,41.1473687],[28.8757787,41.1503433],[28.8723612,41.1524051],[28.8677873,41.1517186],[28.8661051,41.1520167],[28.8657188,41.1530022],[28.8669401,41.1571531],[28.8623071,41.158681],[28.8613912,41.1598111],[28.854652,41.1568999],[28.8534524,41.1555529],[28.848262,41.1541987],[28.8485098,41.1532325],[28.8468408,41.1528738],[28.8456657,41.1518293],[28.8428342,41.1511159],[28.8409547,41.1477413],[28.836531,41.1441397],[28.8335663,41.1427334],[28.8326794,41.1414896],[28.83256,41.1367433],[28.8336021,41.1346538],[28.8332648,41.1336412],[28.8286894,41.1355944],[28.8238482,41.1352322]]]}},{"type":"Feature","properties":{"ad":"Zeytinburnu","osm_id":1766109,"halka":2},"geometry":{"type":"Polygon","coordinates":[[[28.8899116,40.9821453],[28.8913773,40.9797987],[28.8915193,40.9779778],[28.8919484,40.9780205],[28.8917111,40.9794967],[28.8929381,40.9800007],[28.8913262,40.9803014],[28.8911171,40.9807954],[28.892128,40.9812125],[28.8927878,40.9811498],[28.8927154,40.9804471],[28.8935347,40.9803329],[28.8931112,40.9805936],[28.8938983,40.9809189],[28.8931741,40.9792241],[28.8944294,40.9805767],[28.895057,40.9804106],[28.8944616,40.9795076],[28.8952068,40.9803262],[28.8956466,40.9802371],[28.8950995,40.9793786],[28.8962475,40.9800995],[28.8956681,40.9791761],[28.8964191,40.9800509],[28.8963118,40.9790708],[28.8970522,40.9799132],[28.8999304,40.9789504],[28.9023175,40.9790849],[28.9085314,40.9817175],[28.911715,40.9857176],[28.9170911,40.9877888],[28.9199245,40.987921],[28.9203441,40.9899586],[28.9226152,40.9926551],[28.9214328,40.9947385],[28.9202768,41.000779],[28.922393,41.0089513],[28.9217529,41.0133155],[28.922184,41.0155277],[28.9252078,41.0208116],[28.9291116,41.0244431],[28.9281364,41.025395],[28.9240058,41.0286909],[28.9217699,41.0243395],[28.9205966,41.0243676],[28.9200693,41.025641],[28.9155143,41.0301077],[28.9120832,41.0323796],[28.9108175,41.0315939],[28.9089968,41.0315565],[28.908383,41.0305589],[28.9026207,41.0292205],[28.9009613,41.0277942],[28.8991171,41.0276765],[28.8993392,41.023934],[28.900845,41.0198111],[28.9006963,41.0173883],[28.9025818,41.0170093],[28.9022344,41.0145715],[28.9008401,41.0143155],[28.8991622,41.0102108],[28.8975661,41.0083756],[28.8982272,41.0081961],[28.8959518,41.0066949],[28.8918941,40.9999243],[28.8920313,40.9979011],[28.8942051,40.9955698],[28.8916562,40.9906024],[28.8909676,40.9837039],[28.8899116,40.9821453]]]}},{"type":"Feature","properties":{"ad":"Küçükçekmece","osm_id":7786498,"halka":2},"geometry":{"type":"Polygon","coordinates":[[[28.7397863,41.044572],[28.7566005,40.9831476],[28.7567678,40.9799843],[28.7585836,40.9805108],[28.7622742,40.9801891],[28.7642601,40.9815625],[28.7664809,40.9815463],[28.7664809,40.9833524],[28.7673822,40.9844215],[28.7672749,40.9829717],[28.7693241,40.9820889],[28.7676398,40.9826883],[28.7671289,40.9818156],[28.7682876,40.9799345],[28.7749409,40.9773406],[28.7728983,40.9787489],[28.7721653,40.9813236],[28.770814,40.9809451],[28.769565,40.9816608],[28.774002,40.9817787],[28.7753009,40.9826275],[28.7728431,40.9856642],[28.7719191,40.988022],[28.7699962,40.9881067],[28.7700399,40.9886249],[28.7713943,40.9885931],[28.7700384,40.9890289],[28.7704386,40.9897522],[28.7718596,40.9890741],[28.7728763,40.9863185],[28.7752159,40.9838491],[28.7756661,40.9819856],[28.7728431,40.9806553],[28.7740672,40.9781995],[28.77519,40.9773627],[28.77484,40.9790775],[28.7757386,40.9824936],[28.773436,40.9865223],[28.7769953,40.9860099],[28.7775496,40.984687],[28.7785325,40.9842507],[28.7885011,40.9866443],[28.7923865,40.9891783],[28.7945518,40.9881167],[28.7984168,40.9890176],[28.7972415,40.9972831],[28.8004356,40.9996997],[28.8031143,41.0005109],[28.806196,41.0006487],[28.8103968,40.9995644],[28.8159633,40.9945503],[28.8186472,40.9935855],[28.8193482,40.9944115],[28.8162106,40.995445],[28.8141053,40.9986402],[28.8117338,41.0005848],[28.8118544,41.0023993],[28.8094068,41.0074172],[28.8082437,41.0150551],[28.8061208,41.015537],[28.8059569,41.0161334],[28.8069199,41.0218956],[28.8078003,41.0225954],[28.8085127,41.0247242],[28.8079025,41.0262786],[28.8083935,41.027953],[28.8109631,41.0271706],[28.8107894,41.0367584],[28.8083857,41.0437472],[28.8079531,41.0471405],[28.8115854,41.0609453],[28.7926429,41.0640817],[28.777552,41.0623085],[28.7648943,41.0623398],[28.7559249,41.0610294],[28.7446352,41.0620872],[28.7452733,41.0591214],[28.7438822,41.0586927],[28.7421656,41.0568563],[28.7403778,41.0515072],[28.7397863,41.044572]]]}}],"bbox":[27.9708481,40.9571644,29.1158116,41.5833019]}