{"type":"FeatureCollection","features":[{"type":"Feature","properties":{"uavt_kod":"40490","ad":"ADNAN MENDERES","merkez_lon":28.7039075,"merkez_lat":41.2132529,"alan_km2":2.529,"geometri_kaynak":"yaklasik-voronoi","yaklasik":true},"geometry":{"type":"Polygon","coordinates":[[[28.68003598109204,41.21159471804132],[28.693375847982185,41.198089070305784],[28.71389523116133,41.21807082772479],[28.68003598109204,41.21159471804132]]]}},{"type":"Feature","properties":{"uavt_kod":"99359","ad":"ANADOLU","merkez_lon":28.7494522,"merkez_lat":41.1851685,"alan_km2":1.502,"geometri_kaynak":"yaklasik-voronoi","yaklasik":true},"geometry":{"type":"Polygon","coordinates":[[[28.74513397023905,41.186017041475345],[28.755038368870302,41.161649076588944],[28.754991429317425,41.18425149171781],[28.75219797215399,41.191457395957656],[28.748259986788423,41.1932442379089],[28.74513397023905,41.186017041475345]]]}},{"type":"Feature","properties":{"uavt_kod":"40478","ad":"ARNAVUTKÖY MERKEZ","merkez_lon":28.7426319,"merkez_lat":41.1823968,"alan_km2":3.961,"geometri_kaynak":"yaklasik-voronoi","yaklasik":true},"geometry":{"type":"Polygon","coordinates":[[[28.741152834227872,41.1853264887854],[28.744422736543925,41.14984582926487],[28.757143159987688,41.13553021892867],[28.757401016115548,41.146522217034885],[28.755038368870302,41.161649076588944],[28.74513397023905,41.186017041475345],[28.741152834227872,41.1853264887854]]]}},{"type":"Feature","properties":{"uavt_kod":"40482","ad":"ATATÜRK","merkez_lon":28.7584653,"merkez_lat":41.1886633,"alan_km2":0.697,"geometri_kaynak":"yaklasik-voronoi","yaklasik":true},"geometry":{"type":"Polygon","coordinates":[[[28.75219797215399,41.191457395957656],[28.754991429317425,41.18425149171781],[28.766036484836906,41.19081297385011],[28.761176007175443,41.19479149627721],[28.75219797215399,41.191457395957656]]]}},{"type":"Feature","properties":{"uavt_kod":"191981","ad":"BAKLALI","merkez_lon":28.652605,"merkez_lat":41.258862,"alan_km2":16.565,"geometri_kaynak":"yaklasik-voronoi","yaklasik":true},"geometry":{"type":"Polygon","coordinates":[[[28.635616282057878,41.2341147124422],[28.666558077624472,41.22484556555357],[28.678210770057298,41.23947879990695],[28.66691735948609,41.27874467892832],[28.65006173079975,41.288733839021326],[28.64675718064446,41.29046544042243],[28.635616282057878,41.2341147124422]]]}},{"type":"Feature","properties":{"uavt_kod":"191983","ad":"BALABAN","merkez_lon":28.6137897,"merkez_lat":41.3098086,"alan_km2":72.936,"geometri_kaynak":"yaklasik-voronoi","yaklasik":true},"geometry":{"type":"Polygon","coordinates":[[[28.4893,41.39432065685705],[28.4904349,41.3934231],[28.4909909,41.3914859],[28.4913939,41.390082],[28.4955893,41.3876916],[28.4979374,41.3872512],[28.5196667,41.3831754],[28.5285302,41.3758367],[28.5342134,41.3711307],[28.5653133,41.3660487],[28.5730883,41.3536243],[28.5635686,41.3269921],[28.5597423,41.3162844],[28.5572727,41.3093727],[28.5575978,41.3078362],[28.5579821,41.3060196],[28.5571473,41.3047046],[28.5561239,41.3017914],[28.5561778,41.2994243],[28.5568511,41.29643],[28.5567164,41.2950744],[28.5556392,41.2925249],[28.5542658,41.2912907],[28.5531078,41.2899147],[28.551869,41.2869604],[28.55242630066848,41.28485385740345],[28.58965010839638,41.27594301629598],[28.643675758050385,41.294050655172114],[28.64716037267961,41.32925345869567],[28.6354352631438,41.35143144227374],[28.6351802,41.3515361],[28.6347002,41.3516896],[28.6340833,41.3519473],[28.6327973,41.3522091],[28.6316672,41.352613],[28.6307621,41.3527927],[28.6298105,41.3532037],[28.6289549,41.3534574],[28.6281878,41.3537634],[28.6273053,41.3539768],[28.6255812,41.3546139],[28.6248618,41.3549312],[28.6245024,41.3550359],[28.6242004,41.355152],[28.6217411,41.3563441],[28.6209887,41.3563969],[28.6207205,41.3564613],[28.6203289,41.3566385],[28.6199963,41.3567794],[28.6194738,41.356926],[28.6193057,41.3570142],[28.6183333,41.3575243],[28.6174697,41.3577055],[28.6170405,41.357939],[28.6144768,41.3589573],[28.613564,41.359366],[28.6124486,41.3598315],[28.6112438,41.360316],[28.609862,41.361215],[28.6095893,41.3616111],[28.6094767,41.3618084],[28.609187,41.361905],[28.6090261,41.361901],[28.6088008,41.3618326],[28.6086184,41.3617802],[28.6083823,41.3617842],[28.6078676,41.3618288],[28.6069472,41.3620793],[28.6061872,41.3624153],[28.6052426,41.3628446],[28.6044234,41.3630606],[28.6039728,41.3632095],[28.6035597,41.3633867],[28.6030233,41.3636967],[28.6023849,41.364047],[28.6019558,41.3642443],[28.6016178,41.3643892],[28.6011028,41.3645865],[28.600148,41.3648925],[28.5997403,41.3650817],[28.5992789,41.3652226],[28.5986245,41.3655044],[28.5980076,41.3657983],[28.5975301,41.3660359],[28.5968167,41.3663177],[28.5961407,41.3665391],[28.5956579,41.3667525],[28.5953414,41.3668813],[28.5949498,41.3670826],[28.5946172,41.3671712],[28.59429,41.3673564],[28.594054,41.3675617],[28.5936624,41.3677308],[28.5931528,41.3679401],[28.5924393,41.3682421],[28.5919672,41.3684917],[28.5914898,41.3686205],[28.5905564,41.3689788],[28.5903043,41.3690996],[28.5900575,41.3692163],[28.5897517,41.3693693],[28.5892528,41.3694981],[28.5887539,41.3696149],[28.587878,41.369929],[28.5874384,41.370079],[28.5868174,41.3704314],[28.5862399,41.3707773],[28.5857403,41.3709154],[28.5851544,41.37104],[28.5847253,41.3711809],[28.5840157,41.3714638],[28.5832894,41.3717992],[28.5827136,41.3721068],[28.5823546,41.3722615],[28.5819828,41.3723925],[28.5815475,41.3726442],[28.5808146,41.3729723],[28.5802957,41.3732281],[28.5796606,41.3734053],[28.5787815,41.3736768],[28.577553,41.3742605],[28.5766357,41.374663],[28.5761851,41.3749005],[28.5759759,41.3752024],[28.5754126,41.3755728],[28.5747957,41.3758586],[28.57427,41.3761323],[28.5739857,41.3764181],[28.5737175,41.3766395],[28.5732078,41.3770541],[28.5728538,41.3772312],[28.5727304,41.3772151],[28.5725158,41.3771708],[28.5724032,41.3771829],[28.5721832,41.3772755],[28.5719848,41.3774285],[28.5717487,41.3776499],[28.5714644,41.377839],[28.5710835,41.3780564],[28.5706061,41.3784308],[28.5700911,41.3788132],[28.5696083,41.3790506],[28.5690612,41.3792157],[28.5685301,41.3794854],[28.5684013,41.3796303],[28.5682243,41.3797913],[28.567881,41.3800489],[28.5672641,41.3802421],[28.5663092,41.3803749],[28.5657406,41.3805158],[28.5652953,41.3807774],[28.5649842,41.3809827],[28.5645604,41.3812001],[28.5643887,41.3815301],[28.5642385,41.3819648],[28.564083,41.3822345],[28.5636592,41.3825766],[28.5632622,41.3828061],[28.5626721,41.3830073],[28.5617977,41.3832569],[28.5613203,41.3834621],[28.5607624,41.3835587],[28.5602957,41.3836312],[28.5596681,41.3838324],[28.5593086,41.3839854],[28.5589009,41.3842671],[28.5579944,41.3846656],[28.5576618,41.384899],[28.557474,41.3850439],[28.5569107,41.3853176],[28.5560203,41.3856114],[28.5556447,41.3857764],[28.5552263,41.3859535],[28.5548025,41.3861708],[28.554604,41.386203],[28.5542285,41.3861829],[28.5539389,41.3862272],[28.5533434,41.3864003],[28.5530484,41.3864526],[28.5526836,41.3865049],[28.5518253,41.3867866],[28.551262,41.3869476],[28.5505432,41.387004],[28.5501033,41.3871086],[28.549251,41.3874918],[28.5487944,41.3875916],[28.548333,41.3877365],[28.5481721,41.3877968],[28.5479093,41.3879457],[28.5475767,41.388151],[28.5468578,41.3881349],[28.5462409,41.3881591],[28.5457367,41.3882234],[28.5450661,41.3882395],[28.5448086,41.3882999],[28.5445672,41.38832],[28.5442829,41.3883643],[28.5439771,41.3884327],[28.5436923,41.3885088],[28.5427548,41.388763],[28.5420567,41.3890364],[28.5415903,41.3892565],[28.5409713,41.3895118],[28.539738,41.3896882],[28.5390308,41.3898981],[28.53847,41.3898834],[28.5378187,41.3901879],[28.5370853,41.3903908],[28.5364723,41.3906649],[28.5358034,41.3910105],[28.5351215,41.3913671],[28.5344299,41.3915678],[28.5336429,41.3917916],[28.5329173,41.3920682],[28.5321561,41.3923223],[28.5314601,41.3925196],[28.5307538,41.3928315],[28.5300565,41.3931736],[28.5293752,41.39358],[28.5285276,41.3941152],[28.5280502,41.3943688],[28.5275888,41.3945217],[28.5274655,41.3945096],[28.5272831,41.3945016],[28.5269988,41.3945901],[28.5266393,41.3948074],[28.5259527,41.3952541],[28.5253197,41.3955197],[28.5240537,41.3957853],[28.5224712,41.3963044],[28.5217738,41.396562],[28.5208029,41.396904],[28.520304,41.3971455],[28.5197085,41.3973829],[28.5189414,41.3977249],[28.5183513,41.3980147],[28.5175735,41.398244],[28.5166132,41.3984573],[28.5159159,41.3987068],[28.5149717,41.3989603],[28.5143441,41.3992339],[28.5137218,41.399419],[28.5127509,41.3998013],[28.512091,41.4001353],[28.5114098,41.4003325],[28.5106641,41.4006061],[28.5098541,41.400936],[28.5088724,41.4013304],[28.5082072,41.4016684],[28.5075849,41.4018937],[28.5067427,41.4022116],[28.5062277,41.4023685],[28.5056215,41.4025134],[28.5046881,41.4027588],[28.5039532,41.4031411],[28.5027999,41.4035434],[28.5020167,41.4038533],[28.5013246,41.4042194],[28.5006434,41.4045695],[28.4995222,41.4050483],[28.4986156,41.4054265],[28.4975642,41.4058007],[28.4967756,41.4060542],[28.4962553,41.4063157],[28.4953165,41.4066336],[28.4947318,41.4068468],[28.4939003,41.4071687],[28.493093,41.4076616],[28.4919557,41.408084],[28.491894,41.4071566],[28.4911315,41.4073306],[28.4912074,41.4070319],[28.4912664,41.4065853],[28.491169,41.4062365],[28.4911108,41.4060059],[28.4908426,41.4056921],[28.4901435,41.4055197],[28.4904531,41.4040558],[28.4906173,41.4030324],[28.490664,41.4023313],[28.4904241,41.4007308],[28.4901431,41.3992975],[28.4897589,41.3976726],[28.4899386,41.396875],[28.4896344,41.3959317],[28.4893,41.394496978136004],[28.4893,41.39432065685705]]]}},{"type":"Feature","properties":{"uavt_kod":"40483","ad":"BOĞAZKÖY İSTİKLAL","merkez_lon":28.7738364,"merkez_lat":41.1816651,"alan_km2":29.009,"geometri_kaynak":"yaklasik-voronoi","yaklasik":true},"geometry":{"type":"Polygon","coordinates":[[[28.757143159987688,41.13553021892867],[28.758515126505078,41.13230989481918],[28.7588704,41.1324477],[28.7597501,41.1331104],[28.7607372,41.1340881],[28.7613809,41.1347496],[28.7617457,41.1352194],[28.7620783,41.1355992],[28.7624645,41.1358578],[28.7629151,41.1361971],[28.7634087,41.136682],[28.7636661,41.1368678],[28.7641168,41.1370537],[28.7645244,41.1371991],[28.7652647,41.1375546],[28.765887,41.1378698],[28.7667775,41.1381283],[28.7684478,41.138642],[28.7690359,41.1387968],[28.7710664,41.1395187],[28.7713561,41.1396498],[28.7718678,41.1398785],[28.7736674,41.1412912],[28.7740516,41.1416996],[28.7743844,41.1421775],[28.7746318,41.1425389],[28.774811,41.1428514],[28.7748451,41.1429152],[28.774889,41.1429935],[28.7749606,41.1430898],[28.7750388,41.1431996],[28.7751896,41.1433776],[28.776342,41.1445775],[28.7778988,41.1461809],[28.7781844,41.1464777],[28.778371,41.146688],[28.7784714,41.1467895],[28.7793673,41.1477022],[28.7800997,41.1483761],[28.7805136,41.1487482],[28.7810698,41.1491486],[28.7814599,41.1493693],[28.7826991,41.1494234],[28.7838256,41.1494396],[28.7846517,41.1492942],[28.7855744,41.1492295],[28.7858319,41.1492699],[28.7862718,41.1491326],[28.786701,41.1489225],[28.7872052,41.1487286],[28.7876987,41.1485994],[28.7883532,41.1484378],[28.7888467,41.1484459],[28.7898287,41.148761],[28.7921594,41.1469972],[28.7925367,41.1467293],[28.7926673,41.1466363],[28.7928887,41.1464939],[28.7930829,41.1463652],[28.7934012,41.1461781],[28.7939484,41.1458509],[28.7946322,41.145469],[28.7949521,41.145289],[28.7953487,41.1450808],[28.7955654,41.1449592],[28.7966248,41.1443766],[28.7973695,41.1439776],[28.7983124,41.1434483],[28.7992813,41.1428778],[28.8026529,41.1406329],[28.8037288,41.1399166],[28.8044449,41.1394381],[28.8051882,41.1389347],[28.8058089,41.1385109],[28.8065826,41.1379958],[28.8070324,41.1377018],[28.8073079,41.1375218],[28.8075117,41.1373967],[28.807823,41.1372258],[28.808115,41.1370748],[28.8083221,41.1369698],[28.8086302,41.1368289],[28.808953,41.1367051],[28.8091988,41.1366217],[28.8094773,41.1365387],[28.8097996,41.136453],[28.810191,41.1363643],[28.810539,41.1363106],[28.8108118,41.1362713],[28.8111171,41.1362308],[28.8114106,41.1362032],[28.8116203,41.136188],[28.8119498,41.1361838],[28.8128084,41.1361884],[28.8135302,41.1362317],[28.8142735,41.136267],[28.8151854,41.1363266],[28.8150483,41.1387853],[28.8150357,41.1392203],[28.8151483,41.1411764],[28.81725,41.1429454],[28.8170171,41.1460424],[28.8166008,41.1515776],[28.8163474,41.1529024],[28.815863,41.1532762],[28.815161,41.1537965],[28.8147315,41.1543169],[28.8148999,41.1547012],[28.8152726,41.1550086],[28.8155571,41.1556622],[28.8156636,41.1571768],[28.8157029,41.1577967],[28.8158614,41.1585063],[28.8160871,41.1592393],[28.8162581,41.1597111],[28.8162248,41.1600035],[28.8149694,41.1617613],[28.8145551,41.1624841],[28.8141919,41.1630146],[28.8138713,41.1634874],[28.8137721,41.1638961],[28.8136984,41.1644342],[28.8137779,41.1648313],[28.8140289,41.1657549],[28.8142688,41.1662011],[28.8143036,41.1664627],[28.8140656,41.1674781],[28.8138616,41.168532],[28.8139015,41.1690221],[28.8140747,41.1697287],[28.8143842,41.1706147],[28.8144946,41.1736162],[28.8137165,41.1745391],[28.8138224,41.1750303],[28.8142348,41.1755728],[28.8146471,41.1755386],[28.8151598,41.1754702],[28.8155184,41.1754488],[28.8160642,41.1752992],[28.8166476,41.1750535],[28.8171958,41.1749664],[28.8178837,41.1749957],[28.8183331,41.1751276],[28.8188965,41.1751872],[28.8195451,41.175157],[28.8198151,41.1753677],[28.8198479,41.175755],[28.8196429,41.1767691],[28.819617,41.1778722],[28.8197615,41.1789753],[28.8201697,41.1803366],[28.8206801,41.1813902],[28.8210411,41.1819293],[28.8213748,41.1823335],[28.8214,41.18241004551387],[28.8214,41.1825583275712],[28.8211833,41.1827902],[28.8207503,41.1831049],[28.8204317,41.1832238],[28.8199086,41.1833427],[28.8196403,41.1835118],[28.8191676,41.1841423],[28.8187935,41.1847991],[28.8184105,41.1854543],[28.8181979,41.1859301],[28.8180227,41.1863888],[28.8178816,41.1867962],[28.8179401,41.1870983],[28.8182086,41.1875016],[28.8185622,41.1880204],[28.8186832,41.1885735],[28.8187607,41.1891063],[28.8186849,41.1896648],[28.818521,41.1899929],[28.8182378,41.1903595],[28.8181015,41.1906815],[28.8180941,41.1910082],[28.8183458,41.1912164],[28.8187441,41.1915256],[28.8191051,41.191898],[28.8192958,41.1922448],[28.8192855,41.1926126],[28.8190248,41.1929888],[28.8186731,41.193446],[28.8184462,41.1937259],[28.8181852,41.1941595],[28.818157,41.1944948],[28.8183132,41.1947778],[28.8186808,41.195214],[28.8190314,41.1956759],[28.819144,41.1961376],[28.8191492,41.1966376],[28.8189474,41.1972977],[28.8186094,41.1978681],[28.8171992,41.1996868],[28.8160451,41.2010509],[28.8192382,41.2029988],[28.8207871,41.207241],[28.8205808,41.2073551],[28.8203543,41.2074964],[28.8200001,41.207678],[28.8197804,41.2078458],[28.8195607,41.208116],[28.8184177,41.2102242],[28.818238918856075,41.21046269727787],[28.768805002534457,41.18955472490248],[28.757401016115548,41.146522217034885],[28.757143159987688,41.13553021892867]]]}},{"type":"Feature","properties":{"uavt_kod":"40487","ad":"BOLLUCA","merkez_lon":28.7666478,"merkez_lat":41.1986596,"alan_km2":5.997,"geometri_kaynak":"yaklasik-voronoi","yaklasik":true},"geometry":{"type":"Polygon","coordinates":[[[28.760769452765356,41.19950098987587],[28.761176007175443,41.19479149627721],[28.766036484836906,41.19081297385011],[28.768805002534457,41.18955472490248],[28.818238918856075,41.21046269727787],[28.8181743,41.2105489],[28.8179675,41.2107369],[28.8176256,41.2108693],[28.8172838,41.2109249],[28.8167838,41.2108146],[28.8164201,41.2107555],[28.8160626,41.2107469],[28.8157476,41.2109219],[28.8151941,41.2113276],[28.8150298,41.211528],[28.8148744,41.21182],[28.8148478,41.2122863],[28.8147701,41.2127142],[28.8146722,41.2131237],[28.8144008,41.2133926],[28.8138904,41.2137833],[28.8134138,41.2141452],[28.8129202,41.2146737],[28.8125892,41.2150515],[28.8123726,41.2151763],[28.812128,41.2152772],[28.8118153,41.2154165],[28.8116177,41.2156266],[28.8112805,41.2158854],[28.8108411,41.2161442],[28.8107632,41.2174997],[28.8109036,41.2181054],[28.8107886,41.2183011],[28.8106476,41.218503],[28.8100662,41.2189049],[28.8093996,41.2192557],[28.809336339274857,41.219345430189485],[28.760769452765356,41.19950098987587]]]}},{"type":"Feature","properties":{"uavt_kod":"191985","ad":"BOYALIK","merkez_lon":28.6293234,"merkez_lat":41.2634653,"alan_km2":17.392,"geometri_kaynak":"yaklasik-voronoi","yaklasik":true},"geometry":{"type":"Polygon","coordinates":[[[28.58965010839638,41.27594301629598],[28.626354321534745,41.23304157197392],[28.635616282057878,41.2341147124422],[28.64675718064446,41.29046544042243],[28.643675758050385,41.294050655172114],[28.58965010839638,41.27594301629598]]]}},{"type":"Feature","properties":{"uavt_kod":"40494","ad":"ÇİLİNGİR","merkez_lon":28.6780826,"merkez_lat":41.1877445,"alan_km2":13.066,"geometri_kaynak":"yaklasik-voronoi","yaklasik":true},"geometry":{"type":"Polygon","coordinates":[[[28.649133262419465,41.17541892924881],[28.684856461815798,41.17050340451384],[28.695946708061925,41.19422951480454],[28.693375847982185,41.198089070305784],[28.68003598109204,41.21159471804132],[28.667238408492818,41.221774212770285],[28.649133262419465,41.17541892924881]]]}},{"type":"Feature","properties":{"uavt_kod":"40910","ad":"DELİKLİKAYA","merkez_lon":28.6545292,"merkez_lat":41.1115232,"alan_km2":8.515,"geometri_kaynak":"yaklasik-voronoi","yaklasik":true},"geometry":{"type":"Polygon","coordinates":[[[28.64334452501965,41.1033601394545],[28.6456678,41.1014765],[28.6480369,41.1014765],[28.652701,41.0997471],[28.6561066,41.1001376],[28.6573652,41.0987429],[28.6589939,41.0993008],[28.6597343,41.1008071],[28.6615111,41.1016439],[28.6622949,41.1024971],[28.66351,41.1038196],[28.6652128,41.1044332],[28.6682482,41.106832],[28.6715797,41.1081708],[28.6760958,41.1095653],[28.6780636,41.1102436],[28.677578,41.1104237],[28.6769771,41.1108036],[28.6761709,41.1112169],[28.6754,41.1115311],[28.6744559,41.111814],[28.6737539,41.1118255],[28.6738748,41.1134699],[28.6751334,41.1149759],[28.6770583,41.1158125],[28.6771323,41.116928],[28.6783909,41.117932],[28.6790572,41.1192706],[28.6817631,41.1222454],[28.6817965,41.1222822],[28.6837213,41.1236765],[28.685695211845655,41.1242751127003],[28.65311624557727,41.138386597354405],[28.64334452501965,41.1033601394545]]]}},{"type":"Feature","properties":{"uavt_kod":"40911","ad":"DURSUNKÖY","merkez_lon":28.6362006,"merkez_lat":41.2041032,"alan_km2":23.689,"geometri_kaynak":"yaklasik-voronoi","yaklasik":true},"geometry":{"type":"Polygon","coordinates":[[[28.59533752819079,41.19228065415982],[28.64842978918932,41.17487389056352],[28.649133262419465,41.17541892924881],[28.667238408492818,41.221774212770285],[28.666558077624472,41.22484556555357],[28.635616282057878,41.2341147124422],[28.626354321534745,41.23304157197392],[28.59533752819079,41.19228065415982]]]}},{"type":"Feature","properties":{"uavt_kod":"40915","ad":"DURUSU","merkez_lon":28.6774858,"merkez_lat":41.300846,"alan_km2":8.246,"geometri_kaynak":"yaklasik-voronoi","yaklasik":true},"geometry":{"type":"Polygon","coordinates":[[[28.65006173079975,41.288733839021326],[28.66691735948609,41.27874467892832],[28.706062472230812,41.29388215472648],[28.698795950468444,41.31337962916827],[28.65006173079975,41.288733839021326]]]}},{"type":"Feature","properties":{"uavt_kod":"40495","ad":"FATİH","merkez_lon":28.7028347,"merkez_lat":41.2188627,"alan_km2":14.477,"geometri_kaynak":"yaklasik-voronoi","yaklasik":true},"geometry":{"type":"Polygon","coordinates":[[[28.666558077624472,41.22484556555357],[28.667238408492818,41.221774212770285],[28.68003598109204,41.21159471804132],[28.71389523116133,41.21807082772479],[28.721052584567847,41.222089781144916],[28.725718757320312,41.23246479902111],[28.72719968305438,41.25227622353679],[28.678210770057298,41.23947879990695],[28.666558077624472,41.22484556555357]]]}},{"type":"Feature","properties":{"uavt_kod":"191975","ad":"HACIMAŞLI","merkez_lon":28.7123084,"merkez_lat":41.1554517,"alan_km2":21.853,"geometri_kaynak":"yaklasik-voronoi","yaklasik":true},"geometry":{"type":"Polygon","coordinates":[[[28.692761629735884,41.123671166776205],[28.7167452,41.1117477],[28.7217194,41.1118349],[28.7271563,41.1143623],[28.7329976,41.1244526],[28.7331957,41.124819],[28.7335186,41.1253426],[28.7338656,41.1310063],[28.7351381,41.1358853],[28.7358488,41.1363656],[28.7364779,41.1365068],[28.7367904,41.1365769],[28.7380329,41.1361179],[28.7378257,41.1358254],[28.737844,41.1354938],[28.7377506,41.1344639],[28.7378579,41.1342538],[28.7379384,41.1341245],[28.7380242,41.1340396],[28.738094,41.1339507],[28.7385499,41.1337366],[28.7393331,41.1333205],[28.7403095,41.1327992],[28.7406367,41.1326619],[28.74098,41.1327063],[28.7413126,41.1328154],[28.741731,41.1329851],[28.7419778,41.1330821],[28.7434852,41.1332801],[28.7441397,41.133377],[28.7444508,41.1333609],[28.7446225,41.1332962],[28.7457168,41.1335548],[28.7459636,41.1337407],[28.746146,41.1340316],[28.7464464,41.1340396],[28.7470043,41.1340558],[28.748045,41.1331023],[28.7484956,41.1326982],[28.7487745,41.1325366],[28.7490535,41.1323831],[28.7495041,41.1321083],[28.7499869,41.1317932],[28.75018,41.1316962],[28.7504804,41.1318901],[28.7505877,41.131971],[28.7507486,41.1321407],[28.7508988,41.1321891],[28.751167,41.1322134],[28.7521326,41.1322376],[28.7540424,41.1321164],[28.7546217,41.1312598],[28.7557268,41.1314619],[28.7569499,41.1318417],[28.7581622,41.132173],[28.758515126505078,41.13230989481918],[28.757143159987688,41.13553021892867],[28.744422736543925,41.14984582926487],[28.72786218832223,41.16715124273736],[28.713175473496424,41.16865163064463],[28.693018643116726,41.1591298342825],[28.692761629735884,41.123671166776205]]]}},{"type":"Feature","properties":{"uavt_kod":"40913","ad":"HADIMKÖY","merkez_lon":28.6212692,"merkez_lat":41.1585587,"alan_km2":13.892,"geometri_kaynak":"yaklasik-voronoi","yaklasik":true},"geometry":{"type":"Polygon","coordinates":[[[28.59204209940337,41.16691705179358],[28.646877628623468,41.146098799266845],[28.64842978918932,41.17487389056352],[28.59533752819079,41.19228065415982],[28.594222617792745,41.19190884679099],[28.5943936,41.1916599],[28.5950843,41.1900742],[28.5952014,41.1878367],[28.5951428,41.1861188],[28.595096,41.1850264],[28.5945692,41.1834318],[28.5942649,41.182216],[28.5943702,41.1810531],[28.5940542,41.1788416],[28.5941946,41.1747446],[28.5940308,41.172154],[28.5930475,41.1686558],[28.59204209940337,41.16691705179358]]]}},{"type":"Feature","properties":{"uavt_kod":"40489","ad":"HARAÇÇI","merkez_lon":28.7024285,"merkez_lat":41.1763646,"alan_km2":5.323,"geometri_kaynak":"yaklasik-voronoi","yaklasik":true},"geometry":{"type":"Polygon","coordinates":[[[28.684856461815798,41.17050340451384],[28.693018643116726,41.1591298342825],[28.713175473496424,41.16865163064463],[28.70383821937308,41.19042411817737],[28.699635853324686,41.19348994832094],[28.695946708061925,41.19422951480454],[28.684856461815798,41.17050340451384]]]}},{"type":"Feature","properties":{"uavt_kod":"40912","ad":"HASTANE","merkez_lon":28.6194517,"merkez_lat":41.153773,"alan_km2":8.064,"geometri_kaynak":"yaklasik-voronoi","yaklasik":true},"geometry":{"type":"Polygon","coordinates":[[[28.582641382400592,41.1564764493343],[28.628970581064088,41.135073786395964],[28.64695572329117,41.14393710378405],[28.646877628623468,41.146098799266845],[28.59204209940337,41.16691705179358],[28.591315,41.1656596],[28.5909638,41.1656244],[28.590519,41.1654834],[28.589442,41.1651221],[28.5880607,41.1645316],[28.5863282,41.1639235],[28.5858248,41.1634917],[28.5847479,41.1619319],[28.5846425,41.161359],[28.5844201,41.1604336],[28.5833232,41.1580936],[28.582641382400592,41.1564764493343]]]}},{"type":"Feature","properties":{"uavt_kod":"40486","ad":"HİCRET","merkez_lon":28.7551223,"merkez_lat":41.197665,"alan_km2":1.818,"geometri_kaynak":"yaklasik-voronoi","yaklasik":true},"geometry":{"type":"Polygon","coordinates":[[[28.74274335179232,41.20148274489548],[28.748259986788423,41.1932442379089],[28.75219797215399,41.191457395957656],[28.761176007175443,41.19479149627721],[28.760769452765356,41.19950098987587],[28.754429760235205,41.20845472928784],[28.743277657083915,41.202988974603564],[28.74274335179232,41.20148274489548]]]}},{"type":"Feature","properties":{"uavt_kod":"40481","ad":"İMRAHOR","merkez_lon":28.7463257,"merkez_lat":41.2156124,"alan_km2":23.281,"geometri_kaynak":"yaklasik-voronoi","yaklasik":true},"geometry":{"type":"Polygon","coordinates":[[[28.725718757320312,41.23246479902111],[28.743277657083915,41.202988974603564],[28.754429760235205,41.20845472928784],[28.78271930776039,41.25327258275256],[28.7823422,41.2540664],[28.7813946,41.2552241],[28.7807621,41.2563475],[28.7790801,41.2577939],[28.7773079,41.2579401],[28.7757088,41.2580291],[28.7748204,41.2583853],[28.7745242,41.2592313],[28.774465,41.2598991],[28.7731028,41.2613683],[28.773162,41.2628375],[28.7716813,41.2650635],[28.771326,41.2665327],[28.771326,41.2676011],[28.7704968,41.2684024],[28.770023,41.2693818],[28.7700822,41.2703166],[28.7732805,41.2705392],[28.7744058,41.270005],[28.7763011,41.2701831],[28.7769526,41.2710734],[28.7762418,41.2720972],[28.7777225,41.2728539],[28.7777225,41.2738332],[28.7773671,41.27459],[28.7774856,41.2761034],[28.778081099137676,41.27657726791389],[28.742643567671802,41.268530530957186],[28.72719968305438,41.25227622353679],[28.725718757320312,41.23246479902111]]]}},{"type":"Feature","properties":{"uavt_kod":"40479","ad":"İSLAMBEY","merkez_lon":28.7415591,"merkez_lat":41.1885825,"alan_km2":1.183,"geometri_kaynak":"yaklasik-voronoi","yaklasik":true},"geometry":{"type":"Polygon","coordinates":[[[28.73577524926093,41.19722668632971],[28.73934092069656,41.18570120166647],[28.741152834227872,41.1853264887854],[28.74513397023905,41.186017041475345],[28.748259986788423,41.1932442379089],[28.74274335179232,41.20148274489548],[28.73577524926093,41.19722668632971]]]}},{"type":"Feature","properties":{"uavt_kod":"191987","ad":"KARABURUN","merkez_lon":28.6820201,"merkez_lat":41.3458809,"alan_km2":10.197,"geometri_kaynak":"yaklasik-voronoi","yaklasik":true},"geometry":{"type":"Polygon","coordinates":[[[28.6354352631438,41.35143144227374],[28.64716037267961,41.32925345869567],[28.6960830499849,41.32236279393991],[28.704283162094796,41.33438344274686],[28.7041184,41.3344163],[28.7034855,41.3346445],[28.7027709,41.3350025],[28.7024589,41.3353031],[28.7023726,41.3352949],[28.702207,41.3352791],[28.7020535,41.3352645],[28.7014456,41.3354106],[28.7005796,41.3357469],[28.7000189,41.3360261],[28.6997392,41.3362052],[28.6996049,41.336324],[28.6993752,41.3363316],[28.6991977,41.3362794],[28.6988561,41.3363479],[28.6982673,41.3365184],[28.6976747,41.3367663],[28.6971796,41.3370904],[28.6969516,41.3372455],[28.6967692,41.3374127],[28.6965963,41.3374238],[28.6964259,41.3374348],[28.6958935,41.3375465],[28.6954012,41.3376644],[28.6951706,41.3377007],[28.6948433,41.3378436],[28.6943515,41.3381452],[28.6941691,41.3383036],[28.6940484,41.3384949],[28.6937913,41.3384534],[28.6936444,41.3384297],[28.693341,41.3384393],[28.6928196,41.3386006],[28.6923408,41.3387881],[28.6917159,41.3391184],[28.6914584,41.3393742],[28.6913565,41.3395756],[28.6911646,41.3395722],[28.6910158,41.3395695],[28.6906618,41.3396138],[28.6902144,41.3397168],[28.6898389,41.3398648],[28.689517,41.3400152],[28.6891837,41.3402143],[28.6888994,41.340466],[28.6886444,41.3407351],[28.6886315,41.3409762],[28.6875755,41.3413188],[28.6870388,41.3413313],[28.6866599,41.3413155],[28.6862673,41.3414002],[28.6858896,41.3416044],[28.6854721,41.3421423],[28.6854491,41.3425838],[28.6854493,41.3429227],[28.6854737,41.3430871],[28.6855267,41.343144],[28.6856839,41.3432283],[28.685713,41.3432806],[28.6857024,41.3433332],[28.6856727,41.3433699],[28.6856085,41.3433977],[28.6855427,41.3433972],[28.6854744,41.3433775],[28.6854069,41.343334],[28.6852379,41.3432543],[28.6851774,41.3433168],[28.6843703,41.3428765],[28.6841695,41.343109],[28.6840551,41.3432853],[28.684033,41.3432758],[28.6839384,41.3432862],[28.6839281,41.3437239],[28.6840159,41.3437259],[28.6841185,41.3437133],[28.6841688,41.3437143],[28.6841658,41.3437537],[28.6838858,41.3437485],[28.6838718,41.3442063],[28.6838432,41.344666],[28.6844564,41.3451539],[28.6862417,41.3449482],[28.686349,41.3444436],[28.6864184,41.344117],[28.6864674,41.3441072],[28.6864316,41.343952],[28.6864332,41.3438199],[28.686487,41.3437258],[28.6865147,41.343727],[28.6867296,41.3433627],[28.6866791,41.3433395],[28.686668,41.3433161],[28.6866672,41.3432623],[28.6866935,41.3432054],[28.6867511,41.3431469],[28.6868436,41.3431207],[28.6869349,41.3431238],[28.6870227,41.3431439],[28.6871146,41.3432023],[28.6871473,41.3432837],[28.6871374,41.3433645],[28.6868713,41.3437772],[28.6868371,41.3439581],[28.6868192,41.3440449],[28.6868387,41.3441488],[28.687121,41.344706],[28.687179,41.3447833],[28.6872621,41.344919],[28.6873093,41.3449287],[28.6873907,41.344996],[28.6874998,41.3449495],[28.6877587,41.3449569],[28.6878548,41.3450143],[28.6878857,41.3451427],[28.6878173,41.3452747],[28.6870992,41.3453529],[28.686417,41.3454495],[28.686119,41.3454789],[28.6856972,41.3455473],[28.685453,41.3456879],[28.6852087,41.3458847],[28.6850996,41.3458933],[28.6849987,41.3460571],[28.6849319,41.3461097],[28.684984,41.3461793],[28.6851533,41.3461732],[28.6852022,41.34626],[28.6850475,41.3463664],[28.6847528,41.3463982],[28.6846941,41.3464361],[28.684642,41.3464067],[28.6845623,41.3464116],[28.6845557,41.3464422],[28.684629,41.3464605],[28.6846795,41.3464972],[28.6846697,41.3465669],[28.6847235,41.3466048],[28.6847577,41.3466671],[28.6846974,41.3466879],[28.6847153,41.3467221],[28.6847821,41.3467282],[28.6847446,41.346749],[28.6845883,41.3468101],[28.6847511,41.3468297],[28.6848358,41.3468602],[28.6848765,41.3468981],[28.6848668,41.346969],[28.684813,41.3470167],[28.6847544,41.3470216],[28.6846779,41.3474177],[28.6846127,41.3475778],[28.6844808,41.3476964],[28.6844613,41.3478675],[28.6841351,41.3480786],[28.683857,41.3481559],[28.6835772,41.3481109],[28.6833501,41.3482928],[28.683106,41.3484116],[28.6828155,41.3483767],[28.6824489,41.3483109],[28.6824113,41.348166],[28.6821718,41.3481109],[28.6818159,41.3481881],[28.6816764,41.3482546],[28.6815906,41.3483796],[28.6814323,41.3483109],[28.6813626,41.3482244],[28.6812043,41.3481499],[28.6810452,41.3480545],[28.6806893,41.3481156],[28.6806196,41.3481901],[28.6803839,41.3480354],[28.6801663,41.3480492],[28.6799276,41.3480552],[28.679879,41.347892],[28.679706,41.347766],[28.679532,41.34764],[28.6793134,41.3476082],[28.6792839,41.3475418],[28.6793153,41.3474622],[28.6793268,41.347433],[28.6794144,41.3473699],[28.6794918,41.3471307],[28.6795601,41.3469196],[28.6797148,41.3468302],[28.6798176,41.3467665],[28.6799893,41.34669],[28.6800689,41.3465322],[28.6800241,41.3464081],[28.679832,41.346096],[28.6795601,41.3458101],[28.678996,41.3455898],[28.6790103,41.345506],[28.6791658,41.3454516],[28.679131,41.3450549],[28.6791605,41.3449502],[28.6791658,41.3448636],[28.67908,41.3447489],[28.6790237,41.3445918],[28.678939,41.34444],[28.678765,41.344314],[28.6785436,41.3442354],[28.6782217,41.3440763],[28.6781841,41.3440119],[28.6780733,41.3438339],[28.6778004,41.3436191],[28.677724,41.343559],[28.67755,41.343433],[28.6771318,41.3431993],[28.6767283,41.3430798],[28.6763554,41.3430254],[28.6758804,41.3429788],[28.6751072,41.3428953],[28.674413,41.3428459],[28.6736498,41.3428418],[28.6726373,41.3429083],[28.6717784,41.3430246],[28.6708606,41.3431706],[28.6698597,41.3433947],[28.6690568,41.3436251],[28.6682765,41.3438866],[28.6677077,41.3441099],[28.6669654,41.3443192],[28.6663038,41.344583],[28.6656163,41.3449055],[28.6647428,41.3451995],[28.6641014,41.3454178],[28.6631603,41.3457831],[28.6627722,41.345949],[28.6622937,41.3460867],[28.6615565,41.3461925],[28.660976,41.3463076],[28.660461,41.3464799],[28.6598989,41.3467831],[28.6595876,41.346951],[28.6593068,41.3471209],[28.6589224,41.3472491],[28.6583707,41.347578],[28.6578557,41.3478498],[28.6455028,41.349124],[28.6442542,41.349213],[28.6431277,41.3495634],[28.6415077,41.3497635],[28.6407069,41.3499272],[28.639453,41.3503164],[28.6389703,41.3505097],[28.6380297,41.3506419],[28.6363739,41.3510463],[28.6354352631438,41.35143144227374]]]}},{"type":"Feature","properties":{"uavt_kod":"40488","ad":"KARLIBAYIR","merkez_lon":28.7149951,"merkez_lat":41.1817543,"alan_km2":3.482,"geometri_kaynak":"yaklasik-voronoi","yaklasik":true},"geometry":{"type":"Polygon","coordinates":[[[28.70383821937308,41.19042411817737],[28.713175473496424,41.16865163064463],[28.72786218832223,41.16715124273736],[28.727733588164458,41.17484256828716],[28.724583726515476,41.18781207550654],[28.70383821937308,41.19042411817737]]]}},{"type":"Feature","properties":{"uavt_kod":"40493","ad":"MAREŞAL FEVZİ ÇAKMAK","merkez_lon":28.7210511,"merkez_lat":41.2032679,"alan_km2":1.604,"geometri_kaynak":"yaklasik-voronoi","yaklasik":true},"geometry":{"type":"Polygon","coordinates":[[[28.713717265979657,41.20273547236568],[28.727785749884852,41.194432920490975],[28.72885228197854,41.19539507632174],[28.72091942704699,41.22055088473299],[28.713717265979657,41.20273547236568]]]}},{"type":"Feature","properties":{"uavt_kod":"40485","ad":"MAVİGÖL","merkez_lon":28.764377,"merkez_lat":41.2042176,"alan_km2":11.35,"geometri_kaynak":"yaklasik-voronoi","yaklasik":true},"geometry":{"type":"Polygon","coordinates":[[[28.754429760235205,41.20845472928784],[28.760769452765356,41.19950098987587],[28.809336339274857,41.219345430189485],[28.8088621,41.2200181],[28.8067975,41.221032],[28.8062392,41.2212478],[28.8056279,41.2214069],[28.8012358,41.2216429],[28.8002473,41.2216245],[28.7999742,41.2216446],[28.7996914,41.2218317],[28.7993405,41.2220829],[28.7985705,41.2225339],[28.7979928,41.2226989],[28.7965333,41.2231037],[28.796421,41.2242918],[28.7962607,41.2248058],[28.79615,41.2252515],[28.7960393,41.2256313],[28.7960223,41.2258318],[28.7961344,41.2259986],[28.7963352,41.2261653],[28.7968103,41.2262935],[28.7972939,41.2265049],[28.7975801,41.226838],[28.7976933,41.2270366],[28.7977926,41.2273088],[28.7978166,41.2277459],[28.7977265,41.2281502],[28.7975784,41.2284292],[28.7974552,41.229087],[28.7971233,41.2296802],[28.7968492,41.2299768],[28.796521,41.2302734],[28.796186,41.2305173],[28.7958428,41.2307816],[28.7955927,41.2310817],[28.7950703,41.2311546],[28.7949,41.2314289],[28.7947978,41.2316873],[28.7946504,41.2319297],[28.7945798,41.2321114],[28.7945491,41.2325579],[28.794532,41.2332035],[28.7944461,41.2333416],[28.7943127,41.233482],[28.7941909,41.2336038],[28.7940606,41.2336871],[28.7938707,41.2337576],[28.7936459,41.2338328],[28.7935484,41.2339041],[28.7935081,41.2340454],[28.7934342,41.2341544],[28.7932269,41.2343049],[28.7929345,41.2344939],[28.7927994,41.2345485],[28.7925365,41.2345772],[28.7921879,41.2346108],[28.7919838,41.2346531],[28.7916349,41.2348108],[28.791372,41.2349516],[28.7911814,41.2350571],[28.7907037,41.2352511],[28.7905458,41.2353705],[28.7903561,41.2356255],[28.7901451,41.2358325],[28.7899153,41.2359621],[28.789476,41.2361691],[28.7893374,41.2362727],[28.7891583,41.236427],[28.7888983,41.2367278],[28.788779,41.2369346],[28.7886956,41.2371353],[28.7886541,41.2372351],[28.7885914,41.2374814],[28.7884881,41.2381016],[28.7884585,41.2384859],[28.7884406,41.2387175],[28.7884101,41.2392437],[28.7883075,41.2405438],[28.7872452,41.2423272],[28.7871071,41.2426491],[28.7870308,41.242827],[28.7867959,41.2431968],[28.7867897,41.2434056],[28.7868049,41.2437437],[28.7868203,41.2441403],[28.7869259,41.2450108],[28.7870438,41.2459413],[28.7873341,41.2468626],[28.7876244,41.2475805],[28.7873143,41.2479162],[28.786192,41.248723],[28.7840848,41.251047],[28.7829345,41.2528196],[28.78271930776039,41.25327258275256],[28.754429760235205,41.20845472928784]]]}},{"type":"Feature","properties":{"uavt_kod":"40491","ad":"MEHMET AKİF ERSOY","merkez_lon":28.708814,"merkez_lat":41.2082153,"alan_km2":2.622,"geometri_kaynak":"yaklasik-voronoi","yaklasik":true},"geometry":{"type":"Polygon","coordinates":[[[28.693375847982185,41.198089070305784],[28.695946708061925,41.19422951480454],[28.699635853324686,41.19348994832094],[28.713717265979657,41.20273547236568],[28.72091942704699,41.22055088473299],[28.721052584567847,41.222089781144916],[28.71389523116133,41.21807082772479],[28.693375847982185,41.198089070305784]]]}},{"type":"Feature","properties":{"uavt_kod":"99358","ad":"MUSTAFA KEMAL PAŞA","merkez_lon":28.7358834,"merkez_lat":41.1868267,"alan_km2":1.842,"geometri_kaynak":"yaklasik-voronoi","yaklasik":true},"geometry":{"type":"Polygon","coordinates":[[[28.724583726515476,41.18781207550654],[28.727733588164458,41.17484256828716],[28.73934092069656,41.18570120166647],[28.73577524926093,41.19722668632971],[28.72885228197854,41.19539507632174],[28.727785749884852,41.194432920490975],[28.724583726515476,41.18781207550654]]]}},{"type":"Feature","properties":{"uavt_kod":"99357","ad":"NENEHATUN","merkez_lon":28.740234,"merkez_lat":41.1821756,"alan_km2":3.069,"geometri_kaynak":"yaklasik-voronoi","yaklasik":true},"geometry":{"type":"Polygon","coordinates":[[[28.727733588164458,41.17484256828716],[28.72786218832223,41.16715124273736],[28.744422736543925,41.14984582926487],[28.741152834227872,41.1853264887854],[28.73934092069656,41.18570120166647],[28.727733588164458,41.17484256828716]]]}},{"type":"Feature","properties":{"uavt_kod":"40906","ad":"ÖMERLİ","merkez_lon":28.6380008,"merkez_lat":41.1161343,"alan_km2":9.727,"geometri_kaynak":"yaklasik-voronoi","yaklasik":true},"geometry":{"type":"Polygon","coordinates":[[[28.61789371909051,41.11189081045112],[28.6179739,41.1118262],[28.6179739,41.1115311],[28.6185265,41.1109451],[28.6186737,41.1106834],[28.6191326,41.1106662],[28.6193955,41.1104318],[28.6199376,41.1093362],[28.6201893,41.1089573],[28.6206452,41.108677],[28.6213589,41.1085564],[28.6216915,41.1082087],[28.6218953,41.1078288],[28.6217332,41.107594],[28.6214876,41.1074246],[28.6216599,41.1067305],[28.6221853,41.1056659],[28.6227643,41.1051772],[28.6227965,41.104773],[28.6233544,41.1040697],[28.623687,41.1033502],[28.6241565,41.1023992],[28.6241698,41.1014503],[28.6248092,41.1003152],[28.6252212,41.0996555],[28.626056,41.0990847],[28.6265838,41.0987095],[28.6272383,41.0981598],[28.6279973,41.0977835],[28.6286548,41.0965188],[28.6290622,41.0956291],[28.6310229,41.0931661],[28.6310605,41.0924963],[28.6311164,41.0920828],[28.6314225,41.0918167],[28.631959,41.0913922],[28.6321145,41.0910607],[28.6322594,41.0908504],[28.6324632,41.0906685],[28.6328441,41.0904097],[28.6334395,41.0901955],[28.6328204,41.0897319],[28.633146,41.0894528],[28.6340208,41.088634],[28.6345314,41.0901189],[28.6352745,41.0920296],[28.635948,41.094939],[28.6363357,41.0953395],[28.6372055,41.0957238],[28.6392409,41.0960262],[28.6385392,41.0981109],[28.6395951,41.0981109],[28.6412257,41.1007426],[28.6430789,41.1035755],[28.64334452501965,41.1033601394545],[28.65311624557727,41.138386597354405],[28.64695572329117,41.14393710378405],[28.628970581064088,41.135073786395964],[28.61789371909051,41.11189081045112]]]}},{"type":"Feature","properties":{"uavt_kod":"40907","ad":"SAZLIBOSNA","merkez_lon":28.673678,"merkez_lat":41.1557323,"alan_km2":16.938,"geometri_kaynak":"yaklasik-voronoi","yaklasik":true},"geometry":{"type":"Polygon","coordinates":[[[28.646877628623468,41.146098799266845],[28.64695572329117,41.14393710378405],[28.65311624557727,41.138386597354405],[28.685695211845655,41.1242751127003],[28.6857997,41.1243068],[28.6893294,41.1253774],[28.6916798,41.124209],[28.692761629735884,41.123671166776205],[28.693018643116726,41.1591298342825],[28.684856461815798,41.17050340451384],[28.649133262419465,41.17541892924881],[28.64842978918932,41.17487389056352],[28.646877628623468,41.146098799266845]]]}},{"type":"Feature","properties":{"uavt_kod":"40492","ad":"TAŞOLUK","merkez_lon":28.7167959,"merkez_lat":41.1960582,"alan_km2":2.247,"geometri_kaynak":"yaklasik-voronoi","yaklasik":true},"geometry":{"type":"Polygon","coordinates":[[[28.699635853324686,41.19348994832094],[28.70383821937308,41.19042411817737],[28.724583726515476,41.18781207550654],[28.727785749884852,41.194432920490975],[28.713717265979657,41.20273547236568],[28.699635853324686,41.19348994832094]]]}},{"type":"Feature","properties":{"uavt_kod":"191977","ad":"TAYAKADIN","merkez_lon":28.689606,"merkez_lat":41.269504,"alan_km2":23.247,"geometri_kaynak":"yaklasik-voronoi","yaklasik":true},"geometry":{"type":"Polygon","coordinates":[[[28.66691735948609,41.27874467892832],[28.678210770057298,41.23947879990695],[28.72719968305438,41.25227622353679],[28.742643567671802,41.268530530957186],[28.706062472230812,41.29388215472648],[28.66691735948609,41.27874467892832]]]}},{"type":"Feature","properties":{"uavt_kod":"40914","ad":"TERKOS","merkez_lon":28.6760707,"merkez_lat":41.303644,"alan_km2":12.616,"geometri_kaynak":"yaklasik-voronoi","yaklasik":true},"geometry":{"type":"Polygon","coordinates":[[[28.643675758050385,41.294050655172114],[28.64675718064446,41.29046544042243],[28.65006173079975,41.288733839021326],[28.698795950468444,41.31337962916827],[28.6960830499849,41.32236279393991],[28.64716037267961,41.32925345869567],[28.643675758050385,41.294050655172114]]]}},{"type":"Feature","properties":{"uavt_kod":"191989","ad":"YASSIÖREN","merkez_lon":28.595838,"merkez_lat":41.234817,"alan_km2":28.745,"geometri_kaynak":"yaklasik-voronoi","yaklasik":true},"geometry":{"type":"Polygon","coordinates":[[[28.5432851,41.2765083],[28.5434013,41.2760551],[28.5433627,41.2750057],[28.5440901,41.2732152],[28.5447671,41.2718726],[28.5447013,41.2709123],[28.5435787,41.2708851],[28.5439289,41.2703156],[28.5446584,41.2696624],[28.5450821,41.269369],[28.5455078,41.2670045],[28.5455596,41.2656545],[28.5455274,41.2651787],[28.5459987,41.2645565],[28.5476611,41.263197],[28.5479951,41.2623803],[28.5486996,41.2611738],[28.549246,41.2604594],[28.5511064,41.2602511],[28.5528363,41.2601924],[28.5535554,41.2606266],[28.5549366,41.2614609],[28.5557413,41.2616947],[28.556546,41.2616302],[28.557409,41.2614042],[28.5586155,41.2611926],[28.5593355,41.261477],[28.5598397,41.2618964],[28.5603654,41.2619044],[28.5609555,41.2615987],[28.5612666,41.2615093],[28.5620069,41.2617754],[28.5622948,41.2617812],[28.5625548,41.2616957],[28.5629694,41.2614649],[28.5633087,41.2612859],[28.5635287,41.2612538],[28.5637931,41.2612328],[28.5642833,41.2612009],[28.5649266,41.2609256],[28.5656547,41.2603318],[28.5659301,41.2601912],[28.5662936,41.2601291],[28.5671085,41.2601962],[28.5678112,41.2605657],[28.5681544,41.2606076],[28.568269,41.260585],[28.568448,41.26055],[28.568604,41.26047],[28.5692918,41.2601039],[28.5696016,41.2599759],[28.5697947,41.2599376],[28.5700455,41.2599083],[28.5704613,41.259864],[28.5707724,41.2598307],[28.5711721,41.2597743],[28.5715966,41.2597242],[28.5725667,41.2596183],[28.5728672,41.2595605],[28.5729557,41.2595323],[28.5731427,41.2594564],[28.5734305,41.259315],[28.573747,41.2591623],[28.5739844,41.2590438],[28.5741661,41.2589375],[28.5743163,41.2588357],[28.574492,41.2586557],[28.5746133,41.2584979],[28.5747139,41.2583099],[28.5747863,41.2581753],[28.5748447,41.2580438],[28.5749084,41.2578981],[28.5750277,41.2576632],[28.5748996,41.2570601],[28.5744846,41.2566056],[28.57427,41.256162],[28.5737979,41.2558877],[28.5739435,41.2554943],[28.574152,41.2550167],[28.5751037,41.2544781],[28.5754358,41.2542808],[28.5754502,41.2537664],[28.5746455,41.2537584],[28.5741413,41.2530566],[28.5747565,41.2518908],[28.5750502,41.2505444],[28.5744718,41.2490705],[28.5760832,41.2483943],[28.5766591,41.2481308],[28.576864,41.2472828],[28.5766625,41.2470795],[28.5765982,41.2467971],[28.5763729,41.2465471],[28.5759437,41.2461276],[28.5753965,41.2458049],[28.5751951,41.2451],[28.5751605,41.2444335],[28.5750425,41.2440745],[28.5750317,41.2437478],[28.5754287,41.2429895],[28.5753858,41.2424893],[28.5753322,41.2419488],[28.5758471,41.2414648],[28.5761868,41.2412321],[28.5769951,41.2403031],[28.5771379,41.238608],[28.5769244,41.2382199],[28.5770702,41.2376165],[28.5772351,41.2371544],[28.57692,41.2364467],[28.5764909,41.2360675],[28.5745249,41.2350922],[28.5740212,41.2345663],[28.5763621,41.2332032],[28.5771561,41.232824],[28.5777032,41.2319768],[28.5779714,41.2313221],[28.5787547,41.2307584],[28.5791087,41.2303469],[28.579098,41.2299032],[28.5792248,41.2293888],[28.5798665,41.2296152],[28.5806391,41.2299938],[28.581002,41.2302403],[28.5807678,41.2292895],[28.5807913,41.2290518],[28.5808147,41.2289109],[28.5808732,41.2287877],[28.5809785,41.2286468],[28.5811541,41.2284531],[28.5814,41.2281626],[28.5813766,41.228057],[28.581517,41.2273262],[28.5816224,41.2269829],[28.5818916,41.2264986],[28.5820672,41.2260936],[28.5821023,41.2257855],[28.5821609,41.2253717],[28.5822311,41.2250195],[28.5822077,41.224773],[28.5823482,41.2245705],[28.5824418,41.2242975],[28.5825472,41.224095],[28.5824652,41.2240246],[28.5824652,41.2239101],[28.582512,41.2237781],[28.5827462,41.223241],[28.582992,41.2225454],[28.5829686,41.2220611],[28.5829686,41.221841],[28.5830739,41.2216121],[28.582992,41.2210486],[28.5828047,41.219992],[28.5827227,41.2197102],[28.582512,41.218997],[28.5822545,41.2185215],[28.582196,41.2183366],[28.5821023,41.2177731],[28.582114,41.2175705],[28.5826057,41.2172712],[28.5824652,41.2167869],[28.5826408,41.2162057],[28.5828281,41.2155453],[28.5830856,41.2149817],[28.5832963,41.2147351],[28.5830505,41.2140395],[28.5824886,41.2140835],[28.5829335,41.2137048],[28.5835539,41.2126305],[28.5837529,41.2125424],[28.5848767,41.2106667],[28.5853098,41.2105258],[28.5857195,41.210156],[28.5857078,41.2087645],[28.586059,41.2083418],[28.5860824,41.2064043],[28.5857312,41.2050745],[28.5884587,41.2003096],[28.5896059,41.1988123],[28.5903902,41.1982134],[28.5912798,41.1970155],[28.5926963,41.1942761],[28.5938552,41.1924438],[28.594222617792745,41.19190884679099],[28.59533752819079,41.19228065415982],[28.626354321534745,41.23304157197392],[28.58965010839638,41.27594301629598],[28.55242630066848,41.28485385740345],[28.5527577,41.2836012],[28.5520844,41.2826905],[28.5517074,41.2809096],[28.5521922,41.2788656],[28.5517074,41.2781573],[28.5486105,41.2776716],[28.5475333,41.2772668],[28.5470494,41.2773604],[28.5464233,41.2772098],[28.5446262,41.2767018],[28.5432851,41.2765083]]]}},{"type":"Feature","properties":{"uavt_kod":"40480","ad":"YAVUZ SELİM","merkez_lon":28.7307262,"merkez_lat":41.2063186,"alan_km2":3.785,"geometri_kaynak":"yaklasik-voronoi","yaklasik":true},"geometry":{"type":"Polygon","coordinates":[[[28.72091942704699,41.22055088473299],[28.72885228197854,41.19539507632174],[28.73577524926093,41.19722668632971],[28.74274335179232,41.20148274489548],[28.743277657083915,41.202988974603564],[28.725718757320312,41.23246479902111],[28.721052584567847,41.222089781144916],[28.72091942704699,41.22055088473299]]]}},{"type":"Feature","properties":{"uavt_kod":"191979","ad":"YENİKÖY","merkez_lon":28.7231106,"merkez_lat":41.3178498,"alan_km2":36.869,"geometri_kaynak":"yaklasik-voronoi","yaklasik":true},"geometry":{"type":"Polygon","coordinates":[[[28.6960830499849,41.32236279393991],[28.698795950468444,41.31337962916827],[28.706062472230812,41.29388215472648],[28.742643567671802,41.268530530957186],[28.778081099137676,41.27657726791389],[28.7794993,41.2777058],[28.7812762,41.2796197],[28.7818092,41.28456],[28.7834676,41.2878089],[28.7829345,41.289411],[28.7841783,41.2937276],[28.7851259,41.2953296],[28.7847113,41.2980439],[28.7858367,41.3022265],[28.7865474,41.3040952],[28.7873766,41.305163],[28.7888602,41.3061113],[28.7889191,41.3062141],[28.7891471,41.3064337],[28.7895897,41.3068326],[28.7897345,41.30729],[28.7898124,41.3075297],[28.7900215,41.3081262],[28.7900688,41.3083486],[28.7902965,41.3113145],[28.7903287,41.311529],[28.7902962,41.311691],[28.7888977,41.3141079],[28.788844,41.3141924],[28.7887502,41.3142589],[28.7886214,41.3142871],[28.7885007,41.314277],[28.7884019,41.3142136],[28.7883425,41.3141239],[28.7883317,41.314001],[28.7884243,41.3138117],[28.7897995,41.311561],[28.7898284,41.3112953],[28.7896407,41.3083457],[28.7895548,41.3082107],[28.7892652,41.3080556],[28.7891552,41.3079388],[28.7887743,41.307331],[28.7885664,41.3071338],[28.7884538,41.3071046],[28.7884095,41.3070865],[28.7883465,41.3070845],[28.7882553,41.3070754],[28.788203,41.3071308],[28.7881306,41.3072849],[28.7880769,41.3073222],[28.7879777,41.3074592],[28.7877873,41.3073766],[28.7878865,41.3072436],[28.7878798,41.3071701],[28.7879026,41.3071147],[28.7879696,41.3069938],[28.7879831,41.3069323],[28.7879712,41.3068861],[28.7879321,41.3068659],[28.7877899,41.3068024],[28.7875244,41.3067601],[28.786879,41.3067155],[28.786363,41.306742],[28.7859714,41.3067923],[28.7853598,41.3069697],[28.784582,41.3072013],[28.7831283,41.3076889],[28.7807786,41.308648],[28.7804729,41.3089864],[28.780387,41.3091899],[28.7802824,41.3093249],[28.7802717,41.3094881],[28.7802882,41.3096675],[28.7803307,41.3099193],[28.7804233,41.3114585],[28.7811482,41.3122768],[28.7818569,41.3132415],[28.781932,41.3132495],[28.7830891,41.3129612],[28.7831739,41.313118],[28.7840935,41.3128984],[28.7842923,41.3128144],[28.7847257,41.3125547],[28.784751,41.3125132],[28.7847939,41.3124699],[28.7848932,41.3124235],[28.7850058,41.3124094],[28.785105,41.3124336],[28.7851801,41.312482],[28.7851989,41.3125626],[28.7851962,41.3126331],[28.7851614,41.3126975],[28.7845069,41.3130723],[28.7843076,41.313136],[28.7834554,41.313308],[28.7824148,41.3134974],[28.7815833,41.313721],[28.7812802,41.3138056],[28.7808618,41.3140131],[28.7801778,41.3143677],[28.7791398,41.3148733],[28.7787509,41.3150405],[28.7784156,41.3152722],[28.7781689,41.3153568],[28.777906,41.315381],[28.7776405,41.3154495],[28.7773696,41.3155663],[28.7771067,41.3157356],[28.7766507,41.3159813],[28.7762296,41.3161687],[28.7758487,41.3163863],[28.7754035,41.3165776],[28.7748992,41.3169221],[28.7744915,41.3172283],[28.7741616,41.3175245],[28.7739068,41.317742],[28.773365,41.3184028],[28.7730297,41.3188883],[28.7727025,41.3193133],[28.7721044,41.3200647],[28.7717181,41.3205482],[28.771297,41.3210739],[28.7710959,41.3212854],[28.7707445,41.3216037],[28.7705272,41.3217528],[28.7703583,41.3218757],[28.7702644,41.32192],[28.7701598,41.3220046],[28.7699854,41.3221416],[28.7696904,41.322337],[28.7693149,41.3225646],[28.769162,41.3226109],[28.7688643,41.322768],[28.7685049,41.3229433],[28.7680462,41.3231568],[28.7676626,41.3232353],[28.7674266,41.323322],[28.7669867,41.3234207],[28.7659863,41.3236201],[28.7655678,41.3237107],[28.7653398,41.3237329],[28.7652057,41.3237329],[28.7650824,41.323747],[28.7648678,41.3237571],[28.7647256,41.3237389],[28.7645808,41.3237007],[28.7644333,41.3236181],[28.7641141,41.3235617],[28.7638861,41.3235234],[28.7635931,41.323558],[28.7628964,41.3236402],[28.7622473,41.323747],[28.76122,41.3239887],[28.760182,41.3242687],[28.7596482,41.3244903],[28.7592486,41.3246816],[28.7589642,41.3248307],[28.7586853,41.325022],[28.7583688,41.3252879],[28.7575909,41.3257754],[28.7571135,41.326144],[28.7567568,41.3263615],[28.7563518,41.3265549],[28.755413,41.3269779],[28.7545037,41.3273827],[28.7533209,41.3277715],[28.7526289,41.3278923],[28.7519771,41.3279688],[28.7515023,41.3279709],[28.7509042,41.3279407],[28.7502819,41.3278822],[28.7495524,41.3277312],[28.7491125,41.3275801],[28.7487236,41.3274129],[28.7483051,41.3271974],[28.747648,41.3269295],[28.7471223,41.3267825],[28.7466609,41.326712],[28.7459046,41.3266737],[28.7447888,41.3266254],[28.744137,41.3265871],[28.7437695,41.3265408],[28.7435013,41.326424],[28.7431553,41.3262608],[28.7429166,41.326146],[28.7424955,41.3260251],[28.742128,41.3259788],[28.741782,41.3259788],[28.7414467,41.326003],[28.7402639,41.3262668],[28.739545,41.3264683],[28.738896,41.3266254],[28.7380564,41.3267966],[28.7371525,41.3270061],[28.7365946,41.3271632],[28.7361521,41.3272518],[28.7358946,41.3272921],[28.7355942,41.3273344],[28.7353045,41.3273485],[28.7350148,41.3273163],[28.7348002,41.3272901],[28.7345266,41.3272397],[28.7341028,41.3272276],[28.7337354,41.3271148],[28.7334725,41.326996],[28.733156,41.3269195],[28.7329468,41.3268429],[28.7327778,41.3267623],[28.7327081,41.3266697],[28.7326249,41.3264743],[28.7324318,41.3261681],[28.7315737,41.3259425],[28.7306459,41.3258496],[28.7295812,41.3259918],[28.7284648,41.3262527],[28.7277648,41.3263373],[28.7273463,41.32643],[28.7266087,41.326577],[28.7260052,41.3267543],[28.7255743,41.3269225],[28.7250852,41.3270921],[28.7242323,41.3273404],[28.7235022,41.32764],[28.7224379,41.3278943],[28.7220088,41.3279809],[28.7214026,41.328128],[28.720416,41.328425],[28.7203882,41.3284349],[28.7194856,41.3287548],[28.719234,41.328828],[28.7190036,41.328926],[28.7187076,41.3290428],[28.7183653,41.3291779],[28.7178475,41.329398],[28.7174946,41.3295238],[28.7171787,41.3296314],[28.7170333,41.3296809],[28.7163656,41.3298749],[28.7157834,41.3299709],[28.7153542,41.3300918],[28.7147601,41.3304349],[28.7141641,41.3307651],[28.713165,41.3311641],[28.7128028,41.3314449],[28.712667,41.331621],[28.7125433,41.3315731],[28.7123827,41.3315109],[28.7122198,41.3314889],[28.711702,41.3315647],[28.7112819,41.3316772],[28.7106819,41.3319081],[28.7104091,41.3320954],[28.7102495,41.3323008],[28.7100103,41.3322352],[28.7100019,41.3322329],[28.7098953,41.3322036],[28.709324,41.332268],[28.7089216,41.3323889],[28.708353,41.3327111],[28.7079611,41.3330667],[28.7079301,41.3331826],[28.7078106,41.3332459],[28.7074043,41.3333264],[28.7070023,41.3334208],[28.7064906,41.3336328],[28.7056176,41.3340043],[28.7052027,41.3342872],[28.7050504,41.3342864],[28.7047763,41.3342851],[28.704283162094796,41.33438344274686],[28.6960830499849,41.32236279393991]]]}},{"type":"Feature","properties":{"uavt_kod":"40908","ad":"YEŞİLBAYIR","merkez_lon":28.6085615,"merkez_lat":41.1302002,"alan_km2":13.61,"geometri_kaynak":"yaklasik-voronoi","yaklasik":true},"geometry":{"type":"Polygon","coordinates":[[[28.5623426,41.1176144],[28.5625182,41.1172087],[28.5624499,41.1155572],[28.5652945,41.1147557],[28.5662555,41.1147159],[28.5663628,41.1152979],[28.5667062,41.1159284],[28.5670495,41.1164942],[28.5673538,41.1169304],[28.5681867,41.1174075],[28.568367,41.1177635],[28.5686803,41.1179814],[28.5692918,41.1179733],[28.5701609,41.1178197],[28.5704613,41.1177955],[28.5704513,41.1181269],[28.57059,41.1184502],[28.5708816,41.1187483],[28.571459,41.118822],[28.5717916,41.1188786],[28.5722767,41.1192642],[28.5729289,41.1201071],[28.5737541,41.1212923],[28.57462,41.1223267],[28.5754931,41.1229682],[28.5767705,41.1239613],[28.5767698,41.1247705],[28.5773867,41.1255544],[28.5776071,41.1258155],[28.5778664,41.1263424],[28.5781753,41.1265201],[28.5785186,41.1265686],[28.5788459,41.1265929],[28.5791533,41.1268128],[28.5793984,41.1270414],[28.5798812,41.1274536],[28.5801933,41.1276729],[28.5804391,41.1277566],[28.5807127,41.1278415],[28.5810345,41.1280395],[28.5813028,41.1281688],[28.5817373,41.1281364],[28.5823147,41.1279101],[28.5825633,41.1279332],[28.5828155,41.1280516],[28.5830998,41.1282173],[28.5834163,41.128189],[28.5837489,41.1281445],[28.5839581,41.1281647],[28.5841244,41.1281769],[28.5843176,41.1281041],[28.5846487,41.1280755],[28.5850096,41.128096],[28.5851008,41.1280637],[28.5854012,41.1274778],[28.5857874,41.1272514],[28.5860932,41.127098],[28.586536,41.1269775],[28.5864029,41.1272787],[28.5862488,41.1274738],[28.5861146,41.1276556],[28.5862434,41.1280839],[28.586694,41.1282981],[28.5869944,41.1283425],[28.5875416,41.1282375],[28.5877883,41.1279869],[28.587993,41.1278459],[28.5883999,41.1277364],[28.5891616,41.1271626],[28.5898054,41.1261201],[28.590036,41.126467],[28.5903954,41.127696],[28.5906851,41.1283506],[28.5909908,41.1289276],[28.5916722,41.1296274],[28.5925536,41.1291167],[28.5929275,41.1290416],[28.5932547,41.1287183],[28.5932279,41.1284961],[28.5932708,41.1281647],[28.5936409,41.1277768],[28.5939542,41.1273443],[28.5939178,41.1262559],[28.5943106,41.1258592],[28.594548,41.1254254],[28.5951079,41.1243072],[28.5950196,41.1240027],[28.5948157,41.1238006],[28.5947031,41.1234935],[28.5946172,41.1230813],[28.5945636,41.122855],[28.5945475,41.1226287],[28.5946387,41.1225116],[28.5950464,41.1224186],[28.5956891,41.1223024],[28.5961496,41.1221498],[28.5965913,41.1219498],[28.5969776,41.121671],[28.5970753,41.121296],[28.5972412,41.1203289],[28.5974389,41.1202324],[28.5976911,41.1203294],[28.5985279,41.120394],[28.5994077,41.120495],[28.6000085,41.1206324],[28.6007488,41.1207456],[28.60062,41.1205395],[28.6002059,41.1201921],[28.6011243,41.1197434],[28.6017412,41.1195211],[28.6028409,41.1191089],[28.603404,41.1189771],[28.6029804,41.1184381],[28.6028355,41.1181026],[28.6027819,41.1176783],[28.6025834,41.1165952],[28.6024618,41.1160267],[28.6024761,41.1152413],[28.6026746,41.1145785],[28.6032401,41.1137461],[28.6038011,41.1126426],[28.6046935,41.112854],[28.6052817,41.1127558],[28.6062606,41.112499],[28.6071646,41.1121131],[28.6077601,41.1112118],[28.6078894,41.1114392],[28.607685,41.1122869],[28.6073969,41.1137489],[28.607803,41.1145502],[28.6082268,41.1152898],[28.6084896,41.1158829],[28.608892,41.1163729],[28.6091924,41.1166073],[28.6092138,41.1167771],[28.6096322,41.1171974],[28.6099219,41.117549],[28.6103795,41.1180693],[28.6108071,41.1185391],[28.6115259,41.1189634],[28.6121052,41.1191695],[28.6127436,41.1193918],[28.6134234,41.1185287],[28.6136877,41.1176743],[28.6139989,41.1170923],[28.6140311,41.1167367],[28.6143958,41.1164133],[28.6147714,41.1157344],[28.6157125,41.1139977],[28.6166114,41.1133135],[28.6171961,41.1128447],[28.6176145,41.1123758],[28.6177432,41.1120121],[28.61789371909051,41.11189081045112],[28.628970581064088,41.135073786395964],[28.582641382400592,41.1564764493343],[28.5822294,41.1554993],[28.5819267,41.1547754],[28.5816341,41.1543964],[28.5810371,41.153753],[28.581002,41.1532858],[28.5805103,41.1529421],[28.580323,41.1528099],[28.5802411,41.1525543],[28.5800187,41.1524397],[28.5798431,41.1523163],[28.5797728,41.1522017],[28.5799133,41.1519284],[28.5798782,41.1518139],[28.5795855,41.1516464],[28.5794685,41.1515054],[28.5781691,41.150333],[28.5784383,41.1502185],[28.5766473,41.1489051],[28.5760503,41.1480324],[28.5758864,41.1477415],[28.575664,41.1475564],[28.575547,41.1474947],[28.5751958,41.1475124],[28.5748797,41.1474771],[28.5743646,41.1469129],[28.5735452,41.1462606],[28.5731355,41.1459521],[28.572796,41.1457582],[28.5725502,41.1456348],[28.5722868,41.1454364],[28.5721698,41.1452205],[28.5721405,41.1450265],[28.5717601,41.1443918],[28.5711279,41.1436073],[28.5710518,41.143356],[28.5709933,41.1432591],[28.5708938,41.1431489],[28.5707299,41.1429637],[28.5703729,41.1428447],[28.5700978,41.142567],[28.5698286,41.1423951],[28.5697583,41.1423511],[28.5696881,41.1422409],[28.5696179,41.1421659],[28.5694774,41.1420161],[28.5686931,41.1411698],[28.5677859,41.1402],[28.5687458,41.1394639],[28.5684765,41.1393052],[28.5695652,41.13778],[28.5701505,41.1373128],[28.5705134,41.1369425],[28.5707709,41.1364929],[28.5710401,41.1358316],[28.5713094,41.1348442],[28.5714733,41.1348354],[28.5720351,41.1327282],[28.5727609,41.1316349],[28.5727024,41.1308061],[28.5728897,41.1297392],[28.5731121,41.1298274],[28.5739901,41.1290338],[28.5743998,41.1284519],[28.5743178,41.1278347],[28.5740603,41.127579],[28.5739666,41.1273056],[28.5730536,41.1270411],[28.5722341,41.1265473],[28.571602,41.1261681],[28.5708294,41.1252952],[28.5701505,41.1246338],[28.5698344,41.1244134],[28.5695886,41.1241665],[28.5695301,41.1238579],[28.5691321,41.1235581],[28.5686755,41.1233552],[28.5675283,41.1226851],[28.5663811,41.122059],[28.5660885,41.1217239],[28.565948,41.1214946],[28.5653978,41.1208949],[28.5653393,41.1206833],[28.5651052,41.1204099],[28.5648945,41.1202336],[28.5646955,41.1200395],[28.5645667,41.1199337],[28.5642975,41.1197574],[28.5640516,41.119678],[28.5637824,41.1194928],[28.5637239,41.1193958],[28.5634898,41.1190254],[28.5633493,41.1186109],[28.5630098,41.1183375],[28.5627757,41.11817],[28.5625533,41.1179936],[28.5623426,41.1176144]]]}},{"type":"Feature","properties":{"uavt_kod":"40484","ad":"YUNUS EMRE","merkez_lon":28.7605273,"merkez_lat":41.1851922,"alan_km2":2.879,"geometri_kaynak":"yaklasik-voronoi","yaklasik":true},"geometry":{"type":"Polygon","coordinates":[[[28.754991429317425,41.18425149171781],[28.755038368870302,41.161649076588944],[28.757401016115548,41.146522217034885],[28.768805002534457,41.18955472490248],[28.766036484836906,41.19081297385011],[28.754991429317425,41.18425149171781]]]}}]}