{"type":"FeatureCollection","features":[{"type":"Feature","geometry":{"type":"Point","coordinates":[28.740952,41.181904]},"properties":{"ad":"Dr. Cem Saim Tartar","tur":"Sağlık","mahalle":"ARNAVUTKÖY MERKEZ","kaynak":"İBB Açık Veri"}},{"type":"Feature","geometry":{"type":"Point","coordinates":[28.762385,41.190127]},"properties":{"ad":"Arnavutköy 6 No'lu Aile Sağlığı Merkezi","tur":"Sağlık","mahalle":"ATATÜRK","kaynak":"İBB Açık Veri"}},{"type":"Feature","geometry":{"type":"Point","coordinates":[28.677076,41.340033]},"properties":{"ad":"Arnavutköy Mustafa Yenigün Aile Sağlığı Merkezi","tur":"Sağlık","mahalle":"KARABURUN","kaynak":"İBB Açık Veri"}},{"type":"Feature","geometry":{"type":"Point","coordinates":[28.651368,41.113803]},"properties":{"ad":"Arnavutköy Deliklikaya Aile Sağlığı Merkezi","tur":"Sağlık","mahalle":"DELİKLİKAYA","kaynak":"İBB Açık Veri"}},{"type":"Feature","geometry":{"type":"Point","coordinates":[28.716593,41.203681]},"properties":{"ad":"Arnavutköy Taşoluk Aile Sağlığı Merkezi","tur":"Sağlık","mahalle":"MAREŞAL FEVZİ ÇAKMAK","kaynak":"İBB Açık Veri"}},{"type":"Feature","geometry":{"type":"Point","coordinates":[28.746715,41.216872]},"properties":{"ad":"Arnavutköy İmrahor Aile Sağlığı Merkezi","tur":"Sağlık","mahalle":"İMRAHOR","kaynak":"İBB Açık Veri"}},{"type":"Feature","geometry":{"type":"Point","coordinates":[28.731602,41.191849]},"properties":{"ad":"Arnavutköy 5 No'lu Aile Sağlığı Merkezi","tur":"Sağlık","mahalle":"MUSTAFA KEMAL PAŞA","kaynak":"İBB Açık Veri"}},{"type":"Feature","geometry":{"type":"Point","coordinates":[28.613034,41.184821]},"properties":{"ad":"Arnavutköy Vefa Aile Sağlığı Merkezi","tur":"Sağlık","mahalle":"HADIMKÖY","kaynak":"İBB Açık Veri"}},{"type":"Feature","geometry":{"type":"Point","coordinates":[28.705116,41.207747]},"properties":{"ad":"Arnavutköy Cavit Beşkardeş Aile Sağlığı Merkezi","tur":"Sağlık","mahalle":"MEHMET AKİF ERSOY","kaynak":"İBB Açık Veri"}},{"type":"Feature","geometry":{"type":"Point","coordinates":[28.746815,41.193265]},"properties":{"ad":"Arnavutköy 7 No'lu Aile Sağlığı Merkezi","tur":"Sağlık","mahalle":"İSLAMBEY","kaynak":"İBB Açık Veri"}},{"type":"Feature","geometry":{"type":"Point","coordinates":[28.744551,41.182028]},"properties":{"ad":"Avrupa Sağlık Grubu","tur":"Sağlık","mahalle":"ARNAVUTKÖY MERKEZ","kaynak":"İBB Açık Veri"}},{"type":"Feature","geometry":{"type":"Point","coordinates":[28.740872,41.181787]},"properties":{"ad":"Özel Sevgi Tıp Merkezi","tur":"Sağlık","mahalle":"ARNAVUTKÖY MERKEZ","kaynak":"İBB Açık Veri"}},{"type":"Feature","geometry":{"type":"Point","coordinates":[28.738007,41.184318]},"properties":{"ad":"Erbay Ağız ve Diş Sağlığı Polikliniği","tur":"Sağlık","mahalle":"ARNAVUTKÖY MERKEZ","kaynak":"İBB Açık Veri"}},{"type":"Feature","geometry":{"type":"Point","coordinates":[28.624478,41.15612]},"properties":{"ad":"Arnavutköy Hadımköy Aile Sağlığı Merkezi","tur":"Sağlık","mahalle":"HADIMKÖY","kaynak":"İBB Açık Veri"}},{"type":"Feature","geometry":{"type":"Point","coordinates":[28.736693,41.184417]},"properties":{"ad":"Fhm Ağız ve Diş Sağığı Merkezi","tur":"Sağlık","mahalle":"ARNAVUTKÖY MERKEZ","kaynak":"İBB Açık Veri"}},{"type":"Feature","geometry":{"type":"Point","coordinates":[28.746362,41.179009]},"properties":{"ad":"Özel Şafak Tıp Merkezi","tur":"Sağlık","mahalle":"ARNAVUTKÖY MERKEZ","kaynak":"İBB Açık Veri"}},{"type":"Feature","geometry":{"type":"Point","coordinates":[28.661077,41.273307]},"properties":{"ad":"Bahçe Veteriner Kliniği","tur":"Sağlık","mahalle":"BAKLALI","kaynak":"İBB Açık Veri"}},{"type":"Feature","geometry":{"type":"Point","coordinates":[28.637847,41.115776]},"properties":{"ad":"Arnavutköy Asiye Dökümcü Aile Sağlığı Merkezi","tur":"Sağlık","mahalle":"ÖMERLİ","kaynak":"İBB Açık Veri"}},{"type":"Feature","geometry":{"type":"Point","coordinates":[28.746269,41.178611]},"properties":{"ad":"Ergü Optik","tur":"Sağlık","mahalle":"ARNAVUTKÖY MERKEZ","kaynak":"İBB Açık Veri"}},{"type":"Feature","geometry":{"type":"Point","coordinates":[28.687943,41.265547]},"properties":{"ad":"Arnavutköy Tayakadın Aile Sağlığı Merkezi","tur":"Sağlık","mahalle":"TAYAKADIN","kaynak":"İBB Açık Veri"}},{"type":"Feature","geometry":{"type":"Point","coordinates":[28.742073,41.183035]},"properties":{"ad":"Özel Öz Arnavutköy Psikoteknik","tur":"Sağlık","mahalle":"ARNAVUTKÖY MERKEZ","kaynak":"İBB Açık Veri"}},{"type":"Feature","geometry":{"type":"Point","coordinates":[28.737124,41.184635]},"properties":{"ad":"Arnavutköy 2 No'lu Göçmen Sağlığı Merkezi","tur":"Sağlık","mahalle":"ARNAVUTKÖY MERKEZ","kaynak":"İBB Açık Veri"}},{"type":"Feature","geometry":{"type":"Point","coordinates":[28.739901,41.185885]},"properties":{"ad":"Özel Arnavutköy Estetik Ağız ve Diş Sağlığı Merkezi","tur":"Sağlık","mahalle":"İSLAMBEY","kaynak":"İBB Açık Veri"}},{"type":"Feature","geometry":{"type":"Point","coordinates":[28.744179,41.181655]},"properties":{"ad":"Özel Avrupa Hospital Hastanesi","tur":"Sağlık","mahalle":"ARNAVUTKÖY MERKEZ","kaynak":"İBB Açık Veri"}},{"type":"Feature","geometry":{"type":"Point","coordinates":[28.745399,41.215077]},"properties":{"ad":"İmrahor Aile Sağlığı Merkezi","tur":"Sağlık","mahalle":"İMRAHOR","kaynak":"İBB Açık Veri"}},{"type":"Feature","geometry":{"type":"Point","coordinates":[28.741564,41.183089]},"properties":{"ad":"Nur Optik","tur":"Sağlık","mahalle":"ARNAVUTKÖY MERKEZ","kaynak":"İBB Açık Veri"}},{"type":"Feature","geometry":{"type":"Point","coordinates":[28.740489,41.183364]},"properties":{"ad":"Veteriner","tur":"Sağlık","mahalle":"ARNAVUTKÖY MERKEZ","kaynak":"İBB Açık Veri"}},{"type":"Feature","geometry":{"type":"Point","coordinates":[28.727044,41.200962]},"properties":{"ad":"Veteriner","tur":"Sağlık","mahalle":"NENEHATUN","kaynak":"İBB Açık Veri"}},{"type":"Feature","geometry":{"type":"Point","coordinates":[28.760741,41.185116]},"properties":{"ad":"Arnavutköy Boğazköy Aile Sağlığı Merkezi","tur":"Sağlık","mahalle":"YUNUS EMRE","kaynak":"İBB Açık Veri"}},{"type":"Feature","geometry":{"type":"Point","coordinates":[28.76042,41.184919]},"properties":{"ad":"Özel Şifa Sağlık Kabini","tur":"Sağlık","mahalle":"YUNUS EMRE","kaynak":"İBB Açık Veri"}},{"type":"Feature","geometry":{"type":"Point","coordinates":[28.744327,41.186662]},"properties":{"ad":"Arnavutköy Anadolu Aile Sağlığı Merkezi","tur":"Sağlık","mahalle":"ANADOLU","kaynak":"İBB Açık Veri"}},{"type":"Feature","geometry":{"type":"Point","coordinates":[28.742773,41.184407]},"properties":{"ad":"Diş Hekimi Şefik Akbal","tur":"Sağlık","mahalle":"ANADOLU","kaynak":"İBB Açık Veri"}},{"type":"Feature","geometry":{"type":"Point","coordinates":[28.744497,41.18206]},"properties":{"ad":"Avrupa Diyaliz Merkezi","tur":"Sağlık","mahalle":"ARNAVUTKÖY MERKEZ","kaynak":"İBB Açık Veri"}},{"type":"Feature","geometry":{"type":"Point","coordinates":[28.768674,41.201586]},"properties":{"ad":"Bolluca Veteriner Kliniği","tur":"Sağlık","mahalle":"BOLLUCA","kaynak":"İBB Açık Veri"}},{"type":"Feature","geometry":{"type":"Point","coordinates":[28.746283,41.179066]},"properties":{"ad":"Adl Optik","tur":"Sağlık","mahalle":"ARNAVUTKÖY MERKEZ","kaynak":"İBB Açık Veri"}},{"type":"Feature","geometry":{"type":"Point","coordinates":[28.747314,41.177743]},"properties":{"ad":"T.C. Sağlık Bakanlığı Arnavutköy Devlet Hastanesi","tur":"Sağlık","mahalle":"ARNAVUTKÖY MERKEZ","kaynak":"İBB Açık Veri"}},{"type":"Feature","geometry":{"type":"Point","coordinates":[28.740273,41.185233]},"properties":{"ad":"Lotus Psikolojik Danışmanlık","tur":"Sağlık","mahalle":"ARNAVUTKÖY MERKEZ","kaynak":"İBB Açık Veri"}},{"type":"Feature","geometry":{"type":"Point","coordinates":[28.746632,41.178672]},"properties":{"ad":"Arnavutköy İşitme Cihazları","tur":"Sağlık","mahalle":"ARNAVUTKÖY MERKEZ","kaynak":"İBB Açık Veri"}},{"type":"Feature","geometry":{"type":"Point","coordinates":[28.746526,41.178823]},"properties":{"ad":"Reyhani Optik","tur":"Sağlık","mahalle":"ARNAVUTKÖY MERKEZ","kaynak":"İBB Açık Veri"}},{"type":"Feature","geometry":{"type":"Point","coordinates":[28.743928,41.181818]},"properties":{"ad":"Gazi Optik","tur":"Sağlık","mahalle":"ARNAVUTKÖY MERKEZ","kaynak":"İBB Açık Veri"}},{"type":"Feature","geometry":{"type":"Point","coordinates":[28.744039,41.181755]},"properties":{"ad":"Armada Optik","tur":"Sağlık","mahalle":"ARNAVUTKÖY MERKEZ","kaynak":"İBB Açık Veri"}},{"type":"Feature","geometry":{"type":"Point","coordinates":[28.709819,41.178828]},"properties":{"ad":"Arnavutköy Haraçcı Aile Sağlığı Merkezi","tur":"Sağlık","mahalle":"HARAÇÇI","kaynak":"İBB Açık Veri"}},{"type":"Feature","geometry":{"type":"Point","coordinates":[28.736676,41.185288]},"properties":{"ad":"Veteriner","tur":"Sağlık","mahalle":"ARNAVUTKÖY MERKEZ","kaynak":"İBB Açık Veri"}},{"type":"Feature","geometry":{"type":"Point","coordinates":[28.719361,41.183379]},"properties":{"ad":"Göraldent Ağız ve Diş Sağlığı Polikliniği","tur":"Sağlık","mahalle":"KARLIBAYIR","kaynak":"İBB Açık Veri"}},{"type":"Feature","geometry":{"type":"Point","coordinates":[28.73639,41.183963]},"properties":{"ad":"Özel Arnavutköy Veteriner Kliniği","tur":"Sağlık","mahalle":"ARNAVUTKÖY MERKEZ","kaynak":"İBB Açık Veri"}},{"type":"Feature","geometry":{"type":"Point","coordinates":[28.745849,41.179626]},"properties":{"ad":"Diş Hekimi Mehmet Yavuz Arpacı","tur":"Sağlık","mahalle":"ARNAVUTKÖY MERKEZ","kaynak":"İBB Açık Veri"}},{"type":"Feature","geometry":{"type":"Point","coordinates":[28.737329,41.185346]},"properties":{"ad":"Arnavutköy Merkez Aile Sağlığı Merkezi","tur":"Sağlık","mahalle":"ARNAVUTKÖY MERKEZ","kaynak":"İBB Açık Veri"}},{"type":"Feature","geometry":{"type":"Point","coordinates":[28.736903,41.181604]},"properties":{"ad":"Arnavutköy 8 No'lu Aile Sağlığı Merkezi","tur":"Sağlık","mahalle":"ARNAVUTKÖY MERKEZ","kaynak":"İBB Açık Veri"}},{"type":"Feature","geometry":{"type":"Point","coordinates":[28.65478,41.111872]},"properties":{"ad":"Deliklikaya Aile Sağlığı Merkezi","tur":"Sağlık","mahalle":"DELİKLİKAYA","kaynak":"İBB Açık Veri"}},{"type":"Feature","geometry":{"type":"Point","coordinates":[28.624874,41.156383]},"properties":{"ad":"Arnavutköy Verem Savaş Dispanseri","tur":"Sağlık","mahalle":"HADIMKÖY","kaynak":"İBB Açık Veri"}},{"type":"Feature","geometry":{"type":"Point","coordinates":[28.743872,41.201345]},"properties":{"ad":"Arnavutköy Kaşgarlı Mahmut Aile Sağlığı Merkezi","tur":"Sağlık","mahalle":"İSLAMBEY","kaynak":"İBB Açık Veri"}},{"type":"Feature","geometry":{"type":"Point","coordinates":[28.746476,41.178749]},"properties":{"ad":"Cildiye Uzmanı Murat Feritoğlu","tur":"Sağlık","mahalle":"ARNAVUTKÖY MERKEZ","kaynak":"İBB Açık Veri"}},{"type":"Feature","geometry":{"type":"Point","coordinates":[28.735771,41.183577]},"properties":{"ad":"Atasun Optik","tur":"Sağlık","mahalle":"ARNAVUTKÖY MERKEZ","kaynak":"İBB Açık Veri"}},{"type":"Feature","geometry":{"type":"Point","coordinates":[28.742334,41.182955]},"properties":{"ad":"Estetik İncim Ağız ve Diş Polikliniği","tur":"Sağlık","mahalle":"ARNAVUTKÖY MERKEZ","kaynak":"İBB Açık Veri"}},{"type":"Feature","geometry":{"type":"Point","coordinates":[28.741539,41.182956]},"properties":{"ad":"Çelik Ağız ve Diş Sağlığı Polikliniği","tur":"Sağlık","mahalle":"ARNAVUTKÖY MERKEZ","kaynak":"İBB Açık Veri"}},{"type":"Feature","geometry":{"type":"Point","coordinates":[28.741539,41.182987]},"properties":{"ad":"Diş Hekimi Rahime Yıldızbaş","tur":"Sağlık","mahalle":"ARNAVUTKÖY MERKEZ","kaynak":"İBB Açık Veri"}},{"type":"Feature","geometry":{"type":"Point","coordinates":[28.742384,41.183143]},"properties":{"ad":"İnci Estetik Diş","tur":"Sağlık","mahalle":"ARNAVUTKÖY MERKEZ","kaynak":"İBB Açık Veri"}},{"type":"Feature","geometry":{"type":"Point","coordinates":[28.740622,41.184038]},"properties":{"ad":"Sürücü Psikoteknik","tur":"Sağlık","mahalle":"ARNAVUTKÖY MERKEZ","kaynak":"İBB Açık Veri"}},{"type":"Feature","geometry":{"type":"Point","coordinates":[28.746469,41.17863]},"properties":{"ad":"Göraldent","tur":"Sağlık","mahalle":"ARNAVUTKÖY MERKEZ","kaynak":"İBB Açık Veri"}},{"type":"Feature","geometry":{"type":"Point","coordinates":[28.746468,41.178661]},"properties":{"ad":"Galeri Optik","tur":"Sağlık","mahalle":"ARNAVUTKÖY MERKEZ","kaynak":"İBB Açık Veri"}},{"type":"Feature","geometry":{"type":"Point","coordinates":[28.624845,41.156363]},"properties":{"ad":"Arnavutköy Devlet Hastanesi Hadımköy Semt Polikliniği","tur":"Sağlık","mahalle":"HADIMKÖY","kaynak":"İBB Açık Veri"}},{"type":"Feature","geometry":{"type":"Point","coordinates":[28.624821,41.156339]},"properties":{"ad":"Arnavutköy 1 Nolu Göçmen Sağlığı Merkezi","tur":"Sağlık","mahalle":"HADIMKÖY","kaynak":"İBB Açık Veri"}},{"type":"Feature","geometry":{"type":"Point","coordinates":[28.738902,41.186222]},"properties":{"ad":"Diş Hekimi Şükür Aydın","tur":"Sağlık","mahalle":"ARNAVUTKÖY MERKEZ","kaynak":"İBB Açık Veri"}},{"type":"Feature","geometry":{"type":"Point","coordinates":[28.727791,41.187523]},"properties":{"ad":"Denge Ecza Deposu","tur":"Sağlık","mahalle":"MUSTAFA KEMAL PAŞA","kaynak":"İBB Açık Veri"}},{"type":"Feature","geometry":{"type":"Point","coordinates":[28.722998,41.198633]},"properties":{"ad":"Özel Akkonak Rehabilitasyon Bakım Ve Sağlık Hizmetleri  Limited","tur":"Sağlık","mahalle":"MAREŞAL FEVZİ ÇAKMAK","kaynak":"İBB Açık Veri"}},{"type":"Feature","geometry":{"type":"Point","coordinates":[28.664195,41.114655]},"properties":{"ad":"Ted Ilaç Kozmetik","tur":"Sağlık","mahalle":"DELİKLİKAYA","kaynak":"İBB Açık Veri"}},{"type":"Feature","geometry":{"type":"Point","coordinates":[28.619188,41.160728]},"properties":{"ad":"Göral Ağız Ve Diş Sağlığı Polikliniği","tur":"Sağlık","mahalle":"HADIMKÖY","kaynak":"İBB Açık Veri"}},{"type":"Feature","geometry":{"type":"Point","coordinates":[28.740662,41.187212]},"properties":{"ad":"Lalegül Eğitim Ve Sağlik Hiz.","tur":"Sağlık","mahalle":"İSLAMBEY","kaynak":"İBB Açık Veri"}},{"type":"Feature","geometry":{"type":"Point","coordinates":[28.706077,41.179491]},"properties":{"ad":"Bioaktif Tibbi Ürünler","tur":"Sağlık","mahalle":"HARAÇÇI","kaynak":"İBB Açık Veri"}},{"type":"Feature","geometry":{"type":"Point","coordinates":[28.744859,41.181796]},"properties":{"ad":"Güden Sağlik Hizmetleri","tur":"Sağlık","mahalle":"ARNAVUTKÖY MERKEZ","kaynak":"İBB Açık Veri"}},{"type":"Feature","geometry":{"type":"Point","coordinates":[28.741003,41.181771]},"properties":{"ad":"Özel Dilek Cemre Sevgi Tip Mer Sağlik Ve Güz.Hiz.","tur":"Sağlık","mahalle":"ARNAVUTKÖY MERKEZ","kaynak":"İBB Açık Veri"}},{"type":"Feature","geometry":{"type":"Point","coordinates":[28.704063,41.174271]},"properties":{"ad":"Özel Akkonak Rehabilitasyon","tur":"Sağlık","mahalle":"HARAÇÇI","kaynak":"İBB Açık Veri"}},{"type":"Feature","geometry":{"type":"Point","coordinates":[28.744155,41.181818]},"properties":{"ad":"Gözden Göz Sağliği Ve Hizmetleri","tur":"Sağlık","mahalle":"ARNAVUTKÖY MERKEZ","kaynak":"İBB Açık Veri"}},{"type":"Feature","geometry":{"type":"Point","coordinates":[28.73822,41.184768]},"properties":{"ad":"Beyza Onarer Eczanesi","tur":"Sağlık","mahalle":"ARNAVUTKÖY MERKEZ","kaynak":"İBB Açık Veri"}},{"type":"Feature","geometry":{"type":"Point","coordinates":[28.745793,41.215028]},"properties":{"ad":"İrem Eczanesi","tur":"Sağlık","mahalle":"İMRAHOR","kaynak":"İBB Açık Veri"}},{"type":"Feature","geometry":{"type":"Point","coordinates":[28.742828,41.201488]},"properties":{"ad":"Suatlar Eczanesi","tur":"Sağlık","mahalle":"YAVUZ SELİM","kaynak":"İBB Açık Veri"}},{"type":"Feature","geometry":{"type":"Point","coordinates":[28.742101,41.184009]},"properties":{"ad":"Ömür Eczanesi","tur":"Sağlık","mahalle":"ARNAVUTKÖY MERKEZ","kaynak":"İBB Açık Veri"}},{"type":"Feature","geometry":{"type":"Point","coordinates":[28.73177,41.193101]},"properties":{"ad":"Çiçek Eczanesi","tur":"Sağlık","mahalle":"MUSTAFA KEMAL PAŞA","kaynak":"İBB Açık Veri"}},{"type":"Feature","geometry":{"type":"Point","coordinates":[28.742088,41.184415]},"properties":{"ad":"Şifa Eczanesi","tur":"Sağlık","mahalle":"ANADOLU","kaynak":"İBB Açık Veri"}},{"type":"Feature","geometry":{"type":"Point","coordinates":[28.621678,41.155902]},"properties":{"ad":"Hadımköy Eczanesi","tur":"Sağlık","mahalle":"HASTANE","kaynak":"İBB Açık Veri"}},{"type":"Feature","geometry":{"type":"Point","coordinates":[28.762537,41.189417]},"properties":{"ad":"Nar Eczanesi","tur":"Sağlık","mahalle":"ATATÜRK","kaynak":"İBB Açık Veri"}},{"type":"Feature","geometry":{"type":"Point","coordinates":[28.713148,41.185372]},"properties":{"ad":"Ramazanoğlu Eczanesi","tur":"Sağlık","mahalle":"KARLIBAYIR","kaynak":"İBB Açık Veri"}},{"type":"Feature","geometry":{"type":"Point","coordinates":[28.67558,41.302514]},"properties":{"ad":"Terkos Eczanesi","tur":"Sağlık","mahalle":"TERKOS","kaynak":"İBB Açık Veri"}},{"type":"Feature","geometry":{"type":"Point","coordinates":[28.75924,41.184259]},"properties":{"ad":"Boğazköy Şifa Eczanesi","tur":"Sağlık","mahalle":"YUNUS EMRE","kaynak":"İBB Açık Veri"}},{"type":"Feature","geometry":{"type":"Point","coordinates":[28.619373,41.156082]},"properties":{"ad":"Sevdenur Eczanesi","tur":"Sağlık","mahalle":"HASTANE","kaynak":"İBB Açık Veri"}},{"type":"Feature","geometry":{"type":"Point","coordinates":[28.737745,41.184968]},"properties":{"ad":"Canan Arnavutköy Eczanesi","tur":"Sağlık","mahalle":"ARNAVUTKÖY MERKEZ","kaynak":"İBB Açık Veri"}},{"type":"Feature","geometry":{"type":"Point","coordinates":[28.70956,41.179206]},"properties":{"ad":"Doğanay Eczanesi","tur":"Sağlık","mahalle":"HARAÇÇI","kaynak":"İBB Açık Veri"}},{"type":"Feature","geometry":{"type":"Point","coordinates":[28.746835,41.193468]},"properties":{"ad":"Olgaç Eczanesi","tur":"Sağlık","mahalle":"İSLAMBEY","kaynak":"İBB Açık Veri"}},{"type":"Feature","geometry":{"type":"Point","coordinates":[28.717864,41.184666]},"properties":{"ad":"And Eczanesi","tur":"Sağlık","mahalle":"KARLIBAYIR","kaynak":"İBB Açık Veri"}},{"type":"Feature","geometry":{"type":"Point","coordinates":[28.744392,41.186564]},"properties":{"ad":"Ayışığı Eczanesi","tur":"Sağlık","mahalle":"ANADOLU","kaynak":"İBB Açık Veri"}},{"type":"Feature","geometry":{"type":"Point","coordinates":[28.746381,41.178903]},"properties":{"ad":"Deva Eczanesi","tur":"Sağlık","mahalle":"ARNAVUTKÖY MERKEZ","kaynak":"İBB Açık Veri"}},{"type":"Feature","geometry":{"type":"Point","coordinates":[28.727647,41.198957]},"properties":{"ad":"Çağla Eczanesi","tur":"Sağlık","mahalle":"NENEHATUN","kaynak":"İBB Açık Veri"}},{"type":"Feature","geometry":{"type":"Point","coordinates":[28.707608,41.207905]},"properties":{"ad":"Taşoluk Filiz Eczanesi","tur":"Sağlık","mahalle":"MEHMET AKİF ERSOY","kaynak":"İBB Açık Veri"}},{"type":"Feature","geometry":{"type":"Point","coordinates":[28.742137,41.183037]},"properties":{"ad":"Merve Nur Eczanesi","tur":"Sağlık","mahalle":"ARNAVUTKÖY MERKEZ","kaynak":"İBB Açık Veri"}},{"type":"Feature","geometry":{"type":"Point","coordinates":[28.752063,41.188263]},"properties":{"ad":"Miyase Eczanesi","tur":"Sağlık","mahalle":"ANADOLU","kaynak":"İBB Açık Veri"}},{"type":"Feature","geometry":{"type":"Point","coordinates":[28.763824,41.20005]},"properties":{"ad":"Kübra Eczanesi","tur":"Sağlık","mahalle":"MAVİGÖL","kaynak":"İBB Açık Veri"}},{"type":"Feature","geometry":{"type":"Point","coordinates":[28.624206,41.156556]},"properties":{"ad":"Duygu Eczanesi","tur":"Sağlık","mahalle":"HADIMKÖY","kaynak":"İBB Açık Veri"}},{"type":"Feature","geometry":{"type":"Point","coordinates":[28.702634,41.176118]},"properties":{"ad":"Yayla Eczanesi","tur":"Sağlık","mahalle":"HARAÇÇI","kaynak":"İBB Açık Veri"}},{"type":"Feature","geometry":{"type":"Point","coordinates":[28.743415,41.201249]},"properties":{"ad":"Kaya Eczanesi","tur":"Sağlık","mahalle":"İSLAMBEY","kaynak":"İBB Açık Veri"}},{"type":"Feature","geometry":{"type":"Point","coordinates":[28.765196,41.201386]},"properties":{"ad":"Mavigöl Büşra Eczanesi","tur":"Sağlık","mahalle":"MAVİGÖL","kaynak":"İBB Açık Veri"}},{"type":"Feature","geometry":{"type":"Point","coordinates":[28.624772,41.156048]},"properties":{"ad":"Can Eczanesi","tur":"Sağlık","mahalle":"HADIMKÖY","kaynak":"İBB Açık Veri"}},{"type":"Feature","geometry":{"type":"Point","coordinates":[28.737192,41.18139]},"properties":{"ad":"Sedef Eczanesi","tur":"Sağlık","mahalle":"ARNAVUTKÖY MERKEZ","kaynak":"İBB Açık Veri"}},{"type":"Feature","geometry":{"type":"Point","coordinates":[28.744166,41.181769]},"properties":{"ad":"Özel Avrupa Hospital Hastanesi","tur":"Sağlık","mahalle":"ARNAVUTKÖY MERKEZ","kaynak":"İBB Açık Veri"}},{"type":"Feature","geometry":{"type":"Point","coordinates":[28.759663,41.184619]},"properties":{"ad":"Sevgi Eczanesi","tur":"Sağlık","mahalle":"YUNUS EMRE","kaynak":"İBB Açık Veri"}},{"type":"Feature","geometry":{"type":"Point","coordinates":[28.753374,41.185901]},"properties":{"ad":"Çam Eczanesi","tur":"Sağlık","mahalle":"ANADOLU","kaynak":"İBB Açık Veri"}},{"type":"Feature","geometry":{"type":"Point","coordinates":[28.760507,41.185019]},"properties":{"ad":"Yeni Hayat Eczanesi","tur":"Sağlık","mahalle":"YUNUS EMRE","kaynak":"İBB Açık Veri"}},{"type":"Feature","geometry":{"type":"Point","coordinates":[28.742415,41.26105]},"properties":{"ad":"Wellness Port Eczanesi","tur":"Sağlık","mahalle":"İMRAHOR","kaynak":"İBB Açık Veri"}},{"type":"Feature","geometry":{"type":"Point","coordinates":[28.71689,41.204377]},"properties":{"ad":"Aydoğan Eczanesi","tur":"Sağlık","mahalle":"MAREŞAL FEVZİ ÇAKMAK","kaynak":"İBB Açık Veri"}},{"type":"Feature","geometry":{"type":"Point","coordinates":[28.627289,41.157689]},"properties":{"ad":"Özel Lilyum Tıp Merkezi","tur":"Sağlık","mahalle":"HADIMKÖY","kaynak":"İBB Açık Veri"}},{"type":"Feature","geometry":{"type":"Point","coordinates":[28.768651,41.184254]},"properties":{"ad":"İBB Psikolojik Danışmanlık Merkezi","tur":"Sağlık","mahalle":"BOĞAZKÖY İSTİKLAL","kaynak":"İBB Açık Veri"}},{"type":"Feature","geometry":{"type":"Point","coordinates":[28.619703,41.155117]},"properties":{"ad":"T. C Sağlık Bakanlığı Dr. İsmail Niyazi Kurtulmuş Hastanesi (yedikule Ek Hizmet Binası)","tur":"Sağlık","mahalle":"HASTANE","kaynak":"İBB Açık Veri"}},{"type":"Feature","geometry":{"type":"Point","coordinates":[28.619574,41.155312]},"properties":{"ad":"Hadımköy Dr. İsmail Niyazi Kurtulmuş Hastanesi","tur":"Sağlık","mahalle":"HASTANE","kaynak":"İBB Açık Veri"}},{"type":"Feature","geometry":{"type":"Point","coordinates":[28.737146,41.185364]},"properties":{"ad":"Aslı Arnavutköy Eczanesi","tur":"Sağlık","mahalle":"ARNAVUTKÖY MERKEZ","kaynak":"İBB Açık Veri"}},{"type":"Feature","geometry":{"type":"Point","coordinates":[28.73954,41.182691]},"properties":{"ad":"Meydan Eczanesi","tur":"Sağlık","mahalle":"ARNAVUTKÖY MERKEZ","kaynak":"İBB Açık Veri"}},{"type":"Feature","geometry":{"type":"Point","coordinates":[28.744266,41.184571]},"properties":{"ad":"Ela Eczanesi","tur":"Sağlık","mahalle":"ANADOLU","kaynak":"İBB Açık Veri"}},{"type":"Feature","geometry":{"type":"Point","coordinates":[28.612351,41.184034]},"properties":{"ad":"Eczane Vefa","tur":"Sağlık","mahalle":"HADIMKÖY","kaynak":"İBB Açık Veri"}},{"type":"Feature","geometry":{"type":"Point","coordinates":[28.763175,41.185711]},"properties":{"ad":"Genç Eczanesi","tur":"Sağlık","mahalle":"YUNUS EMRE","kaynak":"İBB Açık Veri"}},{"type":"Feature","geometry":{"type":"Point","coordinates":[28.739639,41.184585]},"properties":{"ad":"Ezgi Eczanesi","tur":"Sağlık","mahalle":"ARNAVUTKÖY MERKEZ","kaynak":"İBB Açık Veri"}},{"type":"Feature","geometry":{"type":"Point","coordinates":[28.728222,41.196962]},"properties":{"ad":"Seren Eczanesi","tur":"Sağlık","mahalle":"NENEHATUN","kaynak":"İBB Açık Veri"}},{"type":"Feature","geometry":{"type":"Point","coordinates":[28.744128,41.181747]},"properties":{"ad":"Ecem Eczanesi","tur":"Sağlık","mahalle":"ARNAVUTKÖY MERKEZ","kaynak":"İBB Açık Veri"}},{"type":"Feature","geometry":{"type":"Point","coordinates":[28.729228,41.186459]},"properties":{"ad":"Buse Eczanesi","tur":"Sağlık","mahalle":"MUSTAFA KEMAL PAŞA","kaynak":"İBB Açık Veri"}},{"type":"Feature","geometry":{"type":"Point","coordinates":[28.743013,41.184233]},"properties":{"ad":"Güneş Eczanesi","tur":"Sağlık","mahalle":"ARNAVUTKÖY MERKEZ","kaynak":"İBB Açık Veri"}},{"type":"Feature","geometry":{"type":"Point","coordinates":[28.716132,41.204253]},"properties":{"ad":"Taşoluk Şifa Eczanesi","tur":"Sağlık","mahalle":"MEHMET AKİF ERSOY","kaynak":"İBB Açık Veri"}},{"type":"Feature","geometry":{"type":"Point","coordinates":[28.725015,41.185569]},"properties":{"ad":"Sırma Eczanesi","tur":"Sağlık","mahalle":"MUSTAFA KEMAL PAŞA","kaynak":"İBB Açık Veri"}},{"type":"Feature","geometry":{"type":"Point","coordinates":[28.750051,41.185888]},"properties":{"ad":"Kelebek Eczanesi","tur":"Sağlık","mahalle":"ANADOLU","kaynak":"İBB Açık Veri"}},{"type":"Feature","geometry":{"type":"Point","coordinates":[28.716984,41.18261]},"properties":{"ad":"Arnavutköy Eczanesi","tur":"Sağlık","mahalle":"KARLIBAYIR","kaynak":"İBB Açık Veri"}},{"type":"Feature","geometry":{"type":"Point","coordinates":[28.743976,41.257507]},"properties":{"ad":"Melike Sultan Eczanesi","tur":"Sağlık","mahalle":"İMRAHOR","kaynak":"İBB Açık Veri"}},{"type":"Feature","geometry":{"type":"Point","coordinates":[28.734669,41.182618]},"properties":{"ad":"Eczane Avlu 34","tur":"Sağlık","mahalle":"ARNAVUTKÖY MERKEZ","kaynak":"İBB Açık Veri"}},{"type":"Feature","geometry":{"type":"Point","coordinates":[28.736953,41.184951]},"properties":{"ad":"Adem Eczanesi","tur":"Sağlık","mahalle":"ARNAVUTKÖY MERKEZ","kaynak":"İBB Açık Veri"}},{"type":"Feature","geometry":{"type":"Point","coordinates":[28.742743,41.258611]},"properties":{"ad":"İnternational Eczanesi","tur":"Sağlık","mahalle":"İMRAHOR","kaynak":"İBB Açık Veri"}},{"type":"Feature","geometry":{"type":"Point","coordinates":[28.746786,41.184474]},"properties":{"ad":"Anadolu Eczanesi","tur":"Sağlık","mahalle":"ANADOLU","kaynak":"İBB Açık Veri"}},{"type":"Feature","geometry":{"type":"Point","coordinates":[28.618896,41.154333]},"properties":{"ad":"Elif Eczanesi","tur":"Sağlık","mahalle":"HASTANE","kaynak":"İBB Açık Veri"}},{"type":"Feature","geometry":{"type":"Point","coordinates":[28.619561,41.156442]},"properties":{"ad":"Yeni Şifa Eczanesi","tur":"Sağlık","mahalle":"HASTANE","kaynak":"İBB Açık Veri"}},{"type":"Feature","geometry":{"type":"Point","coordinates":[28.739968,41.26615]},"properties":{"ad":"İstanbul Airport Eczanesi","tur":"Sağlık","mahalle":"TAYAKADIN","kaynak":"İBB Açık Veri"}},{"type":"Feature","geometry":{"type":"Point","coordinates":[28.739872,41.185924]},"properties":{"ad":"Sağlık Eczanesi","tur":"Sağlık","mahalle":"İSLAMBEY","kaynak":"İBB Açık Veri"}},{"type":"Feature","geometry":{"type":"Point","coordinates":[28.638866,41.111068]},"properties":{"ad":"Yıldırım Eczanesi","tur":"Sağlık","mahalle":"ÖMERLİ","kaynak":"İBB Açık Veri"}},{"type":"Feature","geometry":{"type":"Point","coordinates":[28.745606,41.214475]},"properties":{"ad":"İmrahor Gümüş Eczanesi","tur":"Sağlık","mahalle":"İMRAHOR","kaynak":"İBB Açık Veri"}},{"type":"Feature","geometry":{"type":"Point","coordinates":[28.707756,41.208065]},"properties":{"ad":"Toki Eczanesi","tur":"Sağlık","mahalle":"MEHMET AKİF ERSOY","kaynak":"İBB Açık Veri"}},{"type":"Feature","geometry":{"type":"Point","coordinates":[28.744966,41.178836]},"properties":{"ad":"Veda Alp Eczanesi","tur":"Sağlık","mahalle":"ARNAVUTKÖY MERKEZ","kaynak":"İBB Açık Veri"}},{"type":"Feature","geometry":{"type":"Point","coordinates":[28.610469,41.181146]},"properties":{"ad":"Fatih Eczanesi","tur":"Sağlık","mahalle":"HADIMKÖY","kaynak":"İBB Açık Veri"}},{"type":"Feature","geometry":{"type":"Point","coordinates":[28.763243,41.20021]},"properties":{"ad":"Bolluca Eczanesi","tur":"Sağlık","mahalle":"HİCRET","kaynak":"İBB Açık Veri"}},{"type":"Feature","geometry":{"type":"Point","coordinates":[28.746432,41.178938]},"properties":{"ad":"Ferdem Eczanesi","tur":"Sağlık","mahalle":"ARNAVUTKÖY MERKEZ","kaynak":"İBB Açık Veri"}},{"type":"Feature","geometry":{"type":"Point","coordinates":[28.737429,41.185101]},"properties":{"ad":"Gamze Eczanesi","tur":"Sağlık","mahalle":"ARNAVUTKÖY MERKEZ","kaynak":"İBB Açık Veri"}},{"type":"Feature","geometry":{"type":"Point","coordinates":[28.744194,41.181692]},"properties":{"ad":"Hayat Eczanesi","tur":"Sağlık","mahalle":"ARNAVUTKÖY MERKEZ","kaynak":"İBB Açık Veri"}},{"type":"Feature","geometry":{"type":"Point","coordinates":[28.744059,41.186553]},"properties":{"ad":"Dilan Eczanesi","tur":"Sağlık","mahalle":"ANADOLU","kaynak":"İBB Açık Veri"}},{"type":"Feature","geometry":{"type":"Point","coordinates":[28.740932,41.18184]},"properties":{"ad":"Özdemir Eczanesi","tur":"Sağlık","mahalle":"ARNAVUTKÖY MERKEZ","kaynak":"İBB Açık Veri"}},{"type":"Feature","geometry":{"type":"Point","coordinates":[28.762247,41.186326]},"properties":{"ad":"Boğazköy Eczanesi","tur":"Sağlık","mahalle":"YUNUS EMRE","kaynak":"İBB Açık Veri"}},{"type":"Feature","geometry":{"type":"Point","coordinates":[28.744977,41.184253]},"properties":{"ad":"Marmara Eczanesi","tur":"Sağlık","mahalle":"ANADOLU","kaynak":"İBB Açık Veri"}},{"type":"Feature","geometry":{"type":"Point","coordinates":[28.732983,41.208279]},"properties":{"ad":"İnan Eczanesi","tur":"Sağlık","mahalle":"YAVUZ SELİM","kaynak":"İBB Açık Veri"}},{"type":"Feature","geometry":{"type":"Point","coordinates":[28.749508,41.188386]},"properties":{"ad":"Büşra Eczanesi","tur":"Sağlık","mahalle":"ANADOLU","kaynak":"İBB Açık Veri"}},{"type":"Feature","geometry":{"type":"Point","coordinates":[28.623781,41.156468]},"properties":{"ad":"Şirin Eczanesi","tur":"Sağlık","mahalle":"HADIMKÖY","kaynak":"İBB Açık Veri"}},{"type":"Feature","geometry":{"type":"Point","coordinates":[28.638481,41.115638]},"properties":{"ad":"Deniz Eczanesi","tur":"Sağlık","mahalle":"ÖMERLİ","kaynak":"İBB Açık Veri"}},{"type":"Feature","geometry":{"type":"Point","coordinates":[28.737355,41.185244]},"properties":{"ad":"Serhad Eczanesi","tur":"Sağlık","mahalle":"ARNAVUTKÖY MERKEZ","kaynak":"İBB Açık Veri"}},{"type":"Feature","geometry":{"type":"Point","coordinates":[28.744769,41.18624]},"properties":{"ad":"Serra Eczanesi","tur":"Sağlık","mahalle":"ANADOLU","kaynak":"İBB Açık Veri"}},{"type":"Feature","geometry":{"type":"Point","coordinates":[28.745941,41.178263]},"properties":{"ad":"Tezel Eczanesi","tur":"Sağlık","mahalle":"ARNAVUTKÖY MERKEZ","kaynak":"İBB Açık Veri"}},{"type":"Feature","geometry":{"type":"Point","coordinates":[28.654108,41.111014]},"properties":{"ad":"Derin Eczanesi","tur":"Sağlık","mahalle":"DELİKLİKAYA","kaynak":"İBB Açık Veri"}},{"type":"Feature","geometry":{"type":"Point","coordinates":[28.746118,41.178384]},"properties":{"ad":"Taner Eczanesi","tur":"Sağlık","mahalle":"ARNAVUTKÖY MERKEZ","kaynak":"İBB Açık Veri"}},{"type":"Feature","geometry":{"type":"Point","coordinates":[28.746033,41.178331]},"properties":{"ad":"Yaylalı Eczanesi","tur":"Sağlık","mahalle":"ARNAVUTKÖY MERKEZ","kaynak":"İBB Açık Veri"}},{"type":"Feature","geometry":{"type":"Point","coordinates":[28.622265,41.157725]},"properties":{"ad":"Çilek Eczanesi","tur":"Sağlık","mahalle":"HADIMKÖY","kaynak":"İBB Açık Veri"}},{"type":"Feature","geometry":{"type":"Point","coordinates":[28.745514,41.182664]},"properties":{"ad":"Arnavutköy Özge Eczanesi","tur":"Sağlık","mahalle":"ARNAVUTKÖY MERKEZ","kaynak":"İBB Açık Veri"}},{"type":"Feature","geometry":{"type":"Point","coordinates":[28.612089,41.18211]},"properties":{"ad":"Zeyni Eczanesi","tur":"Sağlık","mahalle":"HADIMKÖY","kaynak":"İBB Açık Veri"}},{"type":"Feature","geometry":{"type":"Point","coordinates":[28.736158,41.189741]},"properties":{"ad":"Derya Eczanesi","tur":"Sağlık","mahalle":"İSLAMBEY","kaynak":"İBB Açık Veri"}},{"type":"Feature","geometry":{"type":"Point","coordinates":[28.74582,41.183899]},"properties":{"ad":"Nilay Eczanesi","tur":"Sağlık","mahalle":"ANADOLU","kaynak":"İBB Açık Veri"}},{"type":"Feature","geometry":{"type":"Point","coordinates":[28.731944,41.192474]},"properties":{"ad":"İnci Eczanesi","tur":"Sağlık","mahalle":"MUSTAFA KEMAL PAŞA","kaynak":"İBB Açık Veri"}},{"type":"Feature","geometry":{"type":"Point","coordinates":[28.746457,41.178606]},"properties":{"ad":"Arnavutköy Şifa Eczanesi","tur":"Sağlık","mahalle":"ARNAVUTKÖY MERKEZ","kaynak":"İBB Açık Veri"}},{"type":"Feature","geometry":{"type":"Point","coordinates":[28.745577,41.182983]},"properties":{"ad":"Bilgiç Eczanesi","tur":"Sağlık","mahalle":"ARNAVUTKÖY MERKEZ","kaynak":"İBB Açık Veri"}},{"type":"Feature","geometry":{"type":"Point","coordinates":[28.640519,41.132794]},"properties":{"ad":"Lm Kozmetik  Ve i","tur":"Sağlık","mahalle":"ÖMERLİ","kaynak":"İBB Açık Veri"}},{"type":"Feature","geometry":{"type":"Point","coordinates":[28.627366,41.157729]},"properties":{"ad":"Fm Akdağ Sağlik Hizmetleri","tur":"Sağlık","mahalle":"HADIMKÖY","kaynak":"İBB Açık Veri"}},{"type":"Feature","geometry":{"type":"Point","coordinates":[28.624404,41.15666]},"properties":{"ad":"Hadimköy Veteriner Kliniği","tur":"Sağlık","mahalle":"HADIMKÖY","kaynak":"İBB Açık Veri"}},{"type":"Feature","geometry":{"type":"Point","coordinates":[28.700765,41.176393]},"properties":{"ad":"Özel Akkonak Rehabilitasyon","tur":"Sağlık","mahalle":"HARAÇÇI","kaynak":"İBB Açık Veri"}},{"type":"Feature","geometry":{"type":"Point","coordinates":[28.746282,41.17897]},"properties":{"ad":"Goncagül Sağlik Hizmetleri","tur":"Sağlık","mahalle":"ARNAVUTKÖY MERKEZ","kaynak":"İBB Açık Veri"}},{"type":"Feature","geometry":{"type":"Point","coordinates":[28.762113,41.195641]},"properties":{"ad":"Lalegül Eğitim Ve Sağlik Hiz.","tur":"Sağlık","mahalle":"ATATÜRK","kaynak":"İBB Açık Veri"}},{"type":"Feature","geometry":{"type":"Point","coordinates":[28.7469,41.193378]},"properties":{"ad":"Şeyma Eczanesi","tur":"Sağlık","mahalle":"İSLAMBEY","kaynak":"İBB Açık Veri"}},{"type":"Feature","geometry":{"type":"Point","coordinates":[28.748083,41.184632]},"properties":{"ad":"Portakal Eczanesi","tur":"Sağlık","mahalle":"ANADOLU","kaynak":"İBB Açık Veri"}},{"type":"Feature","geometry":{"type":"Point","coordinates":[28.747239,41.181795]},"properties":{"ad":"Darüşşifa Eczanesi","tur":"Sağlık","mahalle":"ANADOLU","kaynak":"İBB Açık Veri"}},{"type":"Feature","geometry":{"type":"Point","coordinates":[28.746371,41.178724]},"properties":{"ad":"Göral Ağiz Ve Diş Sağliği Polikliniği","tur":"Sağlık","mahalle":"ARNAVUTKÖY MERKEZ","kaynak":"İBB Açık Veri"}},{"type":"Feature","geometry":{"type":"Point","coordinates":[28.742032,41.184212]},"properties":{"ad":"Arnavutköy Zümrüt Güzellik Salonu","tur":"Sağlık","mahalle":"ARNAVUTKÖY MERKEZ","kaynak":"İBB Açık Veri"}},{"type":"Feature","geometry":{"type":"Point","coordinates":[28.704097,41.174176]},"properties":{"ad":"Özel Akkonak Rehabilitasyon","tur":"Sağlık","mahalle":"HARAÇÇI","kaynak":"İBB Açık Veri"}},{"type":"Feature","geometry":{"type":"Point","coordinates":[28.677062,41.340077]},"properties":{"ad":"Mustafa Yenigün Aile","tur":"Sağlık","mahalle":"KARABURUN","kaynak":"İBB Açık Veri"}},{"type":"Feature","geometry":{"type":"Point","coordinates":[28.739981,41.186031]},"properties":{"ad":"istanbul Mydent Ağiz","tur":"Sağlık","mahalle":"İSLAMBEY","kaynak":"İBB Açık Veri"}},{"type":"Feature","geometry":{"type":"Point","coordinates":[28.703866,41.174582]},"properties":{"ad":"Özel Akkonak Rehabilitasyon","tur":"Sağlık","mahalle":"HARAÇÇI","kaynak":"İBB Açık Veri"}},{"type":"Feature","geometry":{"type":"Point","coordinates":[28.736419,41.183877]},"properties":{"ad":"Özyildiz Veterinerlik","tur":"Sağlık","mahalle":"ARNAVUTKÖY MERKEZ","kaynak":"İBB Açık Veri"}},{"type":"Feature","geometry":{"type":"Point","coordinates":[28.734889,41.190877]},"properties":{"ad":"Medprime Sağlik","tur":"Sağlık","mahalle":"MUSTAFA KEMAL PAŞA","kaynak":"İBB Açık Veri"}},{"type":"Feature","geometry":{"type":"Point","coordinates":[28.744844,41.182068]},"properties":{"ad":"Güden Sağlik","tur":"Sağlık","mahalle":"ARNAVUTKÖY MERKEZ","kaynak":"İBB Açık Veri"}},{"type":"Feature","geometry":{"type":"Point","coordinates":[28.615836,41.157106]},"properties":{"ad":"Burçak Ağiz","tur":"Sağlık","mahalle":"HASTANE","kaynak":"İBB Açık Veri"}},{"type":"Feature","geometry":{"type":"Point","coordinates":[28.736699,41.184246]},"properties":{"ad":"Fhm Sağlik","tur":"Sağlık","mahalle":"ARNAVUTKÖY MERKEZ","kaynak":"İBB Açık Veri"}},{"type":"Feature","geometry":{"type":"Point","coordinates":[28.744262,41.181748]},"properties":{"ad":"Gözden Göz","tur":"Sağlık","mahalle":"ARNAVUTKÖY MERKEZ","kaynak":"İBB Açık Veri"}},{"type":"Feature","geometry":{"type":"Point","coordinates":[28.609685,41.161536]},"properties":{"ad":"Mat Med Medikal","tur":"Sağlık","mahalle":"HADIMKÖY","kaynak":"İBB Açık Veri"}},{"type":"Feature","geometry":{"type":"Point","coordinates":[28.613001,41.151858]},"properties":{"ad":"Maksimed Medikal","tur":"Sağlık","mahalle":"HASTANE","kaynak":"İBB Açık Veri"}},{"type":"Feature","geometry":{"type":"Point","coordinates":[28.629349,41.154342]},"properties":{"ad":"Kim-Pa Ilaç","tur":"Sağlık","mahalle":"HADIMKÖY","kaynak":"İBB Açık Veri"}},{"type":"Feature","geometry":{"type":"Point","coordinates":[28.737175,41.184643]},"properties":{"ad":"Fhm Sağlik","tur":"Sağlık","mahalle":"ARNAVUTKÖY MERKEZ","kaynak":"İBB Açık Veri"}},{"type":"Feature","geometry":{"type":"Point","coordinates":[28.746921,41.177539]},"properties":{"ad":"Sades Sağlik","tur":"Sağlık","mahalle":"ARNAVUTKÖY MERKEZ","kaynak":"İBB Açık Veri"}},{"type":"Feature","geometry":{"type":"Point","coordinates":[28.746048,41.178432]},"properties":{"ad":"Arnavutköy Diyaliz","tur":"Sağlık","mahalle":"ARNAVUTKÖY MERKEZ","kaynak":"İBB Açık Veri"}},{"type":"Feature","geometry":{"type":"Point","coordinates":[28.598788,41.18359]},"properties":{"ad":"Fargen Sağlik","tur":"Sağlık","mahalle":"YASSIÖREN","kaynak":"İBB Açık Veri"}},{"type":"Feature","geometry":{"type":"Point","coordinates":[28.623795,41.156468]},"properties":{"ad":"ikon Ağiz","tur":"Sağlık","mahalle":"HADIMKÖY","kaynak":"İBB Açık Veri"}},{"type":"Feature","geometry":{"type":"Point","coordinates":[28.74487,41.181794]},"properties":{"ad":"Güden Sağlik","tur":"Sağlık","mahalle":"ARNAVUTKÖY MERKEZ","kaynak":"İBB Açık Veri"}},{"type":"Feature","geometry":{"type":"Point","coordinates":[28.746021,41.179266]},"properties":{"ad":"Goncagül Sağlik","tur":"Sağlık","mahalle":"ARNAVUTKÖY MERKEZ","kaynak":"İBB Açık Veri"}},{"type":"Feature","geometry":{"type":"Point","coordinates":[28.735647,41.189927]},"properties":{"ad":"Avrasya Diş Sağlik","tur":"Sağlık","mahalle":"MUSTAFA KEMAL PAŞA","kaynak":"İBB Açık Veri"}},{"type":"Feature","geometry":{"type":"Point","coordinates":[28.763217,41.199997]},"properties":{"ad":"Arnavutköy Acil Sağlik","tur":"Sağlık","mahalle":"HİCRET","kaynak":"İBB Açık Veri"}},{"type":"Feature","geometry":{"type":"Point","coordinates":[28.72306,41.19866]},"properties":{"ad":"Özel Akkonak Rehabilitasyon","tur":"Sağlık","mahalle":"MAREŞAL FEVZİ ÇAKMAK","kaynak":"İBB Açık Veri"}},{"type":"Feature","geometry":{"type":"Point","coordinates":[28.627232,41.157732]},"properties":{"ad":"Fm Akdağ Sağlik","tur":"Sağlık","mahalle":"HADIMKÖY","kaynak":"İBB Açık Veri"}},{"type":"Feature","geometry":{"type":"Point","coordinates":[28.764881,41.201195]},"properties":{"ad":"Özel Diamand Ağiz","tur":"Sağlık","mahalle":"MAVİGÖL","kaynak":"İBB Açık Veri"}},{"type":"Feature","geometry":{"type":"Point","coordinates":[28.642925,41.148113]},"properties":{"ad":"Gh Yildiz ilaç","tur":"Sağlık","mahalle":"HADIMKÖY","kaynak":"İBB Açık Veri"}},{"type":"Feature","geometry":{"type":"Point","coordinates":[28.687943,41.265547]},"properties":{"ad":"Acil Sağlik","tur":"Sağlık","mahalle":"TAYAKADIN","kaynak":"İBB Açık Veri"}},{"type":"Feature","geometry":{"type":"Point","coordinates":[28.74595,41.178855]},"properties":{"ad":"Goncagül Sağlik","tur":"Sağlık","mahalle":"ARNAVUTKÖY MERKEZ","kaynak":"İBB Açık Veri"}},{"type":"Feature","geometry":{"type":"Point","coordinates":[28.615835,41.157479]},"properties":{"ad":"Burçak Ağiz","tur":"Sağlık","mahalle":"HASTANE","kaynak":"İBB Açık Veri"}},{"type":"Feature","geometry":{"type":"Point","coordinates":[28.626158,41.154572]},"properties":{"ad":"Öztürk ilaç","tur":"Sağlık","mahalle":"HADIMKÖY","kaynak":"İBB Açık Veri"}},{"type":"Feature","geometry":{"type":"Point","coordinates":[28.727588,41.187548]},"properties":{"ad":"Denge Ecza","tur":"Sağlık","mahalle":"MUSTAFA KEMAL PAŞA","kaynak":"İBB Açık Veri"}},{"type":"Feature","geometry":{"type":"Point","coordinates":[28.741931,41.18876]},"properties":{"ad":"Tezel Medikal","tur":"Sağlık","mahalle":"İSLAMBEY","kaynak":"İBB Açık Veri"}},{"type":"Feature","geometry":{"type":"Point","coordinates":[28.744318,41.182167]},"properties":{"ad":"Güden Sağlik","tur":"Sağlık","mahalle":"ARNAVUTKÖY MERKEZ","kaynak":"İBB Açık Veri"}},{"type":"Feature","geometry":{"type":"Point","coordinates":[28.746704,41.178385]},"properties":{"ad":"Arn Devlet","tur":"Sağlık","mahalle":"ARNAVUTKÖY MERKEZ","kaynak":"İBB Açık Veri"}},{"type":"Feature","geometry":{"type":"Point","coordinates":[28.715314,41.192757]},"properties":{"ad":"Tanaz Medikal","tur":"Sağlık","mahalle":"TAŞOLUK","kaynak":"İBB Açık Veri"}},{"type":"Feature","geometry":{"type":"Point","coordinates":[28.741286,41.184882]},"properties":{"ad":"Arns Sağlik","tur":"Sağlık","mahalle":"İSLAMBEY","kaynak":"İBB Açık Veri"}},{"type":"Feature","geometry":{"type":"Point","coordinates":[28.607873,41.189221]},"properties":{"ad":"Arun Sağlik","tur":"Sağlık","mahalle":"YASSIÖREN","kaynak":"İBB Açık Veri"}},{"type":"Feature","geometry":{"type":"Point","coordinates":[28.746074,41.17874]},"properties":{"ad":"Arnavutköy Diyaliz","tur":"Sağlık","mahalle":"ARNAVUTKÖY MERKEZ","kaynak":"İBB Açık Veri"}},{"type":"Feature","geometry":{"type":"Point","coordinates":[28.629498,41.138264]},"properties":{"ad":"Time Rainbow Medikal","tur":"Sağlık","mahalle":"ÖMERLİ","kaynak":"İBB Açık Veri"}},{"type":"Feature","geometry":{"type":"Point","coordinates":[28.612054,41.182015]},"properties":{"ad":"Elya Eczanesi","tur":"Sağlık","mahalle":"HADIMKÖY","kaynak":"İBB Açık Veri"}},{"type":"Feature","geometry":{"type":"Point","coordinates":[28.744697,41.178558]},"properties":{"ad":"Seydioğlu Eczanesi","tur":"Sağlık","mahalle":"ARNAVUTKÖY MERKEZ","kaynak":"İBB Açık Veri"}},{"type":"Feature","geometry":{"type":"Point","coordinates":[28.63432,41.157633]},"properties":{"ad":"Dünya Medikal","tur":"Sağlık","mahalle":"HADIMKÖY","kaynak":"İBB Açık Veri"}},{"type":"Feature","geometry":{"type":"Point","coordinates":[28.619345,41.135274]},"properties":{"ad":"Exen Medikal","tur":"Sağlık","mahalle":"YEŞİLBAYIR","kaynak":"İBB Açık Veri"}},{"type":"Feature","geometry":{"type":"Point","coordinates":[28.619231,41.160777]},"properties":{"ad":"Göral Ağiz","tur":"Sağlık","mahalle":"HADIMKÖY","kaynak":"İBB Açık Veri"}},{"type":"Feature","geometry":{"type":"Point","coordinates":[28.633181,41.1298]},"properties":{"ad":"Risus Sağlik","tur":"Sağlık","mahalle":"ÖMERLİ","kaynak":"İBB Açık Veri"}},{"type":"Feature","geometry":{"type":"Point","coordinates":[28.772395,41.194803]},"properties":{"ad":"Kaya Medikal","tur":"Sağlık","mahalle":"BOĞAZKÖY İSTİKLAL","kaynak":"İBB Açık Veri"}},{"type":"Feature","geometry":{"type":"Point","coordinates":[28.775505,41.176354]},"properties":{"ad":"Kaya Medikal","tur":"Sağlık","mahalle":"BOĞAZKÖY İSTİKLAL","kaynak":"İBB Açık Veri"}}]}